<?xml version="1.0" encoding="UTF-8"?>
<gpx xmlns="http://www.topografix.com/GPX/1/1" xmlns:gpxtpx="http://www.garmin.com/xmlschemas/TrackPointExtension/v1" xmlns:xsi="http://www.w3.org/2001/XMLSchema-instance" xsi:schemaLocation="http://www.topografix.com/GPX/1/1 http://www.topografix.com/GPX/1/1/gpx.xsd" version="1.1" creator="gpx.py -- https://github.com/tkrajina/gpxpy">
  <trk>
    <name>gpx from joyrun 1660997527</name>
    <trkseg>
      <trkpt lat="35.884505" lon="115.112929">
        <ele>45.12</ele>
        <time>2022-08-20T12:12:07Z</time>
        <extensions>
          <gpxtpx:TrackPointExtension></gpxtpx:TrackPointExtension>
        </extensions>
      </trkpt>
      <trkpt lat="35.884505" lon="115.112929">
        <ele>45.12</ele>
        <time>2022-08-20T12:12:12Z</time>
        <extensions>
          <gpxtpx:TrackPointExtension></gpxtpx:TrackPointExtension>
        </extensions>
      </trkpt>
      <trkpt lat="35.884532" lon="115.112802">
        <ele>44.89</ele>
        <time>2022-08-20T12:12:17Z</time>
        <extensions>
          <gpxtpx:TrackPointExtension></gpxtpx:TrackPointExtension>
        </extensions>
      </trkpt>
      <trkpt lat="35.884456" lon="115.112772">
        <ele>45.36</ele>
        <time>2022-08-20T12:12:22Z</time>
        <extensions>
          <gpxtpx:TrackPointExtension></gpxtpx:TrackPointExtension>
        </extensions>
      </trkpt>
      <trkpt lat="35.884363" lon="115.112779">
        <ele>45.27</ele>
        <time>2022-08-20T12:12:27Z</time>
        <extensions>
          <gpxtpx:TrackPointExtension></gpxtpx:TrackPointExtension>
        </extensions>
      </trkpt>
      <trkpt lat="35.884291" lon="115.112774">
        <ele>45.35</ele>
        <time>2022-08-20T12:12:32Z</time>
        <extensions>
          <gpxtpx:TrackPointExtension></gpxtpx:TrackPointExtension>
        </extensions>
      </trkpt>
      <trkpt lat="35.884235" lon="115.112762">
        <ele>45.35</ele>
        <time>2022-08-20T12:12:37Z</time>
        <extensions>
          <gpxtpx:TrackPointExtension></gpxtpx:TrackPointExtension>
        </extensions>
      </trkpt>
      <trkpt lat="35.884179" lon="115.112753">
        <ele>45.32</ele>
        <time>2022-08-20T12:12:42Z</time>
        <extensions>
          <gpxtpx:TrackPointExtension></gpxtpx:TrackPointExtension>
        </extensions>
      </trkpt>
      <trkpt lat="35.884124" lon="115.112746">
        <ele>45.45</ele>
        <time>2022-08-20T12:12:47Z</time>
        <extensions>
          <gpxtpx:TrackPointExtension></gpxtpx:TrackPointExtension>
        </extensions>
      </trkpt>
      <trkpt lat="35.884076" lon="115.112741">
        <ele>45.41</ele>
        <time>2022-08-20T12:12:52Z</time>
        <extensions>
          <gpxtpx:TrackPointExtension></gpxtpx:TrackPointExtension>
        </extensions>
      </trkpt>
      <trkpt lat="35.884036" lon="115.112734">
        <ele>45.52</ele>
        <time>2022-08-20T12:12:57Z</time>
        <extensions>
          <gpxtpx:TrackPointExtension></gpxtpx:TrackPointExtension>
        </extensions>
      </trkpt>
      <trkpt lat="35.88399" lon="115.112705">
        <ele>45.55</ele>
        <time>2022-08-20T12:13:02Z</time>
        <extensions>
          <gpxtpx:TrackPointExtension></gpxtpx:TrackPointExtension>
        </extensions>
      </trkpt>
      <trkpt lat="35.883952" lon="115.112692">
        <ele>45.41</ele>
        <time>2022-08-20T12:13:07Z</time>
        <extensions>
          <gpxtpx:TrackPointExtension></gpxtpx:TrackPointExtension>
        </extensions>
      </trkpt>
      <trkpt lat="35.883898" lon="115.112684">
        <ele>45.11</ele>
        <time>2022-08-20T12:13:12Z</time>
        <extensions>
          <gpxtpx:TrackPointExtension></gpxtpx:TrackPointExtension>
        </extensions>
      </trkpt>
      <trkpt lat="35.883843" lon="115.11268">
        <ele>45.03</ele>
        <time>2022-08-20T12:13:17Z</time>
        <extensions>
          <gpxtpx:TrackPointExtension></gpxtpx:TrackPointExtension>
        </extensions>
      </trkpt>
      <trkpt lat="35.883792" lon="115.112689">
        <ele>45.41</ele>
        <time>2022-08-20T12:13:22Z</time>
        <extensions>
          <gpxtpx:TrackPointExtension></gpxtpx:TrackPointExtension>
        </extensions>
      </trkpt>
      <trkpt lat="35.883741" lon="115.112678">
        <ele>45.14</ele>
        <time>2022-08-20T12:13:27Z</time>
        <extensions>
          <gpxtpx:TrackPointExtension></gpxtpx:TrackPointExtension>
        </extensions>
      </trkpt>
      <trkpt lat="35.88369" lon="115.112667">
        <ele>45.05</ele>
        <time>2022-08-20T12:13:32Z</time>
        <extensions>
          <gpxtpx:TrackPointExtension></gpxtpx:TrackPointExtension>
        </extensions>
      </trkpt>
      <trkpt lat="35.883636" lon="115.112666">
        <ele>44.99</ele>
        <time>2022-08-20T12:13:37Z</time>
        <extensions>
          <gpxtpx:TrackPointExtension></gpxtpx:TrackPointExtension>
        </extensions>
      </trkpt>
      <trkpt lat="35.883569" lon="115.11266">
        <ele>45.13</ele>
        <time>2022-08-20T12:13:42Z</time>
        <extensions>
          <gpxtpx:TrackPointExtension></gpxtpx:TrackPointExtension>
        </extensions>
      </trkpt>
      <trkpt lat="35.883534" lon="115.112649">
        <ele>45.06</ele>
        <time>2022-08-20T12:13:47Z</time>
        <extensions>
          <gpxtpx:TrackPointExtension></gpxtpx:TrackPointExtension>
        </extensions>
      </trkpt>
      <trkpt lat="35.883463" lon="115.11262">
        <ele>45.09</ele>
        <time>2022-08-20T12:13:52Z</time>
        <extensions>
          <gpxtpx:TrackPointExtension></gpxtpx:TrackPointExtension>
        </extensions>
      </trkpt>
      <trkpt lat="35.883368" lon="115.112611">
        <ele>44.93</ele>
        <time>2022-08-20T12:13:57Z</time>
        <extensions>
          <gpxtpx:TrackPointExtension></gpxtpx:TrackPointExtension>
        </extensions>
      </trkpt>
      <trkpt lat="35.883267" lon="115.112624">
        <ele>44.98</ele>
        <time>2022-08-20T12:14:02Z</time>
        <extensions>
          <gpxtpx:TrackPointExtension></gpxtpx:TrackPointExtension>
        </extensions>
      </trkpt>
      <trkpt lat="35.883207" lon="115.112639">
        <ele>44.78</ele>
        <time>2022-08-20T12:14:07Z</time>
        <extensions>
          <gpxtpx:TrackPointExtension></gpxtpx:TrackPointExtension>
        </extensions>
      </trkpt>
      <trkpt lat="35.883141" lon="115.112702">
        <ele>44.8</ele>
        <time>2022-08-20T12:14:12Z</time>
        <extensions>
          <gpxtpx:TrackPointExtension></gpxtpx:TrackPointExtension>
        </extensions>
      </trkpt>
      <trkpt lat="35.883121" lon="115.112806">
        <ele>45.13</ele>
        <time>2022-08-20T12:14:17Z</time>
        <extensions>
          <gpxtpx:TrackPointExtension></gpxtpx:TrackPointExtension>
        </extensions>
      </trkpt>
      <trkpt lat="35.883078" lon="115.112902">
        <ele>45</ele>
        <time>2022-08-20T12:14:22Z</time>
        <extensions>
          <gpxtpx:TrackPointExtension></gpxtpx:TrackPointExtension>
        </extensions>
      </trkpt>
      <trkpt lat="35.883041" lon="115.112934">
        <ele>45.19</ele>
        <time>2022-08-20T12:14:27Z</time>
        <extensions>
          <gpxtpx:TrackPointExtension></gpxtpx:TrackPointExtension>
        </extensions>
      </trkpt>
      <trkpt lat="35.882967" lon="115.112945">
        <ele>45.23</ele>
        <time>2022-08-20T12:14:32Z</time>
        <extensions>
          <gpxtpx:TrackPointExtension></gpxtpx:TrackPointExtension>
        </extensions>
      </trkpt>
      <trkpt lat="35.882857" lon="115.112924">
        <ele>45.14</ele>
        <time>2022-08-20T12:14:37Z</time>
        <extensions>
          <gpxtpx:TrackPointExtension></gpxtpx:TrackPointExtension>
        </extensions>
      </trkpt>
      <trkpt lat="35.882715" lon="115.11296">
        <ele>45.19</ele>
        <time>2022-08-20T12:14:42Z</time>
        <extensions>
          <gpxtpx:TrackPointExtension></gpxtpx:TrackPointExtension>
        </extensions>
      </trkpt>
      <trkpt lat="35.882646" lon="115.113081">
        <ele>45.29</ele>
        <time>2022-08-20T12:14:47Z</time>
        <extensions>
          <gpxtpx:TrackPointExtension></gpxtpx:TrackPointExtension>
        </extensions>
      </trkpt>
      <trkpt lat="35.882656" lon="115.113159">
        <ele>45.2</ele>
        <time>2022-08-20T12:14:52Z</time>
        <extensions>
          <gpxtpx:TrackPointExtension></gpxtpx:TrackPointExtension>
        </extensions>
      </trkpt>
      <trkpt lat="35.882665" lon="115.113222">
        <ele>45.1</ele>
        <time>2022-08-20T12:14:57Z</time>
        <extensions>
          <gpxtpx:TrackPointExtension></gpxtpx:TrackPointExtension>
        </extensions>
      </trkpt>
      <trkpt lat="35.882653" lon="115.113266">
        <ele>44.98</ele>
        <time>2022-08-20T12:15:02Z</time>
        <extensions>
          <gpxtpx:TrackPointExtension></gpxtpx:TrackPointExtension>
        </extensions>
      </trkpt>
      <trkpt lat="35.882624" lon="115.113388">
        <ele>45.14</ele>
        <time>2022-08-20T12:15:07Z</time>
        <extensions>
          <gpxtpx:TrackPointExtension></gpxtpx:TrackPointExtension>
        </extensions>
      </trkpt>
      <trkpt lat="35.882617" lon="115.113481">
        <ele>45.33</ele>
        <time>2022-08-20T12:15:12Z</time>
        <extensions>
          <gpxtpx:TrackPointExtension></gpxtpx:TrackPointExtension>
        </extensions>
      </trkpt>
      <trkpt lat="35.882629" lon="115.113479">
        <ele>45.17</ele>
        <time>2022-08-20T12:15:17Z</time>
        <extensions>
          <gpxtpx:TrackPointExtension></gpxtpx:TrackPointExtension>
        </extensions>
      </trkpt>
      <trkpt lat="35.882629" lon="115.113485">
        <ele>45.32</ele>
        <time>2022-08-20T12:15:22Z</time>
        <extensions>
          <gpxtpx:TrackPointExtension></gpxtpx:TrackPointExtension>
        </extensions>
      </trkpt>
      <trkpt lat="35.882629" lon="115.113491">
        <ele>45.21</ele>
        <time>2022-08-20T12:15:27Z</time>
        <extensions>
          <gpxtpx:TrackPointExtension></gpxtpx:TrackPointExtension>
        </extensions>
      </trkpt>
      <trkpt lat="35.882619" lon="115.113559">
        <ele>45.1</ele>
        <time>2022-08-20T12:15:32Z</time>
        <extensions>
          <gpxtpx:TrackPointExtension></gpxtpx:TrackPointExtension>
        </extensions>
      </trkpt>
      <trkpt lat="35.882616" lon="115.113592">
        <ele>45.23</ele>
        <time>2022-08-20T12:15:37Z</time>
        <extensions>
          <gpxtpx:TrackPointExtension></gpxtpx:TrackPointExtension>
        </extensions>
      </trkpt>
      <trkpt lat="35.882622" lon="115.113606">
        <ele>45.12</ele>
        <time>2022-08-20T12:15:42Z</time>
        <extensions>
          <gpxtpx:TrackPointExtension></gpxtpx:TrackPointExtension>
        </extensions>
      </trkpt>
      <trkpt lat="35.88261" lon="115.113612">
        <ele>45.13</ele>
        <time>2022-08-20T12:15:47Z</time>
        <extensions>
          <gpxtpx:TrackPointExtension></gpxtpx:TrackPointExtension>
        </extensions>
      </trkpt>
      <trkpt lat="35.882599" lon="115.113652">
        <ele>45.25</ele>
        <time>2022-08-20T12:15:52Z</time>
        <extensions>
          <gpxtpx:TrackPointExtension></gpxtpx:TrackPointExtension>
        </extensions>
      </trkpt>
      <trkpt lat="35.882576" lon="115.113729">
        <ele>45.08</ele>
        <time>2022-08-20T12:15:57Z</time>
        <extensions>
          <gpxtpx:TrackPointExtension></gpxtpx:TrackPointExtension>
        </extensions>
      </trkpt>
      <trkpt lat="35.882572" lon="115.113784">
        <ele>45.15</ele>
        <time>2022-08-20T12:16:02Z</time>
        <extensions>
          <gpxtpx:TrackPointExtension></gpxtpx:TrackPointExtension>
        </extensions>
      </trkpt>
      <trkpt lat="35.882572" lon="115.113785">
        <ele>45.2</ele>
        <time>2022-08-20T12:16:07Z</time>
        <extensions>
          <gpxtpx:TrackPointExtension></gpxtpx:TrackPointExtension>
        </extensions>
      </trkpt>
      <trkpt lat="35.882582" lon="115.113761">
        <ele>45.18</ele>
        <time>2022-08-20T12:16:12Z</time>
        <extensions>
          <gpxtpx:TrackPointExtension></gpxtpx:TrackPointExtension>
        </extensions>
      </trkpt>
      <trkpt lat="35.882589" lon="115.113732">
        <ele>45.13</ele>
        <time>2022-08-20T12:16:17Z</time>
        <extensions>
          <gpxtpx:TrackPointExtension></gpxtpx:TrackPointExtension>
        </extensions>
      </trkpt>
      <trkpt lat="35.882581" lon="115.113773">
        <ele>45.15</ele>
        <time>2022-08-20T12:16:22Z</time>
        <extensions>
          <gpxtpx:TrackPointExtension></gpxtpx:TrackPointExtension>
        </extensions>
      </trkpt>
      <trkpt lat="35.882584" lon="115.113823">
        <ele>45.44</ele>
        <time>2022-08-20T12:16:27Z</time>
        <extensions>
          <gpxtpx:TrackPointExtension></gpxtpx:TrackPointExtension>
        </extensions>
      </trkpt>
      <trkpt lat="35.882568" lon="115.113923">
        <ele>45.32</ele>
        <time>2022-08-20T12:16:32Z</time>
        <extensions>
          <gpxtpx:TrackPointExtension></gpxtpx:TrackPointExtension>
        </extensions>
      </trkpt>
      <trkpt lat="35.882528" lon="115.11401">
        <ele>45.2</ele>
        <time>2022-08-20T12:16:37Z</time>
        <extensions>
          <gpxtpx:TrackPointExtension></gpxtpx:TrackPointExtension>
        </extensions>
      </trkpt>
      <trkpt lat="35.882534" lon="115.114073">
        <ele>45.27</ele>
        <time>2022-08-20T12:16:42Z</time>
        <extensions>
          <gpxtpx:TrackPointExtension></gpxtpx:TrackPointExtension>
        </extensions>
      </trkpt>
      <trkpt lat="35.88249" lon="115.11415">
        <ele>45.05</ele>
        <time>2022-08-20T12:16:47Z</time>
        <extensions>
          <gpxtpx:TrackPointExtension></gpxtpx:TrackPointExtension>
        </extensions>
      </trkpt>
      <trkpt lat="35.882503" lon="115.114208">
        <ele>45.2</ele>
        <time>2022-08-20T12:16:52Z</time>
        <extensions>
          <gpxtpx:TrackPointExtension></gpxtpx:TrackPointExtension>
        </extensions>
      </trkpt>
      <trkpt lat="35.882512" lon="115.114266">
        <ele>45.13</ele>
        <time>2022-08-20T12:16:57Z</time>
        <extensions>
          <gpxtpx:TrackPointExtension></gpxtpx:TrackPointExtension>
        </extensions>
      </trkpt>
      <trkpt lat="35.882472" lon="115.114338">
        <ele>45.07</ele>
        <time>2022-08-20T12:17:02Z</time>
        <extensions>
          <gpxtpx:TrackPointExtension></gpxtpx:TrackPointExtension>
        </extensions>
      </trkpt>
      <trkpt lat="35.882467" lon="115.114405">
        <ele>45.09</ele>
        <time>2022-08-20T12:17:07Z</time>
        <extensions>
          <gpxtpx:TrackPointExtension></gpxtpx:TrackPointExtension>
        </extensions>
      </trkpt>
      <trkpt lat="35.882438" lon="115.114461">
        <ele>45</ele>
        <time>2022-08-20T12:17:12Z</time>
        <extensions>
          <gpxtpx:TrackPointExtension></gpxtpx:TrackPointExtension>
        </extensions>
      </trkpt>
      <trkpt lat="35.882444" lon="115.114516">
        <ele>45.15</ele>
        <time>2022-08-20T12:17:17Z</time>
        <extensions>
          <gpxtpx:TrackPointExtension></gpxtpx:TrackPointExtension>
        </extensions>
      </trkpt>
      <trkpt lat="35.882463" lon="115.114589">
        <ele>45.06</ele>
        <time>2022-08-20T12:17:22Z</time>
        <extensions>
          <gpxtpx:TrackPointExtension></gpxtpx:TrackPointExtension>
        </extensions>
      </trkpt>
      <trkpt lat="35.882449" lon="115.114646">
        <ele>45.02</ele>
        <time>2022-08-20T12:17:27Z</time>
        <extensions>
          <gpxtpx:TrackPointExtension></gpxtpx:TrackPointExtension>
        </extensions>
      </trkpt>
      <trkpt lat="35.882424" lon="115.114704">
        <ele>44.94</ele>
        <time>2022-08-20T12:17:32Z</time>
        <extensions>
          <gpxtpx:TrackPointExtension></gpxtpx:TrackPointExtension>
        </extensions>
      </trkpt>
      <trkpt lat="35.882382" lon="115.114795">
        <ele>44.98</ele>
        <time>2022-08-20T12:17:37Z</time>
        <extensions>
          <gpxtpx:TrackPointExtension></gpxtpx:TrackPointExtension>
        </extensions>
      </trkpt>
      <trkpt lat="35.882359" lon="115.114892">
        <ele>45.11</ele>
        <time>2022-08-20T12:17:42Z</time>
        <extensions>
          <gpxtpx:TrackPointExtension></gpxtpx:TrackPointExtension>
        </extensions>
      </trkpt>
      <trkpt lat="35.882369" lon="115.114978">
        <ele>45.29</ele>
        <time>2022-08-20T12:17:47Z</time>
        <extensions>
          <gpxtpx:TrackPointExtension></gpxtpx:TrackPointExtension>
        </extensions>
      </trkpt>
      <trkpt lat="35.882341" lon="115.11504">
        <ele>45.22</ele>
        <time>2022-08-20T12:17:52Z</time>
        <extensions>
          <gpxtpx:TrackPointExtension></gpxtpx:TrackPointExtension>
        </extensions>
      </trkpt>
      <trkpt lat="35.882356" lon="115.115143">
        <ele>45.19</ele>
        <time>2022-08-20T12:17:57Z</time>
        <extensions>
          <gpxtpx:TrackPointExtension></gpxtpx:TrackPointExtension>
        </extensions>
      </trkpt>
      <trkpt lat="35.88231" lon="115.115241">
        <ele>45.24</ele>
        <time>2022-08-20T12:18:02Z</time>
        <extensions>
          <gpxtpx:TrackPointExtension></gpxtpx:TrackPointExtension>
        </extensions>
      </trkpt>
      <trkpt lat="35.882319" lon="115.115341">
        <ele>45.38</ele>
        <time>2022-08-20T12:18:07Z</time>
        <extensions>
          <gpxtpx:TrackPointExtension></gpxtpx:TrackPointExtension>
        </extensions>
      </trkpt>
      <trkpt lat="35.882356" lon="115.115417">
        <ele>45.33</ele>
        <time>2022-08-20T12:18:12Z</time>
        <extensions>
          <gpxtpx:TrackPointExtension></gpxtpx:TrackPointExtension>
        </extensions>
      </trkpt>
      <trkpt lat="35.88237" lon="115.115495">
        <ele>45.24</ele>
        <time>2022-08-20T12:18:17Z</time>
        <extensions>
          <gpxtpx:TrackPointExtension></gpxtpx:TrackPointExtension>
        </extensions>
      </trkpt>
      <trkpt lat="35.882341" lon="115.115571">
        <ele>45.21</ele>
        <time>2022-08-20T12:18:22Z</time>
        <extensions>
          <gpxtpx:TrackPointExtension></gpxtpx:TrackPointExtension>
        </extensions>
      </trkpt>
      <trkpt lat="35.882304" lon="115.115667">
        <ele>45.1</ele>
        <time>2022-08-20T12:18:27Z</time>
        <extensions>
          <gpxtpx:TrackPointExtension></gpxtpx:TrackPointExtension>
        </extensions>
      </trkpt>
      <trkpt lat="35.882293" lon="115.11574">
        <ele>45.27</ele>
        <time>2022-08-20T12:18:32Z</time>
        <extensions>
          <gpxtpx:TrackPointExtension></gpxtpx:TrackPointExtension>
        </extensions>
      </trkpt>
      <trkpt lat="35.882283" lon="115.115808">
        <ele>45.22</ele>
        <time>2022-08-20T12:18:37Z</time>
        <extensions>
          <gpxtpx:TrackPointExtension></gpxtpx:TrackPointExtension>
        </extensions>
      </trkpt>
      <trkpt lat="35.882262" lon="115.11588">
        <ele>45.39</ele>
        <time>2022-08-20T12:18:42Z</time>
        <extensions>
          <gpxtpx:TrackPointExtension></gpxtpx:TrackPointExtension>
        </extensions>
      </trkpt>
      <trkpt lat="35.882252" lon="115.115963">
        <ele>45.35</ele>
        <time>2022-08-20T12:18:47Z</time>
        <extensions>
          <gpxtpx:TrackPointExtension></gpxtpx:TrackPointExtension>
        </extensions>
      </trkpt>
      <trkpt lat="35.882266" lon="115.116038">
        <ele>45.17</ele>
        <time>2022-08-20T12:18:52Z</time>
        <extensions>
          <gpxtpx:TrackPointExtension></gpxtpx:TrackPointExtension>
        </extensions>
      </trkpt>
      <trkpt lat="35.882271" lon="115.116111">
        <ele>44.64</ele>
        <time>2022-08-20T12:18:57Z</time>
        <extensions>
          <gpxtpx:TrackPointExtension></gpxtpx:TrackPointExtension>
        </extensions>
      </trkpt>
      <trkpt lat="35.88226" lon="115.116126">
        <ele>45.16</ele>
        <time>2022-08-20T12:19:02Z</time>
        <extensions>
          <gpxtpx:TrackPointExtension></gpxtpx:TrackPointExtension>
        </extensions>
      </trkpt>
      <trkpt lat="35.882249" lon="115.116141">
        <ele>45.26</ele>
        <time>2022-08-20T12:19:07Z</time>
        <extensions>
          <gpxtpx:TrackPointExtension></gpxtpx:TrackPointExtension>
        </extensions>
      </trkpt>
      <trkpt lat="35.882257" lon="115.116208">
        <ele>45.27</ele>
        <time>2022-08-20T12:19:12Z</time>
        <extensions>
          <gpxtpx:TrackPointExtension></gpxtpx:TrackPointExtension>
        </extensions>
      </trkpt>
      <trkpt lat="35.882252" lon="115.116271">
        <ele>45.15</ele>
        <time>2022-08-20T12:19:17Z</time>
        <extensions>
          <gpxtpx:TrackPointExtension></gpxtpx:TrackPointExtension>
        </extensions>
      </trkpt>
      <trkpt lat="35.882232" lon="115.116363">
        <ele>45.26</ele>
        <time>2022-08-20T12:19:22Z</time>
        <extensions>
          <gpxtpx:TrackPointExtension></gpxtpx:TrackPointExtension>
        </extensions>
      </trkpt>
    </trkseg>
    <trkseg>
      <trkpt lat="35.88217" lon="115.116597">
        <ele>44.77</ele>
        <time>2022-08-20T12:23:05Z</time>
        <extensions>
          <gpxtpx:TrackPointExtension></gpxtpx:TrackPointExtension>
        </extensions>
      </trkpt>
      <trkpt lat="35.882151" lon="115.116621">
        <ele>44.74</ele>
        <time>2022-08-20T12:23:10Z</time>
        <extensions>
          <gpxtpx:TrackPointExtension></gpxtpx:TrackPointExtension>
        </extensions>
      </trkpt>
      <trkpt lat="35.882147" lon="115.116672">
        <ele>44.69</ele>
        <time>2022-08-20T12:23:15Z</time>
        <extensions>
          <gpxtpx:TrackPointExtension></gpxtpx:TrackPointExtension>
        </extensions>
      </trkpt>
      <trkpt lat="35.882148" lon="115.116703">
        <ele>44.46</ele>
        <time>2022-08-20T12:23:20Z</time>
        <extensions>
          <gpxtpx:TrackPointExtension></gpxtpx:TrackPointExtension>
        </extensions>
      </trkpt>
      <trkpt lat="35.882156" lon="115.116784">
        <ele>44.41</ele>
        <time>2022-08-20T12:23:25Z</time>
        <extensions>
          <gpxtpx:TrackPointExtension></gpxtpx:TrackPointExtension>
        </extensions>
      </trkpt>
      <trkpt lat="35.882154" lon="115.116886">
        <ele>44.31</ele>
        <time>2022-08-20T12:23:30Z</time>
        <extensions>
          <gpxtpx:TrackPointExtension></gpxtpx:TrackPointExtension>
        </extensions>
      </trkpt>
      <trkpt lat="35.882136" lon="115.116942">
        <ele>44.34</ele>
        <time>2022-08-20T12:23:35Z</time>
        <extensions>
          <gpxtpx:TrackPointExtension></gpxtpx:TrackPointExtension>
        </extensions>
      </trkpt>
      <trkpt lat="35.882136" lon="115.116907">
        <ele>44.24</ele>
        <time>2022-08-20T12:23:40Z</time>
        <extensions>
          <gpxtpx:TrackPointExtension></gpxtpx:TrackPointExtension>
        </extensions>
      </trkpt>
      <trkpt lat="35.882165" lon="115.116805">
        <ele>44.41</ele>
        <time>2022-08-20T12:23:45Z</time>
        <extensions>
          <gpxtpx:TrackPointExtension></gpxtpx:TrackPointExtension>
        </extensions>
      </trkpt>
      <trkpt lat="35.882158" lon="115.11671">
        <ele>44.54</ele>
        <time>2022-08-20T12:23:50Z</time>
        <extensions>
          <gpxtpx:TrackPointExtension></gpxtpx:TrackPointExtension>
        </extensions>
      </trkpt>
      <trkpt lat="35.882186" lon="115.116613">
        <ele>44.4</ele>
        <time>2022-08-20T12:23:55Z</time>
        <extensions>
          <gpxtpx:TrackPointExtension></gpxtpx:TrackPointExtension>
        </extensions>
      </trkpt>
      <trkpt lat="35.882203" lon="115.116495">
        <ele>44.22</ele>
        <time>2022-08-20T12:24:00Z</time>
        <extensions>
          <gpxtpx:TrackPointExtension></gpxtpx:TrackPointExtension>
        </extensions>
      </trkpt>
      <trkpt lat="35.882238" lon="115.116382">
        <ele>44.35</ele>
        <time>2022-08-20T12:24:05Z</time>
        <extensions>
          <gpxtpx:TrackPointExtension></gpxtpx:TrackPointExtension>
        </extensions>
      </trkpt>
      <trkpt lat="35.88226" lon="115.116274">
        <ele>44.31</ele>
        <time>2022-08-20T12:24:10Z</time>
        <extensions>
          <gpxtpx:TrackPointExtension></gpxtpx:TrackPointExtension>
        </extensions>
      </trkpt>
      <trkpt lat="35.882262" lon="115.116175">
        <ele>44.52</ele>
        <time>2022-08-20T12:24:15Z</time>
        <extensions>
          <gpxtpx:TrackPointExtension></gpxtpx:TrackPointExtension>
        </extensions>
      </trkpt>
      <trkpt lat="35.882261" lon="115.116085">
        <ele>44.32</ele>
        <time>2022-08-20T12:24:20Z</time>
        <extensions>
          <gpxtpx:TrackPointExtension></gpxtpx:TrackPointExtension>
        </extensions>
      </trkpt>
      <trkpt lat="35.882278" lon="115.115994">
        <ele>44.06</ele>
        <time>2022-08-20T12:24:25Z</time>
        <extensions>
          <gpxtpx:TrackPointExtension></gpxtpx:TrackPointExtension>
        </extensions>
      </trkpt>
      <trkpt lat="35.882292" lon="115.115886">
        <ele>44.17</ele>
        <time>2022-08-20T12:24:30Z</time>
        <extensions>
          <gpxtpx:TrackPointExtension></gpxtpx:TrackPointExtension>
        </extensions>
      </trkpt>
      <trkpt lat="35.882309" lon="115.115764">
        <ele>43.9</ele>
        <time>2022-08-20T12:24:35Z</time>
        <extensions>
          <gpxtpx:TrackPointExtension></gpxtpx:TrackPointExtension>
        </extensions>
      </trkpt>
      <trkpt lat="35.882321" lon="115.115667">
        <ele>44.04</ele>
        <time>2022-08-20T12:24:40Z</time>
        <extensions>
          <gpxtpx:TrackPointExtension></gpxtpx:TrackPointExtension>
        </extensions>
      </trkpt>
      <trkpt lat="35.882329" lon="115.115559">
        <ele>44.22</ele>
        <time>2022-08-20T12:24:45Z</time>
        <extensions>
          <gpxtpx:TrackPointExtension></gpxtpx:TrackPointExtension>
        </extensions>
      </trkpt>
      <trkpt lat="35.88234" lon="115.115441">
        <ele>44.15</ele>
        <time>2022-08-20T12:24:50Z</time>
        <extensions>
          <gpxtpx:TrackPointExtension></gpxtpx:TrackPointExtension>
        </extensions>
      </trkpt>
      <trkpt lat="35.882353" lon="115.115327">
        <ele>44.09</ele>
        <time>2022-08-20T12:24:55Z</time>
        <extensions>
          <gpxtpx:TrackPointExtension></gpxtpx:TrackPointExtension>
        </extensions>
      </trkpt>
      <trkpt lat="35.882367" lon="115.115228">
        <ele>44.08</ele>
        <time>2022-08-20T12:25:00Z</time>
        <extensions>
          <gpxtpx:TrackPointExtension></gpxtpx:TrackPointExtension>
        </extensions>
      </trkpt>
      <trkpt lat="35.882376" lon="115.115111">
        <ele>44.05</ele>
        <time>2022-08-20T12:25:05Z</time>
        <extensions>
          <gpxtpx:TrackPointExtension></gpxtpx:TrackPointExtension>
        </extensions>
      </trkpt>
      <trkpt lat="35.882402" lon="115.114998">
        <ele>43.96</ele>
        <time>2022-08-20T12:25:10Z</time>
        <extensions>
          <gpxtpx:TrackPointExtension></gpxtpx:TrackPointExtension>
        </extensions>
      </trkpt>
      <trkpt lat="35.88241" lon="115.11488">
        <ele>44.08</ele>
        <time>2022-08-20T12:25:15Z</time>
        <extensions>
          <gpxtpx:TrackPointExtension></gpxtpx:TrackPointExtension>
        </extensions>
      </trkpt>
      <trkpt lat="35.882413" lon="115.114745">
        <ele>44.06</ele>
        <time>2022-08-20T12:25:20Z</time>
        <extensions>
          <gpxtpx:TrackPointExtension></gpxtpx:TrackPointExtension>
        </extensions>
      </trkpt>
      <trkpt lat="35.882438" lon="115.114607">
        <ele>43.96</ele>
        <time>2022-08-20T12:25:25Z</time>
        <extensions>
          <gpxtpx:TrackPointExtension></gpxtpx:TrackPointExtension>
        </extensions>
      </trkpt>
      <trkpt lat="35.88247" lon="115.114487">
        <ele>43.99</ele>
        <time>2022-08-20T12:25:30Z</time>
        <extensions>
          <gpxtpx:TrackPointExtension></gpxtpx:TrackPointExtension>
        </extensions>
      </trkpt>
      <trkpt lat="35.882479" lon="115.114375">
        <ele>44.03</ele>
        <time>2022-08-20T12:25:35Z</time>
        <extensions>
          <gpxtpx:TrackPointExtension></gpxtpx:TrackPointExtension>
        </extensions>
      </trkpt>
      <trkpt lat="35.882505" lon="115.114251">
        <ele>44.05</ele>
        <time>2022-08-20T12:25:40Z</time>
        <extensions>
          <gpxtpx:TrackPointExtension></gpxtpx:TrackPointExtension>
        </extensions>
      </trkpt>
      <trkpt lat="35.882516" lon="115.114154">
        <ele>44.16</ele>
        <time>2022-08-20T12:25:45Z</time>
        <extensions>
          <gpxtpx:TrackPointExtension></gpxtpx:TrackPointExtension>
        </extensions>
      </trkpt>
      <trkpt lat="35.882516" lon="115.114024">
        <ele>43.94</ele>
        <time>2022-08-20T12:25:50Z</time>
        <extensions>
          <gpxtpx:TrackPointExtension></gpxtpx:TrackPointExtension>
        </extensions>
      </trkpt>
      <trkpt lat="35.882535" lon="115.113918">
        <ele>43.96</ele>
        <time>2022-08-20T12:25:55Z</time>
        <extensions>
          <gpxtpx:TrackPointExtension></gpxtpx:TrackPointExtension>
        </extensions>
      </trkpt>
      <trkpt lat="35.882545" lon="115.113803">
        <ele>43.92</ele>
        <time>2022-08-20T12:26:00Z</time>
        <extensions>
          <gpxtpx:TrackPointExtension></gpxtpx:TrackPointExtension>
        </extensions>
      </trkpt>
      <trkpt lat="35.882573" lon="115.113698">
        <ele>43.62</ele>
        <time>2022-08-20T12:26:05Z</time>
        <extensions>
          <gpxtpx:TrackPointExtension></gpxtpx:TrackPointExtension>
        </extensions>
      </trkpt>
      <trkpt lat="35.882619" lon="115.113586">
        <ele>43.61</ele>
        <time>2022-08-20T12:26:10Z</time>
        <extensions>
          <gpxtpx:TrackPointExtension></gpxtpx:TrackPointExtension>
        </extensions>
      </trkpt>
      <trkpt lat="35.882624" lon="115.113477">
        <ele>43.63</ele>
        <time>2022-08-20T12:26:15Z</time>
        <extensions>
          <gpxtpx:TrackPointExtension></gpxtpx:TrackPointExtension>
        </extensions>
      </trkpt>
      <trkpt lat="35.882618" lon="115.113366">
        <ele>43.53</ele>
        <time>2022-08-20T12:26:20Z</time>
        <extensions>
          <gpxtpx:TrackPointExtension></gpxtpx:TrackPointExtension>
        </extensions>
      </trkpt>
      <trkpt lat="35.882646" lon="115.11326">
        <ele>43.59</ele>
        <time>2022-08-20T12:26:25Z</time>
        <extensions>
          <gpxtpx:TrackPointExtension></gpxtpx:TrackPointExtension>
        </extensions>
      </trkpt>
      <trkpt lat="35.882698" lon="115.113106">
        <ele>43.68</ele>
        <time>2022-08-20T12:26:30Z</time>
        <extensions>
          <gpxtpx:TrackPointExtension></gpxtpx:TrackPointExtension>
        </extensions>
      </trkpt>
      <trkpt lat="35.882735" lon="115.112989">
        <ele>43.77</ele>
        <time>2022-08-20T12:26:35Z</time>
        <extensions>
          <gpxtpx:TrackPointExtension></gpxtpx:TrackPointExtension>
        </extensions>
      </trkpt>
      <trkpt lat="35.882724" lon="115.112879">
        <ele>43.78</ele>
        <time>2022-08-20T12:26:40Z</time>
        <extensions>
          <gpxtpx:TrackPointExtension></gpxtpx:TrackPointExtension>
        </extensions>
      </trkpt>
      <trkpt lat="35.882725" lon="115.112755">
        <ele>43.59</ele>
        <time>2022-08-20T12:26:45Z</time>
        <extensions>
          <gpxtpx:TrackPointExtension></gpxtpx:TrackPointExtension>
        </extensions>
      </trkpt>
      <trkpt lat="35.882672" lon="115.112639">
        <ele>43.49</ele>
        <time>2022-08-20T12:26:50Z</time>
        <extensions>
          <gpxtpx:TrackPointExtension></gpxtpx:TrackPointExtension>
        </extensions>
      </trkpt>
      <trkpt lat="35.882571" lon="115.112573">
        <ele>43.39</ele>
        <time>2022-08-20T12:26:55Z</time>
        <extensions>
          <gpxtpx:TrackPointExtension></gpxtpx:TrackPointExtension>
        </extensions>
      </trkpt>
      <trkpt lat="35.882478" lon="115.112563">
        <ele>43.62</ele>
        <time>2022-08-20T12:27:00Z</time>
        <extensions>
          <gpxtpx:TrackPointExtension></gpxtpx:TrackPointExtension>
        </extensions>
      </trkpt>
      <trkpt lat="35.882405" lon="115.112571">
        <ele>43.86</ele>
        <time>2022-08-20T12:27:05Z</time>
        <extensions>
          <gpxtpx:TrackPointExtension></gpxtpx:TrackPointExtension>
        </extensions>
      </trkpt>
      <trkpt lat="35.882326" lon="115.112547">
        <ele>43.85</ele>
        <time>2022-08-20T12:27:10Z</time>
        <extensions>
          <gpxtpx:TrackPointExtension></gpxtpx:TrackPointExtension>
        </extensions>
      </trkpt>
      <trkpt lat="35.882251" lon="115.112557">
        <ele>43.87</ele>
        <time>2022-08-20T12:27:15Z</time>
        <extensions>
          <gpxtpx:TrackPointExtension></gpxtpx:TrackPointExtension>
        </extensions>
      </trkpt>
      <trkpt lat="35.88217" lon="115.112556">
        <ele>43.85</ele>
        <time>2022-08-20T12:27:20Z</time>
        <extensions>
          <gpxtpx:TrackPointExtension></gpxtpx:TrackPointExtension>
        </extensions>
      </trkpt>
      <trkpt lat="35.88209" lon="115.112536">
        <ele>43.62</ele>
        <time>2022-08-20T12:27:25Z</time>
        <extensions>
          <gpxtpx:TrackPointExtension></gpxtpx:TrackPointExtension>
        </extensions>
      </trkpt>
      <trkpt lat="35.882019" lon="115.112521">
        <ele>43.79</ele>
        <time>2022-08-20T12:27:30Z</time>
        <extensions>
          <gpxtpx:TrackPointExtension></gpxtpx:TrackPointExtension>
        </extensions>
      </trkpt>
      <trkpt lat="35.881935" lon="115.11251">
        <ele>43.74</ele>
        <time>2022-08-20T12:27:35Z</time>
        <extensions>
          <gpxtpx:TrackPointExtension></gpxtpx:TrackPointExtension>
        </extensions>
      </trkpt>
      <trkpt lat="35.881835" lon="115.112492">
        <ele>43.7</ele>
        <time>2022-08-20T12:27:40Z</time>
        <extensions>
          <gpxtpx:TrackPointExtension></gpxtpx:TrackPointExtension>
        </extensions>
      </trkpt>
      <trkpt lat="35.881747" lon="115.112456">
        <ele>43.84</ele>
        <time>2022-08-20T12:27:45Z</time>
        <extensions>
          <gpxtpx:TrackPointExtension></gpxtpx:TrackPointExtension>
        </extensions>
      </trkpt>
      <trkpt lat="35.881656" lon="115.112431">
        <ele>43.64</ele>
        <time>2022-08-20T12:27:50Z</time>
        <extensions>
          <gpxtpx:TrackPointExtension></gpxtpx:TrackPointExtension>
        </extensions>
      </trkpt>
      <trkpt lat="35.881531" lon="115.112411">
        <ele>43.62</ele>
        <time>2022-08-20T12:27:55Z</time>
        <extensions>
          <gpxtpx:TrackPointExtension></gpxtpx:TrackPointExtension>
        </extensions>
      </trkpt>
      <trkpt lat="35.881427" lon="115.112411">
        <ele>43.78</ele>
        <time>2022-08-20T12:28:00Z</time>
        <extensions>
          <gpxtpx:TrackPointExtension></gpxtpx:TrackPointExtension>
        </extensions>
      </trkpt>
      <trkpt lat="35.881335" lon="115.112392">
        <ele>43.97</ele>
        <time>2022-08-20T12:28:05Z</time>
        <extensions>
          <gpxtpx:TrackPointExtension></gpxtpx:TrackPointExtension>
        </extensions>
      </trkpt>
      <trkpt lat="35.881248" lon="115.11239">
        <ele>43.95</ele>
        <time>2022-08-20T12:28:10Z</time>
        <extensions>
          <gpxtpx:TrackPointExtension></gpxtpx:TrackPointExtension>
        </extensions>
      </trkpt>
      <trkpt lat="35.881149" lon="115.112362">
        <ele>43.84</ele>
        <time>2022-08-20T12:28:15Z</time>
        <extensions>
          <gpxtpx:TrackPointExtension></gpxtpx:TrackPointExtension>
        </extensions>
      </trkpt>
      <trkpt lat="35.881074" lon="115.112347">
        <ele>43.73</ele>
        <time>2022-08-20T12:28:20Z</time>
        <extensions>
          <gpxtpx:TrackPointExtension></gpxtpx:TrackPointExtension>
        </extensions>
      </trkpt>
      <trkpt lat="35.880997" lon="115.112323">
        <ele>43.75</ele>
        <time>2022-08-20T12:28:25Z</time>
        <extensions>
          <gpxtpx:TrackPointExtension></gpxtpx:TrackPointExtension>
        </extensions>
      </trkpt>
      <trkpt lat="35.880917" lon="115.112313">
        <ele>43.8</ele>
        <time>2022-08-20T12:28:30Z</time>
        <extensions>
          <gpxtpx:TrackPointExtension></gpxtpx:TrackPointExtension>
        </extensions>
      </trkpt>
      <trkpt lat="35.880823" lon="115.112292">
        <ele>43.95</ele>
        <time>2022-08-20T12:28:35Z</time>
        <extensions>
          <gpxtpx:TrackPointExtension></gpxtpx:TrackPointExtension>
        </extensions>
      </trkpt>
      <trkpt lat="35.880715" lon="115.112262">
        <ele>43.78</ele>
        <time>2022-08-20T12:28:40Z</time>
        <extensions>
          <gpxtpx:TrackPointExtension></gpxtpx:TrackPointExtension>
        </extensions>
      </trkpt>
      <trkpt lat="35.880616" lon="115.112246">
        <ele>43.72</ele>
        <time>2022-08-20T12:28:45Z</time>
        <extensions>
          <gpxtpx:TrackPointExtension></gpxtpx:TrackPointExtension>
        </extensions>
      </trkpt>
      <trkpt lat="35.880528" lon="115.112237">
        <ele>44.09</ele>
        <time>2022-08-20T12:28:50Z</time>
        <extensions>
          <gpxtpx:TrackPointExtension></gpxtpx:TrackPointExtension>
        </extensions>
      </trkpt>
      <trkpt lat="35.880443" lon="115.112213">
        <ele>43.8</ele>
        <time>2022-08-20T12:28:55Z</time>
        <extensions>
          <gpxtpx:TrackPointExtension></gpxtpx:TrackPointExtension>
        </extensions>
      </trkpt>
      <trkpt lat="35.880338" lon="115.112175">
        <ele>43.78</ele>
        <time>2022-08-20T12:29:00Z</time>
        <extensions>
          <gpxtpx:TrackPointExtension></gpxtpx:TrackPointExtension>
        </extensions>
      </trkpt>
      <trkpt lat="35.88024" lon="115.112145">
        <ele>43.97</ele>
        <time>2022-08-20T12:29:05Z</time>
        <extensions>
          <gpxtpx:TrackPointExtension></gpxtpx:TrackPointExtension>
        </extensions>
      </trkpt>
      <trkpt lat="35.880149" lon="115.112122">
        <ele>44.03</ele>
        <time>2022-08-20T12:29:10Z</time>
        <extensions>
          <gpxtpx:TrackPointExtension></gpxtpx:TrackPointExtension>
        </extensions>
      </trkpt>
      <trkpt lat="35.880074" lon="115.112103">
        <ele>43.67</ele>
        <time>2022-08-20T12:29:15Z</time>
        <extensions>
          <gpxtpx:TrackPointExtension></gpxtpx:TrackPointExtension>
        </extensions>
      </trkpt>
      <trkpt lat="35.879987" lon="115.112084">
        <ele>43.88</ele>
        <time>2022-08-20T12:29:20Z</time>
        <extensions>
          <gpxtpx:TrackPointExtension></gpxtpx:TrackPointExtension>
        </extensions>
      </trkpt>
      <trkpt lat="35.879895" lon="115.112078">
        <ele>43.65</ele>
        <time>2022-08-20T12:29:25Z</time>
        <extensions>
          <gpxtpx:TrackPointExtension></gpxtpx:TrackPointExtension>
        </extensions>
      </trkpt>
      <trkpt lat="35.879821" lon="115.112084">
        <ele>43.9</ele>
        <time>2022-08-20T12:29:30Z</time>
        <extensions>
          <gpxtpx:TrackPointExtension></gpxtpx:TrackPointExtension>
        </extensions>
      </trkpt>
      <trkpt lat="35.879728" lon="115.112059">
        <ele>43.56</ele>
        <time>2022-08-20T12:29:35Z</time>
        <extensions>
          <gpxtpx:TrackPointExtension></gpxtpx:TrackPointExtension>
        </extensions>
      </trkpt>
      <trkpt lat="35.879636" lon="115.112041">
        <ele>43.83</ele>
        <time>2022-08-20T12:29:40Z</time>
        <extensions>
          <gpxtpx:TrackPointExtension></gpxtpx:TrackPointExtension>
        </extensions>
      </trkpt>
      <trkpt lat="35.879553" lon="115.111989">
        <ele>43.87</ele>
        <time>2022-08-20T12:29:45Z</time>
        <extensions>
          <gpxtpx:TrackPointExtension></gpxtpx:TrackPointExtension>
        </extensions>
      </trkpt>
      <trkpt lat="35.879539" lon="115.111958">
        <ele>43.99</ele>
        <time>2022-08-20T12:29:50Z</time>
        <extensions>
          <gpxtpx:TrackPointExtension></gpxtpx:TrackPointExtension>
        </extensions>
      </trkpt>
      <trkpt lat="35.879522" lon="115.111927">
        <ele>43.81</ele>
        <time>2022-08-20T12:29:55Z</time>
        <extensions>
          <gpxtpx:TrackPointExtension></gpxtpx:TrackPointExtension>
        </extensions>
      </trkpt>
      <trkpt lat="35.879507" lon="115.111822">
        <ele>43.51</ele>
        <time>2022-08-20T12:30:00Z</time>
        <extensions>
          <gpxtpx:TrackPointExtension></gpxtpx:TrackPointExtension>
        </extensions>
      </trkpt>
      <trkpt lat="35.879507" lon="115.111718">
        <ele>43.73</ele>
        <time>2022-08-20T12:30:05Z</time>
        <extensions>
          <gpxtpx:TrackPointExtension></gpxtpx:TrackPointExtension>
        </extensions>
      </trkpt>
      <trkpt lat="35.87951" lon="115.111629">
        <ele>44</ele>
        <time>2022-08-20T12:30:10Z</time>
        <extensions>
          <gpxtpx:TrackPointExtension></gpxtpx:TrackPointExtension>
        </extensions>
      </trkpt>
      <trkpt lat="35.879526" lon="115.111523">
        <ele>44.05</ele>
        <time>2022-08-20T12:30:15Z</time>
        <extensions>
          <gpxtpx:TrackPointExtension></gpxtpx:TrackPointExtension>
        </extensions>
      </trkpt>
      <trkpt lat="35.879556" lon="115.111454">
        <ele>43.9</ele>
        <time>2022-08-20T12:30:20Z</time>
        <extensions>
          <gpxtpx:TrackPointExtension></gpxtpx:TrackPointExtension>
        </extensions>
      </trkpt>
      <trkpt lat="35.879564" lon="115.111366">
        <ele>43.9</ele>
        <time>2022-08-20T12:30:25Z</time>
        <extensions>
          <gpxtpx:TrackPointExtension></gpxtpx:TrackPointExtension>
        </extensions>
      </trkpt>
      <trkpt lat="35.879566" lon="115.111275">
        <ele>44</ele>
        <time>2022-08-20T12:30:30Z</time>
        <extensions>
          <gpxtpx:TrackPointExtension></gpxtpx:TrackPointExtension>
        </extensions>
      </trkpt>
      <trkpt lat="35.879581" lon="115.111152">
        <ele>44.03</ele>
        <time>2022-08-20T12:30:35Z</time>
        <extensions>
          <gpxtpx:TrackPointExtension></gpxtpx:TrackPointExtension>
        </extensions>
      </trkpt>
      <trkpt lat="35.879588" lon="115.111095">
        <ele>43.57</ele>
        <time>2022-08-20T12:30:40Z</time>
        <extensions>
          <gpxtpx:TrackPointExtension></gpxtpx:TrackPointExtension>
        </extensions>
      </trkpt>
      <trkpt lat="35.879595" lon="115.111038">
        <ele>43.57</ele>
        <time>2022-08-20T12:30:45Z</time>
        <extensions>
          <gpxtpx:TrackPointExtension></gpxtpx:TrackPointExtension>
        </extensions>
      </trkpt>
      <trkpt lat="35.879595" lon="115.111017">
        <ele>43.41</ele>
        <time>2022-08-20T12:30:50Z</time>
        <extensions>
          <gpxtpx:TrackPointExtension></gpxtpx:TrackPointExtension>
        </extensions>
      </trkpt>
      <trkpt lat="35.879595" lon="115.110996">
        <ele>43.87</ele>
        <time>2022-08-20T12:30:55Z</time>
        <extensions>
          <gpxtpx:TrackPointExtension></gpxtpx:TrackPointExtension>
        </extensions>
      </trkpt>
      <trkpt lat="35.879596" lon="115.110897">
        <ele>43.74</ele>
        <time>2022-08-20T12:31:00Z</time>
        <extensions>
          <gpxtpx:TrackPointExtension></gpxtpx:TrackPointExtension>
        </extensions>
      </trkpt>
      <trkpt lat="35.87961" lon="115.110736">
        <ele>43.97</ele>
        <time>2022-08-20T12:31:05Z</time>
        <extensions>
          <gpxtpx:TrackPointExtension></gpxtpx:TrackPointExtension>
        </extensions>
      </trkpt>
      <trkpt lat="35.879638" lon="115.110615">
        <ele>43.81</ele>
        <time>2022-08-20T12:31:10Z</time>
        <extensions>
          <gpxtpx:TrackPointExtension></gpxtpx:TrackPointExtension>
        </extensions>
      </trkpt>
      <trkpt lat="35.879648" lon="115.110516">
        <ele>43.82</ele>
        <time>2022-08-20T12:31:15Z</time>
        <extensions>
          <gpxtpx:TrackPointExtension></gpxtpx:TrackPointExtension>
        </extensions>
      </trkpt>
      <trkpt lat="35.879657" lon="115.110418">
        <ele>43.79</ele>
        <time>2022-08-20T12:31:20Z</time>
        <extensions>
          <gpxtpx:TrackPointExtension></gpxtpx:TrackPointExtension>
        </extensions>
      </trkpt>
      <trkpt lat="35.87967" lon="115.110331">
        <ele>43.74</ele>
        <time>2022-08-20T12:31:25Z</time>
        <extensions>
          <gpxtpx:TrackPointExtension></gpxtpx:TrackPointExtension>
        </extensions>
      </trkpt>
      <trkpt lat="35.879674" lon="115.110255">
        <ele>43.86</ele>
        <time>2022-08-20T12:31:30Z</time>
        <extensions>
          <gpxtpx:TrackPointExtension></gpxtpx:TrackPointExtension>
        </extensions>
      </trkpt>
      <trkpt lat="35.87969" lon="115.110184">
        <ele>43.88</ele>
        <time>2022-08-20T12:31:35Z</time>
        <extensions>
          <gpxtpx:TrackPointExtension></gpxtpx:TrackPointExtension>
        </extensions>
      </trkpt>
      <trkpt lat="35.879704" lon="115.110098">
        <ele>43.85</ele>
        <time>2022-08-20T12:31:40Z</time>
        <extensions>
          <gpxtpx:TrackPointExtension></gpxtpx:TrackPointExtension>
        </extensions>
      </trkpt>
      <trkpt lat="35.879712" lon="115.110004">
        <ele>43.9</ele>
        <time>2022-08-20T12:31:45Z</time>
        <extensions>
          <gpxtpx:TrackPointExtension></gpxtpx:TrackPointExtension>
        </extensions>
      </trkpt>
      <trkpt lat="35.879737" lon="115.109909">
        <ele>43.77</ele>
        <time>2022-08-20T12:31:50Z</time>
        <extensions>
          <gpxtpx:TrackPointExtension></gpxtpx:TrackPointExtension>
        </extensions>
      </trkpt>
      <trkpt lat="35.879754" lon="115.109805">
        <ele>43.91</ele>
        <time>2022-08-20T12:31:55Z</time>
        <extensions>
          <gpxtpx:TrackPointExtension></gpxtpx:TrackPointExtension>
        </extensions>
      </trkpt>
      <trkpt lat="35.879752" lon="115.109706">
        <ele>43.7</ele>
        <time>2022-08-20T12:32:00Z</time>
        <extensions>
          <gpxtpx:TrackPointExtension></gpxtpx:TrackPointExtension>
        </extensions>
      </trkpt>
      <trkpt lat="35.879765" lon="115.109615">
        <ele>43.92</ele>
        <time>2022-08-20T12:32:05Z</time>
        <extensions>
          <gpxtpx:TrackPointExtension></gpxtpx:TrackPointExtension>
        </extensions>
      </trkpt>
      <trkpt lat="35.879786" lon="115.109511">
        <ele>43.9</ele>
        <time>2022-08-20T12:32:10Z</time>
        <extensions>
          <gpxtpx:TrackPointExtension></gpxtpx:TrackPointExtension>
        </extensions>
      </trkpt>
      <trkpt lat="35.879804" lon="115.109404">
        <ele>44.07</ele>
        <time>2022-08-20T12:32:15Z</time>
        <extensions>
          <gpxtpx:TrackPointExtension></gpxtpx:TrackPointExtension>
        </extensions>
      </trkpt>
      <trkpt lat="35.879824" lon="115.109296">
        <ele>43.98</ele>
        <time>2022-08-20T12:32:20Z</time>
        <extensions>
          <gpxtpx:TrackPointExtension></gpxtpx:TrackPointExtension>
        </extensions>
      </trkpt>
      <trkpt lat="35.879834" lon="115.10922">
        <ele>43.99</ele>
        <time>2022-08-20T12:32:25Z</time>
        <extensions>
          <gpxtpx:TrackPointExtension></gpxtpx:TrackPointExtension>
        </extensions>
      </trkpt>
      <trkpt lat="35.879839" lon="115.109102">
        <ele>43.89</ele>
        <time>2022-08-20T12:32:30Z</time>
        <extensions>
          <gpxtpx:TrackPointExtension></gpxtpx:TrackPointExtension>
        </extensions>
      </trkpt>
      <trkpt lat="35.879828" lon="115.108983">
        <ele>43.77</ele>
        <time>2022-08-20T12:32:35Z</time>
        <extensions>
          <gpxtpx:TrackPointExtension></gpxtpx:TrackPointExtension>
        </extensions>
      </trkpt>
      <trkpt lat="35.87982" lon="115.108857">
        <ele>43.93</ele>
        <time>2022-08-20T12:32:40Z</time>
        <extensions>
          <gpxtpx:TrackPointExtension></gpxtpx:TrackPointExtension>
        </extensions>
      </trkpt>
      <trkpt lat="35.879826" lon="115.108717">
        <ele>43.72</ele>
        <time>2022-08-20T12:32:45Z</time>
        <extensions>
          <gpxtpx:TrackPointExtension></gpxtpx:TrackPointExtension>
        </extensions>
      </trkpt>
      <trkpt lat="35.879871" lon="115.108588">
        <ele>44.08</ele>
        <time>2022-08-20T12:32:50Z</time>
        <extensions>
          <gpxtpx:TrackPointExtension></gpxtpx:TrackPointExtension>
        </extensions>
      </trkpt>
      <trkpt lat="35.879897" lon="115.108507">
        <ele>43.96</ele>
        <time>2022-08-20T12:32:55Z</time>
        <extensions>
          <gpxtpx:TrackPointExtension></gpxtpx:TrackPointExtension>
        </extensions>
      </trkpt>
      <trkpt lat="35.879912" lon="115.108404">
        <ele>44.08</ele>
        <time>2022-08-20T12:33:00Z</time>
        <extensions>
          <gpxtpx:TrackPointExtension></gpxtpx:TrackPointExtension>
        </extensions>
      </trkpt>
      <trkpt lat="35.879936" lon="115.108327">
        <ele>44</ele>
        <time>2022-08-20T12:33:05Z</time>
        <extensions>
          <gpxtpx:TrackPointExtension></gpxtpx:TrackPointExtension>
        </extensions>
      </trkpt>
      <trkpt lat="35.879956" lon="115.108213">
        <ele>44.07</ele>
        <time>2022-08-20T12:33:10Z</time>
        <extensions>
          <gpxtpx:TrackPointExtension></gpxtpx:TrackPointExtension>
        </extensions>
      </trkpt>
      <trkpt lat="35.879962" lon="115.10811">
        <ele>44.22</ele>
        <time>2022-08-20T12:33:15Z</time>
        <extensions>
          <gpxtpx:TrackPointExtension></gpxtpx:TrackPointExtension>
        </extensions>
      </trkpt>
      <trkpt lat="35.879982" lon="115.10799">
        <ele>44.2</ele>
        <time>2022-08-20T12:33:20Z</time>
        <extensions>
          <gpxtpx:TrackPointExtension></gpxtpx:TrackPointExtension>
        </extensions>
      </trkpt>
      <trkpt lat="35.880007" lon="115.107888">
        <ele>44.16</ele>
        <time>2022-08-20T12:33:25Z</time>
        <extensions>
          <gpxtpx:TrackPointExtension></gpxtpx:TrackPointExtension>
        </extensions>
      </trkpt>
      <trkpt lat="35.880016" lon="115.107776">
        <ele>43.97</ele>
        <time>2022-08-20T12:33:30Z</time>
        <extensions>
          <gpxtpx:TrackPointExtension></gpxtpx:TrackPointExtension>
        </extensions>
      </trkpt>
      <trkpt lat="35.880014" lon="115.107668">
        <ele>44.03</ele>
        <time>2022-08-20T12:33:35Z</time>
        <extensions>
          <gpxtpx:TrackPointExtension></gpxtpx:TrackPointExtension>
        </extensions>
      </trkpt>
      <trkpt lat="35.88003" lon="115.107532">
        <ele>44.03</ele>
        <time>2022-08-20T12:33:40Z</time>
        <extensions>
          <gpxtpx:TrackPointExtension></gpxtpx:TrackPointExtension>
        </extensions>
      </trkpt>
      <trkpt lat="35.880048" lon="115.107393">
        <ele>43.98</ele>
        <time>2022-08-20T12:33:45Z</time>
        <extensions>
          <gpxtpx:TrackPointExtension></gpxtpx:TrackPointExtension>
        </extensions>
      </trkpt>
      <trkpt lat="35.880062" lon="115.107272">
        <ele>43.83</ele>
        <time>2022-08-20T12:33:50Z</time>
        <extensions>
          <gpxtpx:TrackPointExtension></gpxtpx:TrackPointExtension>
        </extensions>
      </trkpt>
      <trkpt lat="35.880065" lon="115.107145">
        <ele>44.24</ele>
        <time>2022-08-20T12:33:55Z</time>
        <extensions>
          <gpxtpx:TrackPointExtension></gpxtpx:TrackPointExtension>
        </extensions>
      </trkpt>
      <trkpt lat="35.880082" lon="115.107028">
        <ele>44.18</ele>
        <time>2022-08-20T12:34:00Z</time>
        <extensions>
          <gpxtpx:TrackPointExtension></gpxtpx:TrackPointExtension>
        </extensions>
      </trkpt>
      <trkpt lat="35.880102" lon="115.106921">
        <ele>44.12</ele>
        <time>2022-08-20T12:34:05Z</time>
        <extensions>
          <gpxtpx:TrackPointExtension></gpxtpx:TrackPointExtension>
        </extensions>
      </trkpt>
      <trkpt lat="35.880126" lon="115.106805">
        <ele>44.11</ele>
        <time>2022-08-20T12:34:10Z</time>
        <extensions>
          <gpxtpx:TrackPointExtension></gpxtpx:TrackPointExtension>
        </extensions>
      </trkpt>
      <trkpt lat="35.880136" lon="115.106703">
        <ele>44.08</ele>
        <time>2022-08-20T12:34:15Z</time>
        <extensions>
          <gpxtpx:TrackPointExtension></gpxtpx:TrackPointExtension>
        </extensions>
      </trkpt>
      <trkpt lat="35.880138" lon="115.106609">
        <ele>44.16</ele>
        <time>2022-08-20T12:34:20Z</time>
        <extensions>
          <gpxtpx:TrackPointExtension></gpxtpx:TrackPointExtension>
        </extensions>
      </trkpt>
      <trkpt lat="35.880136" lon="115.106502">
        <ele>44.01</ele>
        <time>2022-08-20T12:34:25Z</time>
        <extensions>
          <gpxtpx:TrackPointExtension></gpxtpx:TrackPointExtension>
        </extensions>
      </trkpt>
      <trkpt lat="35.880138" lon="115.106392">
        <ele>44.23</ele>
        <time>2022-08-20T12:34:30Z</time>
        <extensions>
          <gpxtpx:TrackPointExtension></gpxtpx:TrackPointExtension>
        </extensions>
      </trkpt>
      <trkpt lat="35.880155" lon="115.106276">
        <ele>44.13</ele>
        <time>2022-08-20T12:34:35Z</time>
        <extensions>
          <gpxtpx:TrackPointExtension></gpxtpx:TrackPointExtension>
        </extensions>
      </trkpt>
      <trkpt lat="35.88017" lon="115.106172">
        <ele>44.12</ele>
        <time>2022-08-20T12:34:40Z</time>
        <extensions>
          <gpxtpx:TrackPointExtension></gpxtpx:TrackPointExtension>
        </extensions>
      </trkpt>
      <trkpt lat="35.880206" lon="115.106051">
        <ele>44.32</ele>
        <time>2022-08-20T12:34:45Z</time>
        <extensions>
          <gpxtpx:TrackPointExtension></gpxtpx:TrackPointExtension>
        </extensions>
      </trkpt>
      <trkpt lat="35.880251" lon="115.105907">
        <ele>44.11</ele>
        <time>2022-08-20T12:34:50Z</time>
        <extensions>
          <gpxtpx:TrackPointExtension></gpxtpx:TrackPointExtension>
        </extensions>
      </trkpt>
      <trkpt lat="35.88027" lon="115.105769">
        <ele>44.08</ele>
        <time>2022-08-20T12:34:55Z</time>
        <extensions>
          <gpxtpx:TrackPointExtension></gpxtpx:TrackPointExtension>
        </extensions>
      </trkpt>
      <trkpt lat="35.880298" lon="115.105649">
        <ele>44.22</ele>
        <time>2022-08-20T12:35:00Z</time>
        <extensions>
          <gpxtpx:TrackPointExtension></gpxtpx:TrackPointExtension>
        </extensions>
      </trkpt>
      <trkpt lat="35.880323" lon="115.105529">
        <ele>44.15</ele>
        <time>2022-08-20T12:35:05Z</time>
        <extensions>
          <gpxtpx:TrackPointExtension></gpxtpx:TrackPointExtension>
        </extensions>
      </trkpt>
      <trkpt lat="35.880377" lon="115.105419">
        <ele>44.15</ele>
        <time>2022-08-20T12:35:10Z</time>
        <extensions>
          <gpxtpx:TrackPointExtension></gpxtpx:TrackPointExtension>
        </extensions>
      </trkpt>
      <trkpt lat="35.880362" lon="115.105306">
        <ele>44.33</ele>
        <time>2022-08-20T12:35:15Z</time>
        <extensions>
          <gpxtpx:TrackPointExtension></gpxtpx:TrackPointExtension>
        </extensions>
      </trkpt>
      <trkpt lat="35.880353" lon="115.10518">
        <ele>44.25</ele>
        <time>2022-08-20T12:35:20Z</time>
        <extensions>
          <gpxtpx:TrackPointExtension></gpxtpx:TrackPointExtension>
        </extensions>
      </trkpt>
      <trkpt lat="35.880362" lon="115.105055">
        <ele>44.1</ele>
        <time>2022-08-20T12:35:25Z</time>
        <extensions>
          <gpxtpx:TrackPointExtension></gpxtpx:TrackPointExtension>
        </extensions>
      </trkpt>
      <trkpt lat="35.880391" lon="115.104946">
        <ele>44.05</ele>
        <time>2022-08-20T12:35:30Z</time>
        <extensions>
          <gpxtpx:TrackPointExtension></gpxtpx:TrackPointExtension>
        </extensions>
      </trkpt>
      <trkpt lat="35.880404" lon="115.104831">
        <ele>43.95</ele>
        <time>2022-08-20T12:35:35Z</time>
        <extensions>
          <gpxtpx:TrackPointExtension></gpxtpx:TrackPointExtension>
        </extensions>
      </trkpt>
      <trkpt lat="35.88042" lon="115.104709">
        <ele>43.93</ele>
        <time>2022-08-20T12:35:40Z</time>
        <extensions>
          <gpxtpx:TrackPointExtension></gpxtpx:TrackPointExtension>
        </extensions>
      </trkpt>
      <trkpt lat="35.880434" lon="115.104589">
        <ele>44.23</ele>
        <time>2022-08-20T12:35:45Z</time>
        <extensions>
          <gpxtpx:TrackPointExtension></gpxtpx:TrackPointExtension>
        </extensions>
      </trkpt>
      <trkpt lat="35.880455" lon="115.104461">
        <ele>43.86</ele>
        <time>2022-08-20T12:35:50Z</time>
        <extensions>
          <gpxtpx:TrackPointExtension></gpxtpx:TrackPointExtension>
        </extensions>
      </trkpt>
      <trkpt lat="35.880472" lon="115.104322">
        <ele>43.77</ele>
        <time>2022-08-20T12:35:55Z</time>
        <extensions>
          <gpxtpx:TrackPointExtension></gpxtpx:TrackPointExtension>
        </extensions>
      </trkpt>
      <trkpt lat="35.880481" lon="115.104197">
        <ele>43.85</ele>
        <time>2022-08-20T12:36:00Z</time>
        <extensions>
          <gpxtpx:TrackPointExtension></gpxtpx:TrackPointExtension>
        </extensions>
      </trkpt>
      <trkpt lat="35.880484" lon="115.10408">
        <ele>43.83</ele>
        <time>2022-08-20T12:36:05Z</time>
        <extensions>
          <gpxtpx:TrackPointExtension></gpxtpx:TrackPointExtension>
        </extensions>
      </trkpt>
      <trkpt lat="35.880487" lon="115.103971">
        <ele>43.89</ele>
        <time>2022-08-20T12:36:10Z</time>
        <extensions>
          <gpxtpx:TrackPointExtension></gpxtpx:TrackPointExtension>
        </extensions>
      </trkpt>
      <trkpt lat="35.880504" lon="115.103904">
        <ele>43.81</ele>
        <time>2022-08-20T12:36:15Z</time>
        <extensions>
          <gpxtpx:TrackPointExtension></gpxtpx:TrackPointExtension>
        </extensions>
      </trkpt>
      <trkpt lat="35.880524" lon="115.103805">
        <ele>43.81</ele>
        <time>2022-08-20T12:36:20Z</time>
        <extensions>
          <gpxtpx:TrackPointExtension></gpxtpx:TrackPointExtension>
        </extensions>
      </trkpt>
      <trkpt lat="35.880544" lon="115.103712">
        <ele>44.03</ele>
        <time>2022-08-20T12:36:25Z</time>
        <extensions>
          <gpxtpx:TrackPointExtension></gpxtpx:TrackPointExtension>
        </extensions>
      </trkpt>
      <trkpt lat="35.880536" lon="115.103673">
        <ele>43.94</ele>
        <time>2022-08-20T12:36:30Z</time>
        <extensions>
          <gpxtpx:TrackPointExtension></gpxtpx:TrackPointExtension>
        </extensions>
      </trkpt>
      <trkpt lat="35.880527" lon="115.103746">
        <ele>43.91</ele>
        <time>2022-08-20T12:36:35Z</time>
        <extensions>
          <gpxtpx:TrackPointExtension></gpxtpx:TrackPointExtension>
        </extensions>
      </trkpt>
      <trkpt lat="35.880512" lon="115.103865">
        <ele>43.86</ele>
        <time>2022-08-20T12:36:40Z</time>
        <extensions>
          <gpxtpx:TrackPointExtension></gpxtpx:TrackPointExtension>
        </extensions>
      </trkpt>
      <trkpt lat="35.880492" lon="115.103971">
        <ele>43.8</ele>
        <time>2022-08-20T12:36:45Z</time>
        <extensions>
          <gpxtpx:TrackPointExtension></gpxtpx:TrackPointExtension>
        </extensions>
      </trkpt>
      <trkpt lat="35.880465" lon="115.104077">
        <ele>43.93</ele>
        <time>2022-08-20T12:36:50Z</time>
        <extensions>
          <gpxtpx:TrackPointExtension></gpxtpx:TrackPointExtension>
        </extensions>
      </trkpt>
      <trkpt lat="35.880447" lon="115.104166">
        <ele>44.1</ele>
        <time>2022-08-20T12:36:55Z</time>
        <extensions>
          <gpxtpx:TrackPointExtension></gpxtpx:TrackPointExtension>
        </extensions>
      </trkpt>
      <trkpt lat="35.880444" lon="115.104256">
        <ele>43.93</ele>
        <time>2022-08-20T12:37:00Z</time>
        <extensions>
          <gpxtpx:TrackPointExtension></gpxtpx:TrackPointExtension>
        </extensions>
      </trkpt>
      <trkpt lat="35.880434" lon="115.104357">
        <ele>43.94</ele>
        <time>2022-08-20T12:37:05Z</time>
        <extensions>
          <gpxtpx:TrackPointExtension></gpxtpx:TrackPointExtension>
        </extensions>
      </trkpt>
      <trkpt lat="35.880422" lon="115.104435">
        <ele>44.02</ele>
        <time>2022-08-20T12:37:10Z</time>
        <extensions>
          <gpxtpx:TrackPointExtension></gpxtpx:TrackPointExtension>
        </extensions>
      </trkpt>
      <trkpt lat="35.880417" lon="115.10456">
        <ele>43.97</ele>
        <time>2022-08-20T12:37:15Z</time>
        <extensions>
          <gpxtpx:TrackPointExtension></gpxtpx:TrackPointExtension>
        </extensions>
      </trkpt>
      <trkpt lat="35.880425" lon="115.104614">
        <ele>44.07</ele>
        <time>2022-08-20T12:37:20Z</time>
        <extensions>
          <gpxtpx:TrackPointExtension></gpxtpx:TrackPointExtension>
        </extensions>
      </trkpt>
      <trkpt lat="35.880426" lon="115.10468">
        <ele>43.96</ele>
        <time>2022-08-20T12:37:25Z</time>
        <extensions>
          <gpxtpx:TrackPointExtension></gpxtpx:TrackPointExtension>
        </extensions>
      </trkpt>
      <trkpt lat="35.880394" lon="115.104812">
        <ele>44.12</ele>
        <time>2022-08-20T12:37:30Z</time>
        <extensions>
          <gpxtpx:TrackPointExtension></gpxtpx:TrackPointExtension>
        </extensions>
      </trkpt>
      <trkpt lat="35.880371" lon="115.104935">
        <ele>44.1</ele>
        <time>2022-08-20T12:37:35Z</time>
        <extensions>
          <gpxtpx:TrackPointExtension></gpxtpx:TrackPointExtension>
        </extensions>
      </trkpt>
      <trkpt lat="35.88036" lon="115.10503">
        <ele>44.23</ele>
        <time>2022-08-20T12:37:40Z</time>
        <extensions>
          <gpxtpx:TrackPointExtension></gpxtpx:TrackPointExtension>
        </extensions>
      </trkpt>
      <trkpt lat="35.880335" lon="115.105151">
        <ele>44.02</ele>
        <time>2022-08-20T12:37:45Z</time>
        <extensions>
          <gpxtpx:TrackPointExtension></gpxtpx:TrackPointExtension>
        </extensions>
      </trkpt>
      <trkpt lat="35.880338" lon="115.105247">
        <ele>43.92</ele>
        <time>2022-08-20T12:37:50Z</time>
        <extensions>
          <gpxtpx:TrackPointExtension></gpxtpx:TrackPointExtension>
        </extensions>
      </trkpt>
      <trkpt lat="35.880312" lon="115.105366">
        <ele>44.08</ele>
        <time>2022-08-20T12:37:55Z</time>
        <extensions>
          <gpxtpx:TrackPointExtension></gpxtpx:TrackPointExtension>
        </extensions>
      </trkpt>
      <trkpt lat="35.880283" lon="115.10547">
        <ele>43.92</ele>
        <time>2022-08-20T12:38:00Z</time>
        <extensions>
          <gpxtpx:TrackPointExtension></gpxtpx:TrackPointExtension>
        </extensions>
      </trkpt>
      <trkpt lat="35.880263" lon="115.105571">
        <ele>44.07</ele>
        <time>2022-08-20T12:38:05Z</time>
        <extensions>
          <gpxtpx:TrackPointExtension></gpxtpx:TrackPointExtension>
        </extensions>
      </trkpt>
      <trkpt lat="35.880238" lon="115.105679">
        <ele>44.03</ele>
        <time>2022-08-20T12:38:10Z</time>
        <extensions>
          <gpxtpx:TrackPointExtension></gpxtpx:TrackPointExtension>
        </extensions>
      </trkpt>
      <trkpt lat="35.880232" lon="115.105802">
        <ele>44.18</ele>
        <time>2022-08-20T12:38:15Z</time>
        <extensions>
          <gpxtpx:TrackPointExtension></gpxtpx:TrackPointExtension>
        </extensions>
      </trkpt>
      <trkpt lat="35.880209" lon="115.105936">
        <ele>44.31</ele>
        <time>2022-08-20T12:38:20Z</time>
        <extensions>
          <gpxtpx:TrackPointExtension></gpxtpx:TrackPointExtension>
        </extensions>
      </trkpt>
      <trkpt lat="35.880194" lon="115.106038">
        <ele>44.07</ele>
        <time>2022-08-20T12:38:25Z</time>
        <extensions>
          <gpxtpx:TrackPointExtension></gpxtpx:TrackPointExtension>
        </extensions>
      </trkpt>
      <trkpt lat="35.880174" lon="115.106127">
        <ele>44.12</ele>
        <time>2022-08-20T12:38:30Z</time>
        <extensions>
          <gpxtpx:TrackPointExtension></gpxtpx:TrackPointExtension>
        </extensions>
      </trkpt>
      <trkpt lat="35.880141" lon="115.106219">
        <ele>44.13</ele>
        <time>2022-08-20T12:38:35Z</time>
        <extensions>
          <gpxtpx:TrackPointExtension></gpxtpx:TrackPointExtension>
        </extensions>
      </trkpt>
      <trkpt lat="35.880122" lon="115.106318">
        <ele>44.2</ele>
        <time>2022-08-20T12:38:40Z</time>
        <extensions>
          <gpxtpx:TrackPointExtension></gpxtpx:TrackPointExtension>
        </extensions>
      </trkpt>
      <trkpt lat="35.880105" lon="115.10641">
        <ele>44.02</ele>
        <time>2022-08-20T12:38:45Z</time>
        <extensions>
          <gpxtpx:TrackPointExtension></gpxtpx:TrackPointExtension>
        </extensions>
      </trkpt>
      <trkpt lat="35.880125" lon="115.106518">
        <ele>43.98</ele>
        <time>2022-08-20T12:38:50Z</time>
        <extensions>
          <gpxtpx:TrackPointExtension></gpxtpx:TrackPointExtension>
        </extensions>
      </trkpt>
      <trkpt lat="35.880128" lon="115.106641">
        <ele>44.07</ele>
        <time>2022-08-20T12:38:55Z</time>
        <extensions>
          <gpxtpx:TrackPointExtension></gpxtpx:TrackPointExtension>
        </extensions>
      </trkpt>
      <trkpt lat="35.880105" lon="115.106734">
        <ele>44.05</ele>
        <time>2022-08-20T12:39:00Z</time>
        <extensions>
          <gpxtpx:TrackPointExtension></gpxtpx:TrackPointExtension>
        </extensions>
      </trkpt>
      <trkpt lat="35.880084" lon="115.106823">
        <ele>44.23</ele>
        <time>2022-08-20T12:39:05Z</time>
        <extensions>
          <gpxtpx:TrackPointExtension></gpxtpx:TrackPointExtension>
        </extensions>
      </trkpt>
      <trkpt lat="35.880078" lon="115.106929">
        <ele>44.16</ele>
        <time>2022-08-20T12:39:10Z</time>
        <extensions>
          <gpxtpx:TrackPointExtension></gpxtpx:TrackPointExtension>
        </extensions>
      </trkpt>
      <trkpt lat="35.880052" lon="115.107038">
        <ele>43.93</ele>
        <time>2022-08-20T12:39:15Z</time>
        <extensions>
          <gpxtpx:TrackPointExtension></gpxtpx:TrackPointExtension>
        </extensions>
      </trkpt>
      <trkpt lat="35.880047" lon="115.107133">
        <ele>43.87</ele>
        <time>2022-08-20T12:39:20Z</time>
        <extensions>
          <gpxtpx:TrackPointExtension></gpxtpx:TrackPointExtension>
        </extensions>
      </trkpt>
      <trkpt lat="35.880049" lon="115.107213">
        <ele>44.18</ele>
        <time>2022-08-20T12:39:25Z</time>
        <extensions>
          <gpxtpx:TrackPointExtension></gpxtpx:TrackPointExtension>
        </extensions>
      </trkpt>
      <trkpt lat="35.880036" lon="115.107323">
        <ele>44.02</ele>
        <time>2022-08-20T12:39:30Z</time>
        <extensions>
          <gpxtpx:TrackPointExtension></gpxtpx:TrackPointExtension>
        </extensions>
      </trkpt>
      <trkpt lat="35.880024" lon="115.107427">
        <ele>44.09</ele>
        <time>2022-08-20T12:39:35Z</time>
        <extensions>
          <gpxtpx:TrackPointExtension></gpxtpx:TrackPointExtension>
        </extensions>
      </trkpt>
      <trkpt lat="35.880011" lon="115.107543">
        <ele>44.12</ele>
        <time>2022-08-20T12:39:40Z</time>
        <extensions>
          <gpxtpx:TrackPointExtension></gpxtpx:TrackPointExtension>
        </extensions>
      </trkpt>
      <trkpt lat="35.879993" lon="115.10767">
        <ele>44.2</ele>
        <time>2022-08-20T12:39:45Z</time>
        <extensions>
          <gpxtpx:TrackPointExtension></gpxtpx:TrackPointExtension>
        </extensions>
      </trkpt>
      <trkpt lat="35.879977" lon="115.107781">
        <ele>44.37</ele>
        <time>2022-08-20T12:39:50Z</time>
        <extensions>
          <gpxtpx:TrackPointExtension></gpxtpx:TrackPointExtension>
        </extensions>
      </trkpt>
      <trkpt lat="35.87997" lon="115.107876">
        <ele>44.33</ele>
        <time>2022-08-20T12:39:55Z</time>
        <extensions>
          <gpxtpx:TrackPointExtension></gpxtpx:TrackPointExtension>
        </extensions>
      </trkpt>
      <trkpt lat="35.879975" lon="115.107975">
        <ele>44.32</ele>
        <time>2022-08-20T12:40:00Z</time>
        <extensions>
          <gpxtpx:TrackPointExtension></gpxtpx:TrackPointExtension>
        </extensions>
      </trkpt>
      <trkpt lat="35.879974" lon="115.108099">
        <ele>44.48</ele>
        <time>2022-08-20T12:40:05Z</time>
        <extensions>
          <gpxtpx:TrackPointExtension></gpxtpx:TrackPointExtension>
        </extensions>
      </trkpt>
      <trkpt lat="35.879953" lon="115.108206">
        <ele>44.32</ele>
        <time>2022-08-20T12:40:10Z</time>
        <extensions>
          <gpxtpx:TrackPointExtension></gpxtpx:TrackPointExtension>
        </extensions>
      </trkpt>
      <trkpt lat="35.879928" lon="115.108305">
        <ele>44.17</ele>
        <time>2022-08-20T12:40:15Z</time>
        <extensions>
          <gpxtpx:TrackPointExtension></gpxtpx:TrackPointExtension>
        </extensions>
      </trkpt>
      <trkpt lat="35.879907" lon="115.1084">
        <ele>44.15</ele>
        <time>2022-08-20T12:40:20Z</time>
        <extensions>
          <gpxtpx:TrackPointExtension></gpxtpx:TrackPointExtension>
        </extensions>
      </trkpt>
      <trkpt lat="35.879906" lon="115.108503">
        <ele>44.02</ele>
        <time>2022-08-20T12:40:25Z</time>
        <extensions>
          <gpxtpx:TrackPointExtension></gpxtpx:TrackPointExtension>
        </extensions>
      </trkpt>
      <trkpt lat="35.879913" lon="115.108582">
        <ele>44.11</ele>
        <time>2022-08-20T12:40:30Z</time>
        <extensions>
          <gpxtpx:TrackPointExtension></gpxtpx:TrackPointExtension>
        </extensions>
      </trkpt>
      <trkpt lat="35.879951" lon="115.108684">
        <ele>43.99</ele>
        <time>2022-08-20T12:40:35Z</time>
        <extensions>
          <gpxtpx:TrackPointExtension></gpxtpx:TrackPointExtension>
        </extensions>
      </trkpt>
      <trkpt lat="35.879983" lon="115.108771">
        <ele>44.51</ele>
        <time>2022-08-20T12:40:40Z</time>
        <extensions>
          <gpxtpx:TrackPointExtension></gpxtpx:TrackPointExtension>
        </extensions>
      </trkpt>
      <trkpt lat="35.879931" lon="115.108871">
        <ele>44.13</ele>
        <time>2022-08-20T12:40:45Z</time>
        <extensions>
          <gpxtpx:TrackPointExtension></gpxtpx:TrackPointExtension>
        </extensions>
      </trkpt>
      <trkpt lat="35.879876" lon="115.108967">
        <ele>44.19</ele>
        <time>2022-08-20T12:40:50Z</time>
        <extensions>
          <gpxtpx:TrackPointExtension></gpxtpx:TrackPointExtension>
        </extensions>
      </trkpt>
      <trkpt lat="35.87984" lon="115.109086">
        <ele>44.34</ele>
        <time>2022-08-20T12:40:55Z</time>
        <extensions>
          <gpxtpx:TrackPointExtension></gpxtpx:TrackPointExtension>
        </extensions>
      </trkpt>
      <trkpt lat="35.879818" lon="115.109202">
        <ele>44.17</ele>
        <time>2022-08-20T12:41:00Z</time>
        <extensions>
          <gpxtpx:TrackPointExtension></gpxtpx:TrackPointExtension>
        </extensions>
      </trkpt>
      <trkpt lat="35.879798" lon="115.109313">
        <ele>44.21</ele>
        <time>2022-08-20T12:41:05Z</time>
        <extensions>
          <gpxtpx:TrackPointExtension></gpxtpx:TrackPointExtension>
        </extensions>
      </trkpt>
      <trkpt lat="35.879799" lon="115.109431">
        <ele>44.22</ele>
        <time>2022-08-20T12:41:10Z</time>
        <extensions>
          <gpxtpx:TrackPointExtension></gpxtpx:TrackPointExtension>
        </extensions>
      </trkpt>
      <trkpt lat="35.879785" lon="115.109548">
        <ele>44.17</ele>
        <time>2022-08-20T12:41:15Z</time>
        <extensions>
          <gpxtpx:TrackPointExtension></gpxtpx:TrackPointExtension>
        </extensions>
      </trkpt>
      <trkpt lat="35.879775" lon="115.109657">
        <ele>44.29</ele>
        <time>2022-08-20T12:41:20Z</time>
        <extensions>
          <gpxtpx:TrackPointExtension></gpxtpx:TrackPointExtension>
        </extensions>
      </trkpt>
      <trkpt lat="35.879767" lon="115.109783">
        <ele>44.32</ele>
        <time>2022-08-20T12:41:25Z</time>
        <extensions>
          <gpxtpx:TrackPointExtension></gpxtpx:TrackPointExtension>
        </extensions>
      </trkpt>
      <trkpt lat="35.879745" lon="115.109915">
        <ele>44.19</ele>
        <time>2022-08-20T12:41:30Z</time>
        <extensions>
          <gpxtpx:TrackPointExtension></gpxtpx:TrackPointExtension>
        </extensions>
      </trkpt>
      <trkpt lat="35.879718" lon="115.110065">
        <ele>44.19</ele>
        <time>2022-08-20T12:41:35Z</time>
        <extensions>
          <gpxtpx:TrackPointExtension></gpxtpx:TrackPointExtension>
        </extensions>
      </trkpt>
      <trkpt lat="35.879695" lon="115.110179">
        <ele>44.32</ele>
        <time>2022-08-20T12:41:40Z</time>
        <extensions>
          <gpxtpx:TrackPointExtension></gpxtpx:TrackPointExtension>
        </extensions>
      </trkpt>
      <trkpt lat="35.879684" lon="115.110268">
        <ele>44.16</ele>
        <time>2022-08-20T12:41:45Z</time>
        <extensions>
          <gpxtpx:TrackPointExtension></gpxtpx:TrackPointExtension>
        </extensions>
      </trkpt>
      <trkpt lat="35.879676" lon="115.110367">
        <ele>44.25</ele>
        <time>2022-08-20T12:41:50Z</time>
        <extensions>
          <gpxtpx:TrackPointExtension></gpxtpx:TrackPointExtension>
        </extensions>
      </trkpt>
      <trkpt lat="35.879675" lon="115.110484">
        <ele>44.51</ele>
        <time>2022-08-20T12:41:55Z</time>
        <extensions>
          <gpxtpx:TrackPointExtension></gpxtpx:TrackPointExtension>
        </extensions>
      </trkpt>
      <trkpt lat="35.87966" lon="115.110609">
        <ele>44.35</ele>
        <time>2022-08-20T12:42:00Z</time>
        <extensions>
          <gpxtpx:TrackPointExtension></gpxtpx:TrackPointExtension>
        </extensions>
      </trkpt>
      <trkpt lat="35.879646" lon="115.11071">
        <ele>44.32</ele>
        <time>2022-08-20T12:42:05Z</time>
        <extensions>
          <gpxtpx:TrackPointExtension></gpxtpx:TrackPointExtension>
        </extensions>
      </trkpt>
      <trkpt lat="35.879621" lon="115.110813">
        <ele>44.38</ele>
        <time>2022-08-20T12:42:10Z</time>
        <extensions>
          <gpxtpx:TrackPointExtension></gpxtpx:TrackPointExtension>
        </extensions>
      </trkpt>
      <trkpt lat="35.879605" lon="115.110909">
        <ele>44.45</ele>
        <time>2022-08-20T12:42:15Z</time>
        <extensions>
          <gpxtpx:TrackPointExtension></gpxtpx:TrackPointExtension>
        </extensions>
      </trkpt>
      <trkpt lat="35.879584" lon="115.111025">
        <ele>44.21</ele>
        <time>2022-08-20T12:42:20Z</time>
        <extensions>
          <gpxtpx:TrackPointExtension></gpxtpx:TrackPointExtension>
        </extensions>
      </trkpt>
      <trkpt lat="35.879572" lon="115.111124">
        <ele>44.47</ele>
        <time>2022-08-20T12:42:25Z</time>
        <extensions>
          <gpxtpx:TrackPointExtension></gpxtpx:TrackPointExtension>
        </extensions>
      </trkpt>
      <trkpt lat="35.879532" lon="115.111229">
        <ele>44.57</ele>
        <time>2022-08-20T12:42:30Z</time>
        <extensions>
          <gpxtpx:TrackPointExtension></gpxtpx:TrackPointExtension>
        </extensions>
      </trkpt>
      <trkpt lat="35.879541" lon="115.111325">
        <ele>44.33</ele>
        <time>2022-08-20T12:42:35Z</time>
        <extensions>
          <gpxtpx:TrackPointExtension></gpxtpx:TrackPointExtension>
        </extensions>
      </trkpt>
      <trkpt lat="35.879538" lon="115.111447">
        <ele>44.38</ele>
        <time>2022-08-20T12:42:40Z</time>
        <extensions>
          <gpxtpx:TrackPointExtension></gpxtpx:TrackPointExtension>
        </extensions>
      </trkpt>
      <trkpt lat="35.879513" lon="115.111554">
        <ele>44.1</ele>
        <time>2022-08-20T12:42:45Z</time>
        <extensions>
          <gpxtpx:TrackPointExtension></gpxtpx:TrackPointExtension>
        </extensions>
      </trkpt>
      <trkpt lat="35.879488" lon="115.111668">
        <ele>44.08</ele>
        <time>2022-08-20T12:42:50Z</time>
        <extensions>
          <gpxtpx:TrackPointExtension></gpxtpx:TrackPointExtension>
        </extensions>
      </trkpt>
      <trkpt lat="35.87951" lon="115.111742">
        <ele>44.06</ele>
        <time>2022-08-20T12:42:55Z</time>
        <extensions>
          <gpxtpx:TrackPointExtension></gpxtpx:TrackPointExtension>
        </extensions>
      </trkpt>
      <trkpt lat="35.879525" lon="115.111826">
        <ele>44.08</ele>
        <time>2022-08-20T12:43:00Z</time>
        <extensions>
          <gpxtpx:TrackPointExtension></gpxtpx:TrackPointExtension>
        </extensions>
      </trkpt>
      <trkpt lat="35.879591" lon="115.111858">
        <ele>44.36</ele>
        <time>2022-08-20T12:43:05Z</time>
        <extensions>
          <gpxtpx:TrackPointExtension></gpxtpx:TrackPointExtension>
        </extensions>
      </trkpt>
      <trkpt lat="35.879663" lon="115.111861">
        <ele>44.25</ele>
        <time>2022-08-20T12:43:10Z</time>
        <extensions>
          <gpxtpx:TrackPointExtension></gpxtpx:TrackPointExtension>
        </extensions>
      </trkpt>
      <trkpt lat="35.879736" lon="115.111865">
        <ele>44.26</ele>
        <time>2022-08-20T12:43:15Z</time>
        <extensions>
          <gpxtpx:TrackPointExtension></gpxtpx:TrackPointExtension>
        </extensions>
      </trkpt>
      <trkpt lat="35.879805" lon="115.111877">
        <ele>44.7</ele>
        <time>2022-08-20T12:43:20Z</time>
        <extensions>
          <gpxtpx:TrackPointExtension></gpxtpx:TrackPointExtension>
        </extensions>
      </trkpt>
      <trkpt lat="35.879871" lon="115.111901">
        <ele>44.5</ele>
        <time>2022-08-20T12:43:25Z</time>
        <extensions>
          <gpxtpx:TrackPointExtension></gpxtpx:TrackPointExtension>
        </extensions>
      </trkpt>
      <trkpt lat="35.879951" lon="115.111911">
        <ele>44.52</ele>
        <time>2022-08-20T12:43:30Z</time>
        <extensions>
          <gpxtpx:TrackPointExtension></gpxtpx:TrackPointExtension>
        </extensions>
      </trkpt>
      <trkpt lat="35.880043" lon="115.111949">
        <ele>44.51</ele>
        <time>2022-08-20T12:43:35Z</time>
        <extensions>
          <gpxtpx:TrackPointExtension></gpxtpx:TrackPointExtension>
        </extensions>
      </trkpt>
      <trkpt lat="35.880156" lon="115.11196">
        <ele>44.67</ele>
        <time>2022-08-20T12:43:40Z</time>
        <extensions>
          <gpxtpx:TrackPointExtension></gpxtpx:TrackPointExtension>
        </extensions>
      </trkpt>
      <trkpt lat="35.880259" lon="115.111966">
        <ele>44.49</ele>
        <time>2022-08-20T12:43:45Z</time>
        <extensions>
          <gpxtpx:TrackPointExtension></gpxtpx:TrackPointExtension>
        </extensions>
      </trkpt>
      <trkpt lat="35.880327" lon="115.111998">
        <ele>44.58</ele>
        <time>2022-08-20T12:43:50Z</time>
        <extensions>
          <gpxtpx:TrackPointExtension></gpxtpx:TrackPointExtension>
        </extensions>
      </trkpt>
      <trkpt lat="35.880423" lon="115.112016">
        <ele>44.81</ele>
        <time>2022-08-20T12:43:55Z</time>
        <extensions>
          <gpxtpx:TrackPointExtension></gpxtpx:TrackPointExtension>
        </extensions>
      </trkpt>
      <trkpt lat="35.880508" lon="115.112014">
        <ele>44.83</ele>
        <time>2022-08-20T12:44:00Z</time>
        <extensions>
          <gpxtpx:TrackPointExtension></gpxtpx:TrackPointExtension>
        </extensions>
      </trkpt>
      <trkpt lat="35.880524" lon="115.112055">
        <ele>44.44</ele>
        <time>2022-08-20T12:44:05Z</time>
        <extensions>
          <gpxtpx:TrackPointExtension></gpxtpx:TrackPointExtension>
        </extensions>
      </trkpt>
      <trkpt lat="35.880608" lon="115.112078">
        <ele>44.42</ele>
        <time>2022-08-20T12:44:10Z</time>
        <extensions>
          <gpxtpx:TrackPointExtension></gpxtpx:TrackPointExtension>
        </extensions>
      </trkpt>
      <trkpt lat="35.880679" lon="115.112092">
        <ele>44.31</ele>
        <time>2022-08-20T12:44:15Z</time>
        <extensions>
          <gpxtpx:TrackPointExtension></gpxtpx:TrackPointExtension>
        </extensions>
      </trkpt>
      <trkpt lat="35.880757" lon="115.112094">
        <ele>44.4</ele>
        <time>2022-08-20T12:44:20Z</time>
        <extensions>
          <gpxtpx:TrackPointExtension></gpxtpx:TrackPointExtension>
        </extensions>
      </trkpt>
      <trkpt lat="35.880832" lon="115.112103">
        <ele>44.49</ele>
        <time>2022-08-20T12:44:25Z</time>
        <extensions>
          <gpxtpx:TrackPointExtension></gpxtpx:TrackPointExtension>
        </extensions>
      </trkpt>
      <trkpt lat="35.880887" lon="115.11213">
        <ele>44.48</ele>
        <time>2022-08-20T12:44:30Z</time>
        <extensions>
          <gpxtpx:TrackPointExtension></gpxtpx:TrackPointExtension>
        </extensions>
      </trkpt>
      <trkpt lat="35.880917" lon="115.112179">
        <ele>44.56</ele>
        <time>2022-08-20T12:44:35Z</time>
        <extensions>
          <gpxtpx:TrackPointExtension></gpxtpx:TrackPointExtension>
        </extensions>
      </trkpt>
      <trkpt lat="35.881004" lon="115.112189">
        <ele>44.61</ele>
        <time>2022-08-20T12:44:40Z</time>
        <extensions>
          <gpxtpx:TrackPointExtension></gpxtpx:TrackPointExtension>
        </extensions>
      </trkpt>
      <trkpt lat="35.881083" lon="115.112203">
        <ele>44.62</ele>
        <time>2022-08-20T12:44:45Z</time>
        <extensions>
          <gpxtpx:TrackPointExtension></gpxtpx:TrackPointExtension>
        </extensions>
      </trkpt>
      <trkpt lat="35.881158" lon="115.112211">
        <ele>44.64</ele>
        <time>2022-08-20T12:44:50Z</time>
        <extensions>
          <gpxtpx:TrackPointExtension></gpxtpx:TrackPointExtension>
        </extensions>
      </trkpt>
      <trkpt lat="35.881236" lon="115.112225">
        <ele>44.59</ele>
        <time>2022-08-20T12:44:55Z</time>
        <extensions>
          <gpxtpx:TrackPointExtension></gpxtpx:TrackPointExtension>
        </extensions>
      </trkpt>
      <trkpt lat="35.881309" lon="115.112241">
        <ele>44.53</ele>
        <time>2022-08-20T12:45:00Z</time>
        <extensions>
          <gpxtpx:TrackPointExtension></gpxtpx:TrackPointExtension>
        </extensions>
      </trkpt>
      <trkpt lat="35.881396" lon="115.112268">
        <ele>44.74</ele>
        <time>2022-08-20T12:45:05Z</time>
        <extensions>
          <gpxtpx:TrackPointExtension></gpxtpx:TrackPointExtension>
        </extensions>
      </trkpt>
      <trkpt lat="35.881476" lon="115.112298">
        <ele>44.79</ele>
        <time>2022-08-20T12:45:10Z</time>
        <extensions>
          <gpxtpx:TrackPointExtension></gpxtpx:TrackPointExtension>
        </extensions>
      </trkpt>
      <trkpt lat="35.881555" lon="115.11232">
        <ele>44.49</ele>
        <time>2022-08-20T12:45:15Z</time>
        <extensions>
          <gpxtpx:TrackPointExtension></gpxtpx:TrackPointExtension>
        </extensions>
      </trkpt>
      <trkpt lat="35.881656" lon="115.112317">
        <ele>44.67</ele>
        <time>2022-08-20T12:45:20Z</time>
        <extensions>
          <gpxtpx:TrackPointExtension></gpxtpx:TrackPointExtension>
        </extensions>
      </trkpt>
      <trkpt lat="35.881747" lon="115.11235">
        <ele>44.47</ele>
        <time>2022-08-20T12:45:25Z</time>
        <extensions>
          <gpxtpx:TrackPointExtension></gpxtpx:TrackPointExtension>
        </extensions>
      </trkpt>
      <trkpt lat="35.881819" lon="115.112391">
        <ele>44.65</ele>
        <time>2022-08-20T12:45:30Z</time>
        <extensions>
          <gpxtpx:TrackPointExtension></gpxtpx:TrackPointExtension>
        </extensions>
      </trkpt>
      <trkpt lat="35.881913" lon="115.112397">
        <ele>44.49</ele>
        <time>2022-08-20T12:45:35Z</time>
        <extensions>
          <gpxtpx:TrackPointExtension></gpxtpx:TrackPointExtension>
        </extensions>
      </trkpt>
      <trkpt lat="35.881982" lon="115.112401">
        <ele>44.43</ele>
        <time>2022-08-20T12:45:40Z</time>
        <extensions>
          <gpxtpx:TrackPointExtension></gpxtpx:TrackPointExtension>
        </extensions>
      </trkpt>
      <trkpt lat="35.8821" lon="115.11241">
        <ele>44.45</ele>
        <time>2022-08-20T12:45:45Z</time>
        <extensions>
          <gpxtpx:TrackPointExtension></gpxtpx:TrackPointExtension>
        </extensions>
      </trkpt>
      <trkpt lat="35.88218" lon="115.112415">
        <ele>44.55</ele>
        <time>2022-08-20T12:45:50Z</time>
        <extensions>
          <gpxtpx:TrackPointExtension></gpxtpx:TrackPointExtension>
        </extensions>
      </trkpt>
      <trkpt lat="35.882268" lon="115.112405">
        <ele>44.42</ele>
        <time>2022-08-20T12:45:55Z</time>
        <extensions>
          <gpxtpx:TrackPointExtension></gpxtpx:TrackPointExtension>
        </extensions>
      </trkpt>
      <trkpt lat="35.882398" lon="115.112408">
        <ele>44.39</ele>
        <time>2022-08-20T12:46:00Z</time>
        <extensions>
          <gpxtpx:TrackPointExtension></gpxtpx:TrackPointExtension>
        </extensions>
      </trkpt>
      <trkpt lat="35.882519" lon="115.112439">
        <ele>44.3</ele>
        <time>2022-08-20T12:46:05Z</time>
        <extensions>
          <gpxtpx:TrackPointExtension></gpxtpx:TrackPointExtension>
        </extensions>
      </trkpt>
      <trkpt lat="35.882608" lon="115.112472">
        <ele>44.46</ele>
        <time>2022-08-20T12:46:10Z</time>
        <extensions>
          <gpxtpx:TrackPointExtension></gpxtpx:TrackPointExtension>
        </extensions>
      </trkpt>
      <trkpt lat="35.88269" lon="115.112462">
        <ele>44.38</ele>
        <time>2022-08-20T12:46:15Z</time>
        <extensions>
          <gpxtpx:TrackPointExtension></gpxtpx:TrackPointExtension>
        </extensions>
      </trkpt>
      <trkpt lat="35.882739" lon="115.112419">
        <ele>44.69</ele>
        <time>2022-08-20T12:46:20Z</time>
        <extensions>
          <gpxtpx:TrackPointExtension></gpxtpx:TrackPointExtension>
        </extensions>
      </trkpt>
      <trkpt lat="35.88284" lon="115.112358">
        <ele>44.57</ele>
        <time>2022-08-20T12:46:25Z</time>
        <extensions>
          <gpxtpx:TrackPointExtension></gpxtpx:TrackPointExtension>
        </extensions>
      </trkpt>
      <trkpt lat="35.882943" lon="115.112373">
        <ele>44.41</ele>
        <time>2022-08-20T12:46:30Z</time>
        <extensions>
          <gpxtpx:TrackPointExtension></gpxtpx:TrackPointExtension>
        </extensions>
      </trkpt>
      <trkpt lat="35.883078" lon="115.112393">
        <ele>44.66</ele>
        <time>2022-08-20T12:46:35Z</time>
        <extensions>
          <gpxtpx:TrackPointExtension></gpxtpx:TrackPointExtension>
        </extensions>
      </trkpt>
      <trkpt lat="35.883166" lon="115.112452">
        <ele>44.55</ele>
        <time>2022-08-20T12:46:40Z</time>
        <extensions>
          <gpxtpx:TrackPointExtension></gpxtpx:TrackPointExtension>
        </extensions>
      </trkpt>
      <trkpt lat="35.88322" lon="115.112507">
        <ele>44.51</ele>
        <time>2022-08-20T12:46:45Z</time>
        <extensions>
          <gpxtpx:TrackPointExtension></gpxtpx:TrackPointExtension>
        </extensions>
      </trkpt>
      <trkpt lat="35.883306" lon="115.11255">
        <ele>44.52</ele>
        <time>2022-08-20T12:46:50Z</time>
        <extensions>
          <gpxtpx:TrackPointExtension></gpxtpx:TrackPointExtension>
        </extensions>
      </trkpt>
      <trkpt lat="35.883377" lon="115.11256">
        <ele>44.75</ele>
        <time>2022-08-20T12:46:55Z</time>
        <extensions>
          <gpxtpx:TrackPointExtension></gpxtpx:TrackPointExtension>
        </extensions>
      </trkpt>
      <trkpt lat="35.883468" lon="115.11257">
        <ele>44.81</ele>
        <time>2022-08-20T12:47:00Z</time>
        <extensions>
          <gpxtpx:TrackPointExtension></gpxtpx:TrackPointExtension>
        </extensions>
      </trkpt>
      <trkpt lat="35.883555" lon="115.112576">
        <ele>44.78</ele>
        <time>2022-08-20T12:47:05Z</time>
        <extensions>
          <gpxtpx:TrackPointExtension></gpxtpx:TrackPointExtension>
        </extensions>
      </trkpt>
      <trkpt lat="35.883643" lon="115.112602">
        <ele>44.73</ele>
        <time>2022-08-20T12:47:10Z</time>
        <extensions>
          <gpxtpx:TrackPointExtension></gpxtpx:TrackPointExtension>
        </extensions>
      </trkpt>
      <trkpt lat="35.883721" lon="115.112611">
        <ele>44.76</ele>
        <time>2022-08-20T12:47:15Z</time>
        <extensions>
          <gpxtpx:TrackPointExtension></gpxtpx:TrackPointExtension>
        </extensions>
      </trkpt>
      <trkpt lat="35.883796" lon="115.112611">
        <ele>44.54</ele>
        <time>2022-08-20T12:47:20Z</time>
        <extensions>
          <gpxtpx:TrackPointExtension></gpxtpx:TrackPointExtension>
        </extensions>
      </trkpt>
      <trkpt lat="35.883868" lon="115.112614">
        <ele>44.49</ele>
        <time>2022-08-20T12:47:25Z</time>
        <extensions>
          <gpxtpx:TrackPointExtension></gpxtpx:TrackPointExtension>
        </extensions>
      </trkpt>
      <trkpt lat="35.883943" lon="115.112594">
        <ele>44.77</ele>
        <time>2022-08-20T12:47:30Z</time>
        <extensions>
          <gpxtpx:TrackPointExtension></gpxtpx:TrackPointExtension>
        </extensions>
      </trkpt>
      <trkpt lat="35.88404" lon="115.112557">
        <ele>44.73</ele>
        <time>2022-08-20T12:47:35Z</time>
        <extensions>
          <gpxtpx:TrackPointExtension></gpxtpx:TrackPointExtension>
        </extensions>
      </trkpt>
      <trkpt lat="35.88417" lon="115.112572">
        <ele>44.64</ele>
        <time>2022-08-20T12:47:40Z</time>
        <extensions>
          <gpxtpx:TrackPointExtension></gpxtpx:TrackPointExtension>
        </extensions>
      </trkpt>
      <trkpt lat="35.884291" lon="115.112606">
        <ele>44.54</ele>
        <time>2022-08-20T12:47:45Z</time>
        <extensions>
          <gpxtpx:TrackPointExtension></gpxtpx:TrackPointExtension>
        </extensions>
      </trkpt>
      <trkpt lat="35.884367" lon="115.112627">
        <ele>44.55</ele>
        <time>2022-08-20T12:47:50Z</time>
        <extensions>
          <gpxtpx:TrackPointExtension></gpxtpx:TrackPointExtension>
        </extensions>
      </trkpt>
      <trkpt lat="35.884442" lon="115.112655">
        <ele>44.5</ele>
        <time>2022-08-20T12:47:54Z</time>
        <extensions>
          <gpxtpx:TrackPointExtension></gpxtpx:TrackPointExtension>
        </extensions>
      </trkpt>
    </trkseg>
  </trk>
</gpx>