<?xml version="1.0" encoding="UTF-8"?>
<gpx xmlns="http://www.topografix.com/GPX/1/1" xmlns:gpxtpx="http://www.garmin.com/xmlschemas/TrackPointExtension/v1" xmlns:xsi="http://www.w3.org/2001/XMLSchema-instance" xsi:schemaLocation="http://www.topografix.com/GPX/1/1 http://www.topografix.com/GPX/1/1/gpx.xsd" version="1.1" creator="gpx.py -- https://github.com/tkrajina/gpxpy">
  <trk>
    <name>gpx from joyrun 1661164330</name>
    <trkseg>
      <trkpt lat="35.882451" lon="115.112475">
        <ele>42.75</ele>
        <time>2022-08-22T10:32:10Z</time>
        <extensions>
          <gpxtpx:TrackPointExtension></gpxtpx:TrackPointExtension>
        </extensions>
      </trkpt>
      <trkpt lat="35.882345" lon="115.112469">
        <ele>42.73</ele>
        <time>2022-08-22T10:32:15Z</time>
        <extensions>
          <gpxtpx:TrackPointExtension></gpxtpx:TrackPointExtension>
        </extensions>
      </trkpt>
      <trkpt lat="35.882208" lon="115.112416">
        <ele>42.88</ele>
        <time>2022-08-22T10:32:20Z</time>
        <extensions>
          <gpxtpx:TrackPointExtension></gpxtpx:TrackPointExtension>
        </extensions>
      </trkpt>
      <trkpt lat="35.882048" lon="115.112388">
        <ele>42.96</ele>
        <time>2022-08-22T10:32:25Z</time>
        <extensions>
          <gpxtpx:TrackPointExtension></gpxtpx:TrackPointExtension>
        </extensions>
      </trkpt>
      <trkpt lat="35.881912" lon="115.11235">
        <ele>42.95</ele>
        <time>2022-08-22T10:32:30Z</time>
        <extensions>
          <gpxtpx:TrackPointExtension></gpxtpx:TrackPointExtension>
        </extensions>
      </trkpt>
      <trkpt lat="35.881805" lon="115.112332">
        <ele>43.29</ele>
        <time>2022-08-22T10:32:35Z</time>
        <extensions>
          <gpxtpx:TrackPointExtension></gpxtpx:TrackPointExtension>
        </extensions>
      </trkpt>
      <trkpt lat="35.881689" lon="115.112314">
        <ele>43.22</ele>
        <time>2022-08-22T10:32:40Z</time>
        <extensions>
          <gpxtpx:TrackPointExtension></gpxtpx:TrackPointExtension>
        </extensions>
      </trkpt>
      <trkpt lat="35.881541" lon="115.112314">
        <ele>43.14</ele>
        <time>2022-08-22T10:32:45Z</time>
        <extensions>
          <gpxtpx:TrackPointExtension></gpxtpx:TrackPointExtension>
        </extensions>
      </trkpt>
      <trkpt lat="35.881403" lon="115.112281">
        <ele>43.22</ele>
        <time>2022-08-22T10:32:50Z</time>
        <extensions>
          <gpxtpx:TrackPointExtension></gpxtpx:TrackPointExtension>
        </extensions>
      </trkpt>
      <trkpt lat="35.881256" lon="115.112283">
        <ele>43.38</ele>
        <time>2022-08-22T10:32:55Z</time>
        <extensions>
          <gpxtpx:TrackPointExtension></gpxtpx:TrackPointExtension>
        </extensions>
      </trkpt>
      <trkpt lat="35.88113" lon="115.112247">
        <ele>43.15</ele>
        <time>2022-08-22T10:33:00Z</time>
        <extensions>
          <gpxtpx:TrackPointExtension></gpxtpx:TrackPointExtension>
        </extensions>
      </trkpt>
      <trkpt lat="35.881017" lon="115.112223">
        <ele>43.04</ele>
        <time>2022-08-22T10:33:05Z</time>
        <extensions>
          <gpxtpx:TrackPointExtension></gpxtpx:TrackPointExtension>
        </extensions>
      </trkpt>
      <trkpt lat="35.880921" lon="115.112188">
        <ele>43</ele>
        <time>2022-08-22T10:33:10Z</time>
        <extensions>
          <gpxtpx:TrackPointExtension></gpxtpx:TrackPointExtension>
        </extensions>
      </trkpt>
      <trkpt lat="35.880775" lon="115.112157">
        <ele>42.96</ele>
        <time>2022-08-22T10:33:15Z</time>
        <extensions>
          <gpxtpx:TrackPointExtension></gpxtpx:TrackPointExtension>
        </extensions>
      </trkpt>
      <trkpt lat="35.880668" lon="115.112134">
        <ele>42.83</ele>
        <time>2022-08-22T10:33:20Z</time>
        <extensions>
          <gpxtpx:TrackPointExtension></gpxtpx:TrackPointExtension>
        </extensions>
      </trkpt>
      <trkpt lat="35.880552" lon="115.112113">
        <ele>42.9</ele>
        <time>2022-08-22T10:33:25Z</time>
        <extensions>
          <gpxtpx:TrackPointExtension></gpxtpx:TrackPointExtension>
        </extensions>
      </trkpt>
      <trkpt lat="35.880416" lon="115.112108">
        <ele>42.63</ele>
        <time>2022-08-22T10:33:30Z</time>
        <extensions>
          <gpxtpx:TrackPointExtension></gpxtpx:TrackPointExtension>
        </extensions>
      </trkpt>
      <trkpt lat="35.880301" lon="115.112086">
        <ele>42.77</ele>
        <time>2022-08-22T10:33:35Z</time>
        <extensions>
          <gpxtpx:TrackPointExtension></gpxtpx:TrackPointExtension>
        </extensions>
      </trkpt>
      <trkpt lat="35.880178" lon="115.112043">
        <ele>42.7</ele>
        <time>2022-08-22T10:33:40Z</time>
        <extensions>
          <gpxtpx:TrackPointExtension></gpxtpx:TrackPointExtension>
        </extensions>
      </trkpt>
      <trkpt lat="35.88006" lon="115.111998">
        <ele>42.72</ele>
        <time>2022-08-22T10:33:45Z</time>
        <extensions>
          <gpxtpx:TrackPointExtension></gpxtpx:TrackPointExtension>
        </extensions>
      </trkpt>
      <trkpt lat="35.879918" lon="115.111968">
        <ele>42.52</ele>
        <time>2022-08-22T10:33:50Z</time>
        <extensions>
          <gpxtpx:TrackPointExtension></gpxtpx:TrackPointExtension>
        </extensions>
      </trkpt>
      <trkpt lat="35.879773" lon="115.111931">
        <ele>42.32</ele>
        <time>2022-08-22T10:33:55Z</time>
        <extensions>
          <gpxtpx:TrackPointExtension></gpxtpx:TrackPointExtension>
        </extensions>
      </trkpt>
      <trkpt lat="35.879646" lon="115.111918">
        <ele>42.19</ele>
        <time>2022-08-22T10:34:00Z</time>
        <extensions>
          <gpxtpx:TrackPointExtension></gpxtpx:TrackPointExtension>
        </extensions>
      </trkpt>
      <trkpt lat="35.879568" lon="115.111891">
        <ele>42.19</ele>
        <time>2022-08-22T10:34:05Z</time>
        <extensions>
          <gpxtpx:TrackPointExtension></gpxtpx:TrackPointExtension>
        </extensions>
      </trkpt>
      <trkpt lat="35.879519" lon="115.111777">
        <ele>42.56</ele>
        <time>2022-08-22T10:34:10Z</time>
        <extensions>
          <gpxtpx:TrackPointExtension></gpxtpx:TrackPointExtension>
        </extensions>
      </trkpt>
      <trkpt lat="35.879533" lon="115.111618">
        <ele>42.92</ele>
        <time>2022-08-22T10:34:15Z</time>
        <extensions>
          <gpxtpx:TrackPointExtension></gpxtpx:TrackPointExtension>
        </extensions>
      </trkpt>
      <trkpt lat="35.87955" lon="115.111429">
        <ele>42.81</ele>
        <time>2022-08-22T10:34:20Z</time>
        <extensions>
          <gpxtpx:TrackPointExtension></gpxtpx:TrackPointExtension>
        </extensions>
      </trkpt>
      <trkpt lat="35.87956" lon="115.111273">
        <ele>42.87</ele>
        <time>2022-08-22T10:34:25Z</time>
        <extensions>
          <gpxtpx:TrackPointExtension></gpxtpx:TrackPointExtension>
        </extensions>
      </trkpt>
      <trkpt lat="35.879578" lon="115.11111">
        <ele>42.71</ele>
        <time>2022-08-22T10:34:30Z</time>
        <extensions>
          <gpxtpx:TrackPointExtension></gpxtpx:TrackPointExtension>
        </extensions>
      </trkpt>
      <trkpt lat="35.879599" lon="115.110949">
        <ele>42.53</ele>
        <time>2022-08-22T10:34:35Z</time>
        <extensions>
          <gpxtpx:TrackPointExtension></gpxtpx:TrackPointExtension>
        </extensions>
      </trkpt>
      <trkpt lat="35.879618" lon="115.110808">
        <ele>42.32</ele>
        <time>2022-08-22T10:34:40Z</time>
        <extensions>
          <gpxtpx:TrackPointExtension></gpxtpx:TrackPointExtension>
        </extensions>
      </trkpt>
      <trkpt lat="35.879641" lon="115.110678">
        <ele>42.62</ele>
        <time>2022-08-22T10:34:45Z</time>
        <extensions>
          <gpxtpx:TrackPointExtension></gpxtpx:TrackPointExtension>
        </extensions>
      </trkpt>
      <trkpt lat="35.879664" lon="115.110552">
        <ele>42.37</ele>
        <time>2022-08-22T10:34:50Z</time>
        <extensions>
          <gpxtpx:TrackPointExtension></gpxtpx:TrackPointExtension>
        </extensions>
      </trkpt>
      <trkpt lat="35.87969" lon="115.110411">
        <ele>42.61</ele>
        <time>2022-08-22T10:34:55Z</time>
        <extensions>
          <gpxtpx:TrackPointExtension></gpxtpx:TrackPointExtension>
        </extensions>
      </trkpt>
      <trkpt lat="35.879708" lon="115.110256">
        <ele>42.22</ele>
        <time>2022-08-22T10:35:00Z</time>
        <extensions>
          <gpxtpx:TrackPointExtension></gpxtpx:TrackPointExtension>
        </extensions>
      </trkpt>
      <trkpt lat="35.879727" lon="115.110093">
        <ele>42.88</ele>
        <time>2022-08-22T10:35:05Z</time>
        <extensions>
          <gpxtpx:TrackPointExtension></gpxtpx:TrackPointExtension>
        </extensions>
      </trkpt>
      <trkpt lat="35.879742" lon="115.109942">
        <ele>42.56</ele>
        <time>2022-08-22T10:35:10Z</time>
        <extensions>
          <gpxtpx:TrackPointExtension></gpxtpx:TrackPointExtension>
        </extensions>
      </trkpt>
      <trkpt lat="35.879766" lon="115.109804">
        <ele>42.52</ele>
        <time>2022-08-22T10:35:15Z</time>
        <extensions>
          <gpxtpx:TrackPointExtension></gpxtpx:TrackPointExtension>
        </extensions>
      </trkpt>
      <trkpt lat="35.879777" lon="115.109702">
        <ele>42.48</ele>
        <time>2022-08-22T10:35:20Z</time>
        <extensions>
          <gpxtpx:TrackPointExtension></gpxtpx:TrackPointExtension>
        </extensions>
      </trkpt>
      <trkpt lat="35.87979" lon="115.109573">
        <ele>42.53</ele>
        <time>2022-08-22T10:35:25Z</time>
        <extensions>
          <gpxtpx:TrackPointExtension></gpxtpx:TrackPointExtension>
        </extensions>
      </trkpt>
      <trkpt lat="35.879807" lon="115.109454">
        <ele>42.43</ele>
        <time>2022-08-22T10:35:30Z</time>
        <extensions>
          <gpxtpx:TrackPointExtension></gpxtpx:TrackPointExtension>
        </extensions>
      </trkpt>
      <trkpt lat="35.879828" lon="115.109312">
        <ele>42.45</ele>
        <time>2022-08-22T10:35:35Z</time>
        <extensions>
          <gpxtpx:TrackPointExtension></gpxtpx:TrackPointExtension>
        </extensions>
      </trkpt>
      <trkpt lat="35.87985" lon="115.109148">
        <ele>42.26</ele>
        <time>2022-08-22T10:35:40Z</time>
        <extensions>
          <gpxtpx:TrackPointExtension></gpxtpx:TrackPointExtension>
        </extensions>
      </trkpt>
      <trkpt lat="35.879855" lon="115.108977">
        <ele>42.17</ele>
        <time>2022-08-22T10:35:45Z</time>
        <extensions>
          <gpxtpx:TrackPointExtension></gpxtpx:TrackPointExtension>
        </extensions>
      </trkpt>
      <trkpt lat="35.879901" lon="115.108851">
        <ele>42.25</ele>
        <time>2022-08-22T10:35:50Z</time>
        <extensions>
          <gpxtpx:TrackPointExtension></gpxtpx:TrackPointExtension>
        </extensions>
      </trkpt>
      <trkpt lat="35.87995" lon="115.108752">
        <ele>42.26</ele>
        <time>2022-08-22T10:35:55Z</time>
        <extensions>
          <gpxtpx:TrackPointExtension></gpxtpx:TrackPointExtension>
        </extensions>
      </trkpt>
      <trkpt lat="35.879938" lon="115.108644">
        <ele>42.25</ele>
        <time>2022-08-22T10:36:00Z</time>
        <extensions>
          <gpxtpx:TrackPointExtension></gpxtpx:TrackPointExtension>
        </extensions>
      </trkpt>
      <trkpt lat="35.879917" lon="115.108526">
        <ele>42.51</ele>
        <time>2022-08-22T10:36:05Z</time>
        <extensions>
          <gpxtpx:TrackPointExtension></gpxtpx:TrackPointExtension>
        </extensions>
      </trkpt>
      <trkpt lat="35.879953" lon="115.108408">
        <ele>42.46</ele>
        <time>2022-08-22T10:36:10Z</time>
        <extensions>
          <gpxtpx:TrackPointExtension></gpxtpx:TrackPointExtension>
        </extensions>
      </trkpt>
      <trkpt lat="35.87998" lon="115.108254">
        <ele>42.31</ele>
        <time>2022-08-22T10:36:15Z</time>
        <extensions>
          <gpxtpx:TrackPointExtension></gpxtpx:TrackPointExtension>
        </extensions>
      </trkpt>
      <trkpt lat="35.879989" lon="115.108102">
        <ele>42.28</ele>
        <time>2022-08-22T10:36:20Z</time>
        <extensions>
          <gpxtpx:TrackPointExtension></gpxtpx:TrackPointExtension>
        </extensions>
      </trkpt>
      <trkpt lat="35.88" lon="115.107915">
        <ele>42.19</ele>
        <time>2022-08-22T10:36:25Z</time>
        <extensions>
          <gpxtpx:TrackPointExtension></gpxtpx:TrackPointExtension>
        </extensions>
      </trkpt>
      <trkpt lat="35.880011" lon="115.107785">
        <ele>42.01</ele>
        <time>2022-08-22T10:36:30Z</time>
        <extensions>
          <gpxtpx:TrackPointExtension></gpxtpx:TrackPointExtension>
        </extensions>
      </trkpt>
      <trkpt lat="35.880028" lon="115.107634">
        <ele>41.59</ele>
        <time>2022-08-22T10:36:35Z</time>
        <extensions>
          <gpxtpx:TrackPointExtension></gpxtpx:TrackPointExtension>
        </extensions>
      </trkpt>
      <trkpt lat="35.880043" lon="115.107502">
        <ele>41.9</ele>
        <time>2022-08-22T10:36:40Z</time>
        <extensions>
          <gpxtpx:TrackPointExtension></gpxtpx:TrackPointExtension>
        </extensions>
      </trkpt>
      <trkpt lat="35.880053" lon="115.107423">
        <ele>42.04</ele>
        <time>2022-08-22T10:36:45Z</time>
        <extensions>
          <gpxtpx:TrackPointExtension></gpxtpx:TrackPointExtension>
        </extensions>
      </trkpt>
      <trkpt lat="35.880072" lon="115.107316">
        <ele>42.25</ele>
        <time>2022-08-22T10:36:50Z</time>
        <extensions>
          <gpxtpx:TrackPointExtension></gpxtpx:TrackPointExtension>
        </extensions>
      </trkpt>
      <trkpt lat="35.880104" lon="115.107179">
        <ele>42.11</ele>
        <time>2022-08-22T10:36:55Z</time>
        <extensions>
          <gpxtpx:TrackPointExtension></gpxtpx:TrackPointExtension>
        </extensions>
      </trkpt>
      <trkpt lat="35.880128" lon="115.107048">
        <ele>42.1</ele>
        <time>2022-08-22T10:37:00Z</time>
        <extensions>
          <gpxtpx:TrackPointExtension></gpxtpx:TrackPointExtension>
        </extensions>
      </trkpt>
      <trkpt lat="35.880147" lon="115.106924">
        <ele>42.15</ele>
        <time>2022-08-22T10:37:05Z</time>
        <extensions>
          <gpxtpx:TrackPointExtension></gpxtpx:TrackPointExtension>
        </extensions>
      </trkpt>
      <trkpt lat="35.880163" lon="115.106758">
        <ele>42.18</ele>
        <time>2022-08-22T10:37:10Z</time>
        <extensions>
          <gpxtpx:TrackPointExtension></gpxtpx:TrackPointExtension>
        </extensions>
      </trkpt>
      <trkpt lat="35.88017" lon="115.10662">
        <ele>42.06</ele>
        <time>2022-08-22T10:37:15Z</time>
        <extensions>
          <gpxtpx:TrackPointExtension></gpxtpx:TrackPointExtension>
        </extensions>
      </trkpt>
      <trkpt lat="35.880192" lon="115.10648">
        <ele>42.07</ele>
        <time>2022-08-22T10:37:20Z</time>
        <extensions>
          <gpxtpx:TrackPointExtension></gpxtpx:TrackPointExtension>
        </extensions>
      </trkpt>
      <trkpt lat="35.880209" lon="115.106346">
        <ele>42.03</ele>
        <time>2022-08-22T10:37:25Z</time>
        <extensions>
          <gpxtpx:TrackPointExtension></gpxtpx:TrackPointExtension>
        </extensions>
      </trkpt>
      <trkpt lat="35.880244" lon="115.106219">
        <ele>42.09</ele>
        <time>2022-08-22T10:37:30Z</time>
        <extensions>
          <gpxtpx:TrackPointExtension></gpxtpx:TrackPointExtension>
        </extensions>
      </trkpt>
      <trkpt lat="35.880267" lon="115.106077">
        <ele>42.03</ele>
        <time>2022-08-22T10:37:35Z</time>
        <extensions>
          <gpxtpx:TrackPointExtension></gpxtpx:TrackPointExtension>
        </extensions>
      </trkpt>
      <trkpt lat="35.880285" lon="115.105895">
        <ele>42.01</ele>
        <time>2022-08-22T10:37:40Z</time>
        <extensions>
          <gpxtpx:TrackPointExtension></gpxtpx:TrackPointExtension>
        </extensions>
      </trkpt>
      <trkpt lat="35.880316" lon="115.105752">
        <ele>41.86</ele>
        <time>2022-08-22T10:37:45Z</time>
        <extensions>
          <gpxtpx:TrackPointExtension></gpxtpx:TrackPointExtension>
        </extensions>
      </trkpt>
      <trkpt lat="35.880344" lon="115.105591">
        <ele>42.12</ele>
        <time>2022-08-22T10:37:50Z</time>
        <extensions>
          <gpxtpx:TrackPointExtension></gpxtpx:TrackPointExtension>
        </extensions>
      </trkpt>
      <trkpt lat="35.880351" lon="115.105425">
        <ele>41.58</ele>
        <time>2022-08-22T10:37:55Z</time>
        <extensions>
          <gpxtpx:TrackPointExtension></gpxtpx:TrackPointExtension>
        </extensions>
      </trkpt>
      <trkpt lat="35.880378" lon="115.10528">
        <ele>42.1</ele>
        <time>2022-08-22T10:38:00Z</time>
        <extensions>
          <gpxtpx:TrackPointExtension></gpxtpx:TrackPointExtension>
        </extensions>
      </trkpt>
      <trkpt lat="35.880386" lon="115.105139">
        <ele>42.03</ele>
        <time>2022-08-22T10:38:05Z</time>
        <extensions>
          <gpxtpx:TrackPointExtension></gpxtpx:TrackPointExtension>
        </extensions>
      </trkpt>
      <trkpt lat="35.880392" lon="115.104988">
        <ele>41.92</ele>
        <time>2022-08-22T10:38:10Z</time>
        <extensions>
          <gpxtpx:TrackPointExtension></gpxtpx:TrackPointExtension>
        </extensions>
      </trkpt>
      <trkpt lat="35.880413" lon="115.104802">
        <ele>41.92</ele>
        <time>2022-08-22T10:38:15Z</time>
        <extensions>
          <gpxtpx:TrackPointExtension></gpxtpx:TrackPointExtension>
        </extensions>
      </trkpt>
      <trkpt lat="35.880446" lon="115.104627">
        <ele>41.81</ele>
        <time>2022-08-22T10:38:20Z</time>
        <extensions>
          <gpxtpx:TrackPointExtension></gpxtpx:TrackPointExtension>
        </extensions>
      </trkpt>
      <trkpt lat="35.880463" lon="115.104498">
        <ele>41.54</ele>
        <time>2022-08-22T10:38:25Z</time>
        <extensions>
          <gpxtpx:TrackPointExtension></gpxtpx:TrackPointExtension>
        </extensions>
      </trkpt>
      <trkpt lat="35.880473" lon="115.104345">
        <ele>41.68</ele>
        <time>2022-08-22T10:38:30Z</time>
        <extensions>
          <gpxtpx:TrackPointExtension></gpxtpx:TrackPointExtension>
        </extensions>
      </trkpt>
      <trkpt lat="35.880488" lon="115.104209">
        <ele>41.86</ele>
        <time>2022-08-22T10:38:35Z</time>
        <extensions>
          <gpxtpx:TrackPointExtension></gpxtpx:TrackPointExtension>
        </extensions>
      </trkpt>
      <trkpt lat="35.8805" lon="115.104086">
        <ele>42.1</ele>
        <time>2022-08-22T10:38:40Z</time>
        <extensions>
          <gpxtpx:TrackPointExtension></gpxtpx:TrackPointExtension>
        </extensions>
      </trkpt>
      <trkpt lat="35.88047" lon="115.10414">
        <ele>41.76</ele>
        <time>2022-08-22T10:38:45Z</time>
        <extensions>
          <gpxtpx:TrackPointExtension></gpxtpx:TrackPointExtension>
        </extensions>
      </trkpt>
      <trkpt lat="35.880453" lon="115.104294">
        <ele>41.68</ele>
        <time>2022-08-22T10:38:50Z</time>
        <extensions>
          <gpxtpx:TrackPointExtension></gpxtpx:TrackPointExtension>
        </extensions>
      </trkpt>
      <trkpt lat="35.88045" lon="115.104433">
        <ele>41.66</ele>
        <time>2022-08-22T10:38:55Z</time>
        <extensions>
          <gpxtpx:TrackPointExtension></gpxtpx:TrackPointExtension>
        </extensions>
      </trkpt>
      <trkpt lat="35.880449" lon="115.104555">
        <ele>41.91</ele>
        <time>2022-08-22T10:39:00Z</time>
        <extensions>
          <gpxtpx:TrackPointExtension></gpxtpx:TrackPointExtension>
        </extensions>
      </trkpt>
      <trkpt lat="35.880457" lon="115.104696">
        <ele>41.66</ele>
        <time>2022-08-22T10:39:05Z</time>
        <extensions>
          <gpxtpx:TrackPointExtension></gpxtpx:TrackPointExtension>
        </extensions>
      </trkpt>
      <trkpt lat="35.880425" lon="115.104809">
        <ele>41.56</ele>
        <time>2022-08-22T10:39:10Z</time>
        <extensions>
          <gpxtpx:TrackPointExtension></gpxtpx:TrackPointExtension>
        </extensions>
      </trkpt>
      <trkpt lat="35.880401" lon="115.104943">
        <ele>41.84</ele>
        <time>2022-08-22T10:39:15Z</time>
        <extensions>
          <gpxtpx:TrackPointExtension></gpxtpx:TrackPointExtension>
        </extensions>
      </trkpt>
      <trkpt lat="35.8804" lon="115.105047">
        <ele>41.84</ele>
        <time>2022-08-22T10:39:20Z</time>
        <extensions>
          <gpxtpx:TrackPointExtension></gpxtpx:TrackPointExtension>
        </extensions>
      </trkpt>
      <trkpt lat="35.880393" lon="115.105151">
        <ele>41.59</ele>
        <time>2022-08-22T10:39:25Z</time>
        <extensions>
          <gpxtpx:TrackPointExtension></gpxtpx:TrackPointExtension>
        </extensions>
      </trkpt>
      <trkpt lat="35.880374" lon="115.105275">
        <ele>41.73</ele>
        <time>2022-08-22T10:39:30Z</time>
        <extensions>
          <gpxtpx:TrackPointExtension></gpxtpx:TrackPointExtension>
        </extensions>
      </trkpt>
      <trkpt lat="35.880354" lon="115.105392">
        <ele>41.86</ele>
        <time>2022-08-22T10:39:35Z</time>
        <extensions>
          <gpxtpx:TrackPointExtension></gpxtpx:TrackPointExtension>
        </extensions>
      </trkpt>
      <trkpt lat="35.880319" lon="115.105503">
        <ele>41.85</ele>
        <time>2022-08-22T10:39:40Z</time>
        <extensions>
          <gpxtpx:TrackPointExtension></gpxtpx:TrackPointExtension>
        </extensions>
      </trkpt>
      <trkpt lat="35.880298" lon="115.105635">
        <ele>41.76</ele>
        <time>2022-08-22T10:39:45Z</time>
        <extensions>
          <gpxtpx:TrackPointExtension></gpxtpx:TrackPointExtension>
        </extensions>
      </trkpt>
      <trkpt lat="35.880263" lon="115.105793">
        <ele>41.89</ele>
        <time>2022-08-22T10:39:50Z</time>
        <extensions>
          <gpxtpx:TrackPointExtension></gpxtpx:TrackPointExtension>
        </extensions>
      </trkpt>
      <trkpt lat="35.880215" lon="115.105951">
        <ele>41.98</ele>
        <time>2022-08-22T10:39:55Z</time>
        <extensions>
          <gpxtpx:TrackPointExtension></gpxtpx:TrackPointExtension>
        </extensions>
      </trkpt>
      <trkpt lat="35.880192" lon="115.106111">
        <ele>42</ele>
        <time>2022-08-22T10:40:00Z</time>
        <extensions>
          <gpxtpx:TrackPointExtension></gpxtpx:TrackPointExtension>
        </extensions>
      </trkpt>
      <trkpt lat="35.880163" lon="115.10625">
        <ele>41.75</ele>
        <time>2022-08-22T10:40:05Z</time>
        <extensions>
          <gpxtpx:TrackPointExtension></gpxtpx:TrackPointExtension>
        </extensions>
      </trkpt>
      <trkpt lat="35.880148" lon="115.106375">
        <ele>41.94</ele>
        <time>2022-08-22T10:40:10Z</time>
        <extensions>
          <gpxtpx:TrackPointExtension></gpxtpx:TrackPointExtension>
        </extensions>
      </trkpt>
      <trkpt lat="35.880145" lon="115.106514">
        <ele>41.84</ele>
        <time>2022-08-22T10:40:15Z</time>
        <extensions>
          <gpxtpx:TrackPointExtension></gpxtpx:TrackPointExtension>
        </extensions>
      </trkpt>
      <trkpt lat="35.880123" lon="115.106627">
        <ele>41.97</ele>
        <time>2022-08-22T10:40:20Z</time>
        <extensions>
          <gpxtpx:TrackPointExtension></gpxtpx:TrackPointExtension>
        </extensions>
      </trkpt>
      <trkpt lat="35.880092" lon="115.106775">
        <ele>42.07</ele>
        <time>2022-08-22T10:40:25Z</time>
        <extensions>
          <gpxtpx:TrackPointExtension></gpxtpx:TrackPointExtension>
        </extensions>
      </trkpt>
      <trkpt lat="35.88008" lon="115.106939">
        <ele>41.59</ele>
        <time>2022-08-22T10:40:30Z</time>
        <extensions>
          <gpxtpx:TrackPointExtension></gpxtpx:TrackPointExtension>
        </extensions>
      </trkpt>
      <trkpt lat="35.880062" lon="115.107089">
        <ele>41.69</ele>
        <time>2022-08-22T10:40:35Z</time>
        <extensions>
          <gpxtpx:TrackPointExtension></gpxtpx:TrackPointExtension>
        </extensions>
      </trkpt>
      <trkpt lat="35.880053" lon="115.107246">
        <ele>41.63</ele>
        <time>2022-08-22T10:40:40Z</time>
        <extensions>
          <gpxtpx:TrackPointExtension></gpxtpx:TrackPointExtension>
        </extensions>
      </trkpt>
      <trkpt lat="35.880027" lon="115.107418">
        <ele>41.64</ele>
        <time>2022-08-22T10:40:45Z</time>
        <extensions>
          <gpxtpx:TrackPointExtension></gpxtpx:TrackPointExtension>
        </extensions>
      </trkpt>
      <trkpt lat="35.879988" lon="115.107613">
        <ele>41.93</ele>
        <time>2022-08-22T10:40:50Z</time>
        <extensions>
          <gpxtpx:TrackPointExtension></gpxtpx:TrackPointExtension>
        </extensions>
      </trkpt>
      <trkpt lat="35.879983" lon="115.107795">
        <ele>41.85</ele>
        <time>2022-08-22T10:40:55Z</time>
        <extensions>
          <gpxtpx:TrackPointExtension></gpxtpx:TrackPointExtension>
        </extensions>
      </trkpt>
      <trkpt lat="35.879965" lon="115.107966">
        <ele>41.84</ele>
        <time>2022-08-22T10:41:00Z</time>
        <extensions>
          <gpxtpx:TrackPointExtension></gpxtpx:TrackPointExtension>
        </extensions>
      </trkpt>
      <trkpt lat="35.879941" lon="115.108124">
        <ele>41.61</ele>
        <time>2022-08-22T10:41:05Z</time>
        <extensions>
          <gpxtpx:TrackPointExtension></gpxtpx:TrackPointExtension>
        </extensions>
      </trkpt>
      <trkpt lat="35.879909" lon="115.108272">
        <ele>41.85</ele>
        <time>2022-08-22T10:41:10Z</time>
        <extensions>
          <gpxtpx:TrackPointExtension></gpxtpx:TrackPointExtension>
        </extensions>
      </trkpt>
      <trkpt lat="35.87988" lon="115.108413">
        <ele>41.67</ele>
        <time>2022-08-22T10:41:15Z</time>
        <extensions>
          <gpxtpx:TrackPointExtension></gpxtpx:TrackPointExtension>
        </extensions>
      </trkpt>
      <trkpt lat="35.879878" lon="115.108564">
        <ele>41.69</ele>
        <time>2022-08-22T10:41:20Z</time>
        <extensions>
          <gpxtpx:TrackPointExtension></gpxtpx:TrackPointExtension>
        </extensions>
      </trkpt>
      <trkpt lat="35.879891" lon="115.108722">
        <ele>41.78</ele>
        <time>2022-08-22T10:41:25Z</time>
        <extensions>
          <gpxtpx:TrackPointExtension></gpxtpx:TrackPointExtension>
        </extensions>
      </trkpt>
      <trkpt lat="35.879898" lon="115.108885">
        <ele>41.48</ele>
        <time>2022-08-22T10:41:30Z</time>
        <extensions>
          <gpxtpx:TrackPointExtension></gpxtpx:TrackPointExtension>
        </extensions>
      </trkpt>
      <trkpt lat="35.879834" lon="115.109013">
        <ele>41.48</ele>
        <time>2022-08-22T10:41:35Z</time>
        <extensions>
          <gpxtpx:TrackPointExtension></gpxtpx:TrackPointExtension>
        </extensions>
      </trkpt>
      <trkpt lat="35.879796" lon="115.109129">
        <ele>41.51</ele>
        <time>2022-08-22T10:41:40Z</time>
        <extensions>
          <gpxtpx:TrackPointExtension></gpxtpx:TrackPointExtension>
        </extensions>
      </trkpt>
      <trkpt lat="35.879781" lon="115.10926">
        <ele>41.48</ele>
        <time>2022-08-22T10:41:45Z</time>
        <extensions>
          <gpxtpx:TrackPointExtension></gpxtpx:TrackPointExtension>
        </extensions>
      </trkpt>
      <trkpt lat="35.879765" lon="115.109471">
        <ele>41.38</ele>
        <time>2022-08-22T10:41:50Z</time>
        <extensions>
          <gpxtpx:TrackPointExtension></gpxtpx:TrackPointExtension>
        </extensions>
      </trkpt>
      <trkpt lat="35.879736" lon="115.109622">
        <ele>41.48</ele>
        <time>2022-08-22T10:41:55Z</time>
        <extensions>
          <gpxtpx:TrackPointExtension></gpxtpx:TrackPointExtension>
        </extensions>
      </trkpt>
      <trkpt lat="35.879722" lon="115.109751">
        <ele>41.41</ele>
        <time>2022-08-22T10:42:00Z</time>
        <extensions>
          <gpxtpx:TrackPointExtension></gpxtpx:TrackPointExtension>
        </extensions>
      </trkpt>
      <trkpt lat="35.879706" lon="115.109925">
        <ele>41.16</ele>
        <time>2022-08-22T10:42:05Z</time>
        <extensions>
          <gpxtpx:TrackPointExtension></gpxtpx:TrackPointExtension>
        </extensions>
      </trkpt>
      <trkpt lat="35.879717" lon="115.110049">
        <ele>41.07</ele>
        <time>2022-08-22T10:42:10Z</time>
        <extensions>
          <gpxtpx:TrackPointExtension></gpxtpx:TrackPointExtension>
        </extensions>
      </trkpt>
      <trkpt lat="35.87968" lon="115.110241">
        <ele>41.13</ele>
        <time>2022-08-22T10:42:15Z</time>
        <extensions>
          <gpxtpx:TrackPointExtension></gpxtpx:TrackPointExtension>
        </extensions>
      </trkpt>
      <trkpt lat="35.879641" lon="115.110424">
        <ele>41.13</ele>
        <time>2022-08-22T10:42:20Z</time>
        <extensions>
          <gpxtpx:TrackPointExtension></gpxtpx:TrackPointExtension>
        </extensions>
      </trkpt>
      <trkpt lat="35.879638" lon="115.110572">
        <ele>41.29</ele>
        <time>2022-08-22T10:42:25Z</time>
        <extensions>
          <gpxtpx:TrackPointExtension></gpxtpx:TrackPointExtension>
        </extensions>
      </trkpt>
      <trkpt lat="35.879624" lon="115.110689">
        <ele>40.99</ele>
        <time>2022-08-22T10:42:30Z</time>
        <extensions>
          <gpxtpx:TrackPointExtension></gpxtpx:TrackPointExtension>
        </extensions>
      </trkpt>
      <trkpt lat="35.879597" lon="115.110834">
        <ele>41</ele>
        <time>2022-08-22T10:42:35Z</time>
        <extensions>
          <gpxtpx:TrackPointExtension></gpxtpx:TrackPointExtension>
        </extensions>
      </trkpt>
      <trkpt lat="35.879581" lon="115.110972">
        <ele>41.07</ele>
        <time>2022-08-22T10:42:40Z</time>
        <extensions>
          <gpxtpx:TrackPointExtension></gpxtpx:TrackPointExtension>
        </extensions>
      </trkpt>
      <trkpt lat="35.879567" lon="115.111111">
        <ele>40.91</ele>
        <time>2022-08-22T10:42:45Z</time>
        <extensions>
          <gpxtpx:TrackPointExtension></gpxtpx:TrackPointExtension>
        </extensions>
      </trkpt>
      <trkpt lat="35.879555" lon="115.111239">
        <ele>40.98</ele>
        <time>2022-08-22T10:42:50Z</time>
        <extensions>
          <gpxtpx:TrackPointExtension></gpxtpx:TrackPointExtension>
        </extensions>
      </trkpt>
      <trkpt lat="35.879534" lon="115.111375">
        <ele>41.07</ele>
        <time>2022-08-22T10:42:55Z</time>
        <extensions>
          <gpxtpx:TrackPointExtension></gpxtpx:TrackPointExtension>
        </extensions>
      </trkpt>
      <trkpt lat="35.879507" lon="115.111511">
        <ele>40.96</ele>
        <time>2022-08-22T10:43:00Z</time>
        <extensions>
          <gpxtpx:TrackPointExtension></gpxtpx:TrackPointExtension>
        </extensions>
      </trkpt>
      <trkpt lat="35.879487" lon="115.111676">
        <ele>40.49</ele>
        <time>2022-08-22T10:43:05Z</time>
        <extensions>
          <gpxtpx:TrackPointExtension></gpxtpx:TrackPointExtension>
        </extensions>
      </trkpt>
      <trkpt lat="35.879474" lon="115.111817">
        <ele>40.53</ele>
        <time>2022-08-22T10:43:10Z</time>
        <extensions>
          <gpxtpx:TrackPointExtension></gpxtpx:TrackPointExtension>
        </extensions>
      </trkpt>
      <trkpt lat="35.879459" lon="115.111962">
        <ele>40.64</ele>
        <time>2022-08-22T10:43:15Z</time>
        <extensions>
          <gpxtpx:TrackPointExtension></gpxtpx:TrackPointExtension>
        </extensions>
      </trkpt>
      <trkpt lat="35.879425" lon="115.112115">
        <ele>40.65</ele>
        <time>2022-08-22T10:43:20Z</time>
        <extensions>
          <gpxtpx:TrackPointExtension></gpxtpx:TrackPointExtension>
        </extensions>
      </trkpt>
      <trkpt lat="35.87941" lon="115.112244">
        <ele>40.61</ele>
        <time>2022-08-22T10:43:25Z</time>
        <extensions>
          <gpxtpx:TrackPointExtension></gpxtpx:TrackPointExtension>
        </extensions>
      </trkpt>
      <trkpt lat="35.879401" lon="115.112366">
        <ele>40.65</ele>
        <time>2022-08-22T10:43:30Z</time>
        <extensions>
          <gpxtpx:TrackPointExtension></gpxtpx:TrackPointExtension>
        </extensions>
      </trkpt>
      <trkpt lat="35.879385" lon="115.112499">
        <ele>40.76</ele>
        <time>2022-08-22T10:43:35Z</time>
        <extensions>
          <gpxtpx:TrackPointExtension></gpxtpx:TrackPointExtension>
        </extensions>
      </trkpt>
      <trkpt lat="35.879368" lon="115.112633">
        <ele>40.79</ele>
        <time>2022-08-22T10:43:40Z</time>
        <extensions>
          <gpxtpx:TrackPointExtension></gpxtpx:TrackPointExtension>
        </extensions>
      </trkpt>
      <trkpt lat="35.87934" lon="115.11277">
        <ele>40.6</ele>
        <time>2022-08-22T10:43:45Z</time>
        <extensions>
          <gpxtpx:TrackPointExtension></gpxtpx:TrackPointExtension>
        </extensions>
      </trkpt>
      <trkpt lat="35.879324" lon="115.11289">
        <ele>40.57</ele>
        <time>2022-08-22T10:43:50Z</time>
        <extensions>
          <gpxtpx:TrackPointExtension></gpxtpx:TrackPointExtension>
        </extensions>
      </trkpt>
      <trkpt lat="35.879294" lon="115.113024">
        <ele>40.88</ele>
        <time>2022-08-22T10:43:55Z</time>
        <extensions>
          <gpxtpx:TrackPointExtension></gpxtpx:TrackPointExtension>
        </extensions>
      </trkpt>
      <trkpt lat="35.879274" lon="115.113158">
        <ele>40.7</ele>
        <time>2022-08-22T10:44:00Z</time>
        <extensions>
          <gpxtpx:TrackPointExtension></gpxtpx:TrackPointExtension>
        </extensions>
      </trkpt>
      <trkpt lat="35.879259" lon="115.113305">
        <ele>40.35</ele>
        <time>2022-08-22T10:44:05Z</time>
        <extensions>
          <gpxtpx:TrackPointExtension></gpxtpx:TrackPointExtension>
        </extensions>
      </trkpt>
      <trkpt lat="35.879244" lon="115.113418">
        <ele>40.45</ele>
        <time>2022-08-22T10:44:10Z</time>
        <extensions>
          <gpxtpx:TrackPointExtension></gpxtpx:TrackPointExtension>
        </extensions>
      </trkpt>
      <trkpt lat="35.879235" lon="115.11358">
        <ele>40.26</ele>
        <time>2022-08-22T10:44:15Z</time>
        <extensions>
          <gpxtpx:TrackPointExtension></gpxtpx:TrackPointExtension>
        </extensions>
      </trkpt>
      <trkpt lat="35.879203" lon="115.113754">
        <ele>40.1</ele>
        <time>2022-08-22T10:44:20Z</time>
        <extensions>
          <gpxtpx:TrackPointExtension></gpxtpx:TrackPointExtension>
        </extensions>
      </trkpt>
      <trkpt lat="35.879181" lon="115.113905">
        <ele>40.18</ele>
        <time>2022-08-22T10:44:25Z</time>
        <extensions>
          <gpxtpx:TrackPointExtension></gpxtpx:TrackPointExtension>
        </extensions>
      </trkpt>
      <trkpt lat="35.879164" lon="115.11405">
        <ele>40.12</ele>
        <time>2022-08-22T10:44:30Z</time>
        <extensions>
          <gpxtpx:TrackPointExtension></gpxtpx:TrackPointExtension>
        </extensions>
      </trkpt>
      <trkpt lat="35.879133" lon="115.114172">
        <ele>40.05</ele>
        <time>2022-08-22T10:44:35Z</time>
        <extensions>
          <gpxtpx:TrackPointExtension></gpxtpx:TrackPointExtension>
        </extensions>
      </trkpt>
      <trkpt lat="35.879101" lon="115.114301">
        <ele>39.95</ele>
        <time>2022-08-22T10:44:40Z</time>
        <extensions>
          <gpxtpx:TrackPointExtension></gpxtpx:TrackPointExtension>
        </extensions>
      </trkpt>
      <trkpt lat="35.879093" lon="115.114422">
        <ele>40.05</ele>
        <time>2022-08-22T10:44:45Z</time>
        <extensions>
          <gpxtpx:TrackPointExtension></gpxtpx:TrackPointExtension>
        </extensions>
      </trkpt>
      <trkpt lat="35.879068" lon="115.114547">
        <ele>40.1</ele>
        <time>2022-08-22T10:44:50Z</time>
        <extensions>
          <gpxtpx:TrackPointExtension></gpxtpx:TrackPointExtension>
        </extensions>
      </trkpt>
      <trkpt lat="35.879055" lon="115.114685">
        <ele>40.17</ele>
        <time>2022-08-22T10:44:55Z</time>
        <extensions>
          <gpxtpx:TrackPointExtension></gpxtpx:TrackPointExtension>
        </extensions>
      </trkpt>
      <trkpt lat="35.879045" lon="115.114831">
        <ele>40.09</ele>
        <time>2022-08-22T10:45:00Z</time>
        <extensions>
          <gpxtpx:TrackPointExtension></gpxtpx:TrackPointExtension>
        </extensions>
      </trkpt>
      <trkpt lat="35.879016" lon="115.114941">
        <ele>39.96</ele>
        <time>2022-08-22T10:45:05Z</time>
        <extensions>
          <gpxtpx:TrackPointExtension></gpxtpx:TrackPointExtension>
        </extensions>
      </trkpt>
      <trkpt lat="35.879012" lon="115.115063">
        <ele>40.01</ele>
        <time>2022-08-22T10:45:10Z</time>
        <extensions>
          <gpxtpx:TrackPointExtension></gpxtpx:TrackPointExtension>
        </extensions>
      </trkpt>
      <trkpt lat="35.879007" lon="115.115173">
        <ele>39.92</ele>
        <time>2022-08-22T10:45:15Z</time>
        <extensions>
          <gpxtpx:TrackPointExtension></gpxtpx:TrackPointExtension>
        </extensions>
      </trkpt>
      <trkpt lat="35.879006" lon="115.115295">
        <ele>40.05</ele>
        <time>2022-08-22T10:45:20Z</time>
        <extensions>
          <gpxtpx:TrackPointExtension></gpxtpx:TrackPointExtension>
        </extensions>
      </trkpt>
      <trkpt lat="35.878997" lon="115.115449">
        <ele>40.04</ele>
        <time>2022-08-22T10:45:25Z</time>
        <extensions>
          <gpxtpx:TrackPointExtension></gpxtpx:TrackPointExtension>
        </extensions>
      </trkpt>
      <trkpt lat="35.878965" lon="115.115613">
        <ele>40.08</ele>
        <time>2022-08-22T10:45:30Z</time>
        <extensions>
          <gpxtpx:TrackPointExtension></gpxtpx:TrackPointExtension>
        </extensions>
      </trkpt>
      <trkpt lat="35.878946" lon="115.11575">
        <ele>39.91</ele>
        <time>2022-08-22T10:45:35Z</time>
        <extensions>
          <gpxtpx:TrackPointExtension></gpxtpx:TrackPointExtension>
        </extensions>
      </trkpt>
      <trkpt lat="35.878927" lon="115.115904">
        <ele>39.7</ele>
        <time>2022-08-22T10:45:40Z</time>
        <extensions>
          <gpxtpx:TrackPointExtension></gpxtpx:TrackPointExtension>
        </extensions>
      </trkpt>
      <trkpt lat="35.878914" lon="115.11603">
        <ele>39.82</ele>
        <time>2022-08-22T10:45:45Z</time>
        <extensions>
          <gpxtpx:TrackPointExtension></gpxtpx:TrackPointExtension>
        </extensions>
      </trkpt>
      <trkpt lat="35.878902" lon="115.116161">
        <ele>39.75</ele>
        <time>2022-08-22T10:45:50Z</time>
        <extensions>
          <gpxtpx:TrackPointExtension></gpxtpx:TrackPointExtension>
        </extensions>
      </trkpt>
      <trkpt lat="35.878889" lon="115.116298">
        <ele>40.1</ele>
        <time>2022-08-22T10:45:55Z</time>
        <extensions>
          <gpxtpx:TrackPointExtension></gpxtpx:TrackPointExtension>
        </extensions>
      </trkpt>
      <trkpt lat="35.8789" lon="115.116427">
        <ele>39.76</ele>
        <time>2022-08-22T10:46:00Z</time>
        <extensions>
          <gpxtpx:TrackPointExtension></gpxtpx:TrackPointExtension>
        </extensions>
      </trkpt>
      <trkpt lat="35.878881" lon="115.116553">
        <ele>39.89</ele>
        <time>2022-08-22T10:46:05Z</time>
        <extensions>
          <gpxtpx:TrackPointExtension></gpxtpx:TrackPointExtension>
        </extensions>
      </trkpt>
      <trkpt lat="35.878854" lon="115.116692">
        <ele>39.87</ele>
        <time>2022-08-22T10:46:10Z</time>
        <extensions>
          <gpxtpx:TrackPointExtension></gpxtpx:TrackPointExtension>
        </extensions>
      </trkpt>
      <trkpt lat="35.878833" lon="115.116828">
        <ele>39.84</ele>
        <time>2022-08-22T10:46:15Z</time>
        <extensions>
          <gpxtpx:TrackPointExtension></gpxtpx:TrackPointExtension>
        </extensions>
      </trkpt>
      <trkpt lat="35.87882" lon="115.116964">
        <ele>39.91</ele>
        <time>2022-08-22T10:46:20Z</time>
        <extensions>
          <gpxtpx:TrackPointExtension></gpxtpx:TrackPointExtension>
        </extensions>
      </trkpt>
      <trkpt lat="35.878799" lon="115.117099">
        <ele>40.11</ele>
        <time>2022-08-22T10:46:25Z</time>
        <extensions>
          <gpxtpx:TrackPointExtension></gpxtpx:TrackPointExtension>
        </extensions>
      </trkpt>
      <trkpt lat="35.878782" lon="115.117231">
        <ele>39.84</ele>
        <time>2022-08-22T10:46:30Z</time>
        <extensions>
          <gpxtpx:TrackPointExtension></gpxtpx:TrackPointExtension>
        </extensions>
      </trkpt>
      <trkpt lat="35.878853" lon="115.117325">
        <ele>39.75</ele>
        <time>2022-08-22T10:46:35Z</time>
        <extensions>
          <gpxtpx:TrackPointExtension></gpxtpx:TrackPointExtension>
        </extensions>
      </trkpt>
      <trkpt lat="35.878956" lon="115.117343">
        <ele>39.46</ele>
        <time>2022-08-22T10:46:40Z</time>
        <extensions>
          <gpxtpx:TrackPointExtension></gpxtpx:TrackPointExtension>
        </extensions>
      </trkpt>
      <trkpt lat="35.879044" lon="115.117358">
        <ele>39.71</ele>
        <time>2022-08-22T10:46:45Z</time>
        <extensions>
          <gpxtpx:TrackPointExtension></gpxtpx:TrackPointExtension>
        </extensions>
      </trkpt>
      <trkpt lat="35.879146" lon="115.117377">
        <ele>39.53</ele>
        <time>2022-08-22T10:46:50Z</time>
        <extensions>
          <gpxtpx:TrackPointExtension></gpxtpx:TrackPointExtension>
        </extensions>
      </trkpt>
      <trkpt lat="35.879257" lon="115.117408">
        <ele>39.61</ele>
        <time>2022-08-22T10:46:55Z</time>
        <extensions>
          <gpxtpx:TrackPointExtension></gpxtpx:TrackPointExtension>
        </extensions>
      </trkpt>
      <trkpt lat="35.879377" lon="115.117432">
        <ele>39.52</ele>
        <time>2022-08-22T10:47:00Z</time>
        <extensions>
          <gpxtpx:TrackPointExtension></gpxtpx:TrackPointExtension>
        </extensions>
      </trkpt>
      <trkpt lat="35.879502" lon="115.117449">
        <ele>39.68</ele>
        <time>2022-08-22T10:47:05Z</time>
        <extensions>
          <gpxtpx:TrackPointExtension></gpxtpx:TrackPointExtension>
        </extensions>
      </trkpt>
      <trkpt lat="35.879646" lon="115.117501">
        <ele>39.74</ele>
        <time>2022-08-22T10:47:10Z</time>
        <extensions>
          <gpxtpx:TrackPointExtension></gpxtpx:TrackPointExtension>
        </extensions>
      </trkpt>
      <trkpt lat="35.879767" lon="115.117537">
        <ele>39.43</ele>
        <time>2022-08-22T10:47:15Z</time>
        <extensions>
          <gpxtpx:TrackPointExtension></gpxtpx:TrackPointExtension>
        </extensions>
      </trkpt>
      <trkpt lat="35.879869" lon="115.117552">
        <ele>39.48</ele>
        <time>2022-08-22T10:47:20Z</time>
        <extensions>
          <gpxtpx:TrackPointExtension></gpxtpx:TrackPointExtension>
        </extensions>
      </trkpt>
      <trkpt lat="35.879947" lon="115.117546">
        <ele>39.54</ele>
        <time>2022-08-22T10:47:25Z</time>
        <extensions>
          <gpxtpx:TrackPointExtension></gpxtpx:TrackPointExtension>
        </extensions>
      </trkpt>
      <trkpt lat="35.880053" lon="115.11757">
        <ele>39.63</ele>
        <time>2022-08-22T10:47:30Z</time>
        <extensions>
          <gpxtpx:TrackPointExtension></gpxtpx:TrackPointExtension>
        </extensions>
      </trkpt>
      <trkpt lat="35.880159" lon="115.117564">
        <ele>39.55</ele>
        <time>2022-08-22T10:47:35Z</time>
        <extensions>
          <gpxtpx:TrackPointExtension></gpxtpx:TrackPointExtension>
        </extensions>
      </trkpt>
      <trkpt lat="35.880295" lon="115.1176">
        <ele>39.6</ele>
        <time>2022-08-22T10:47:40Z</time>
        <extensions>
          <gpxtpx:TrackPointExtension></gpxtpx:TrackPointExtension>
        </extensions>
      </trkpt>
      <trkpt lat="35.880435" lon="115.117637">
        <ele>39.6</ele>
        <time>2022-08-22T10:47:45Z</time>
        <extensions>
          <gpxtpx:TrackPointExtension></gpxtpx:TrackPointExtension>
        </extensions>
      </trkpt>
      <trkpt lat="35.880555" lon="115.117671">
        <ele>39.29</ele>
        <time>2022-08-22T10:47:50Z</time>
        <extensions>
          <gpxtpx:TrackPointExtension></gpxtpx:TrackPointExtension>
        </extensions>
      </trkpt>
      <trkpt lat="35.880685" lon="115.117706">
        <ele>39.81</ele>
        <time>2022-08-22T10:47:55Z</time>
        <extensions>
          <gpxtpx:TrackPointExtension></gpxtpx:TrackPointExtension>
        </extensions>
      </trkpt>
      <trkpt lat="35.880787" lon="115.117736">
        <ele>39.57</ele>
        <time>2022-08-22T10:48:00Z</time>
        <extensions>
          <gpxtpx:TrackPointExtension></gpxtpx:TrackPointExtension>
        </extensions>
      </trkpt>
      <trkpt lat="35.880935" lon="115.117768">
        <ele>39.75</ele>
        <time>2022-08-22T10:48:05Z</time>
        <extensions>
          <gpxtpx:TrackPointExtension></gpxtpx:TrackPointExtension>
        </extensions>
      </trkpt>
      <trkpt lat="35.881054" lon="115.117807">
        <ele>39.63</ele>
        <time>2022-08-22T10:48:10Z</time>
        <extensions>
          <gpxtpx:TrackPointExtension></gpxtpx:TrackPointExtension>
        </extensions>
      </trkpt>
      <trkpt lat="35.881179" lon="115.117838">
        <ele>39.57</ele>
        <time>2022-08-22T10:48:15Z</time>
        <extensions>
          <gpxtpx:TrackPointExtension></gpxtpx:TrackPointExtension>
        </extensions>
      </trkpt>
      <trkpt lat="35.881307" lon="115.117894">
        <ele>39.69</ele>
        <time>2022-08-22T10:48:20Z</time>
        <extensions>
          <gpxtpx:TrackPointExtension></gpxtpx:TrackPointExtension>
        </extensions>
      </trkpt>
      <trkpt lat="35.881449" lon="115.117891">
        <ele>39.52</ele>
        <time>2022-08-22T10:48:25Z</time>
        <extensions>
          <gpxtpx:TrackPointExtension></gpxtpx:TrackPointExtension>
        </extensions>
      </trkpt>
      <trkpt lat="35.881559" lon="115.117911">
        <ele>39.51</ele>
        <time>2022-08-22T10:48:30Z</time>
        <extensions>
          <gpxtpx:TrackPointExtension></gpxtpx:TrackPointExtension>
        </extensions>
      </trkpt>
      <trkpt lat="35.88166" lon="115.117934">
        <ele>39.46</ele>
        <time>2022-08-22T10:48:35Z</time>
        <extensions>
          <gpxtpx:TrackPointExtension></gpxtpx:TrackPointExtension>
        </extensions>
      </trkpt>
      <trkpt lat="35.88178" lon="115.11796">
        <ele>39.36</ele>
        <time>2022-08-22T10:48:40Z</time>
        <extensions>
          <gpxtpx:TrackPointExtension></gpxtpx:TrackPointExtension>
        </extensions>
      </trkpt>
      <trkpt lat="35.881907" lon="115.117917">
        <ele>39.37</ele>
        <time>2022-08-22T10:48:45Z</time>
        <extensions>
          <gpxtpx:TrackPointExtension></gpxtpx:TrackPointExtension>
        </extensions>
      </trkpt>
      <trkpt lat="35.882009" lon="115.117799">
        <ele>39.63</ele>
        <time>2022-08-22T10:48:50Z</time>
        <extensions>
          <gpxtpx:TrackPointExtension></gpxtpx:TrackPointExtension>
        </extensions>
      </trkpt>
      <trkpt lat="35.882092" lon="115.117688">
        <ele>39.63</ele>
        <time>2022-08-22T10:48:55Z</time>
        <extensions>
          <gpxtpx:TrackPointExtension></gpxtpx:TrackPointExtension>
        </extensions>
      </trkpt>
      <trkpt lat="35.882097" lon="115.117525">
        <ele>39.58</ele>
        <time>2022-08-22T10:49:00Z</time>
        <extensions>
          <gpxtpx:TrackPointExtension></gpxtpx:TrackPointExtension>
        </extensions>
      </trkpt>
      <trkpt lat="35.882097" lon="115.117525">
        <ele>39.58</ele>
        <time>2022-08-22T10:49:05Z</time>
        <extensions>
          <gpxtpx:TrackPointExtension></gpxtpx:TrackPointExtension>
        </extensions>
      </trkpt>
    </trkseg>
    <trkseg>
      <trkpt lat="35.882209" lon="115.116386">
        <ele>37.78</ele>
        <time>2022-08-22T10:57:48Z</time>
        <extensions>
          <gpxtpx:TrackPointExtension></gpxtpx:TrackPointExtension>
        </extensions>
      </trkpt>
      <trkpt lat="35.882217" lon="115.116311">
        <ele>37.67</ele>
        <time>2022-08-22T10:57:53Z</time>
        <extensions>
          <gpxtpx:TrackPointExtension></gpxtpx:TrackPointExtension>
        </extensions>
      </trkpt>
      <trkpt lat="35.882218" lon="115.116148">
        <ele>37.67</ele>
        <time>2022-08-22T10:57:58Z</time>
        <extensions>
          <gpxtpx:TrackPointExtension></gpxtpx:TrackPointExtension>
        </extensions>
      </trkpt>
      <trkpt lat="35.882259" lon="115.115983">
        <ele>37.77</ele>
        <time>2022-08-22T10:58:03Z</time>
        <extensions>
          <gpxtpx:TrackPointExtension></gpxtpx:TrackPointExtension>
        </extensions>
      </trkpt>
      <trkpt lat="35.882279" lon="115.115842">
        <ele>37.56</ele>
        <time>2022-08-22T10:58:08Z</time>
        <extensions>
          <gpxtpx:TrackPointExtension></gpxtpx:TrackPointExtension>
        </extensions>
      </trkpt>
      <trkpt lat="35.882289" lon="115.115684">
        <ele>37.35</ele>
        <time>2022-08-22T10:58:13Z</time>
        <extensions>
          <gpxtpx:TrackPointExtension></gpxtpx:TrackPointExtension>
        </extensions>
      </trkpt>
      <trkpt lat="35.882339" lon="115.115559">
        <ele>37.21</ele>
        <time>2022-08-22T10:58:18Z</time>
        <extensions>
          <gpxtpx:TrackPointExtension></gpxtpx:TrackPointExtension>
        </extensions>
      </trkpt>
      <trkpt lat="35.88239" lon="115.115433">
        <ele>37.48</ele>
        <time>2022-08-22T10:58:23Z</time>
        <extensions>
          <gpxtpx:TrackPointExtension></gpxtpx:TrackPointExtension>
        </extensions>
      </trkpt>
      <trkpt lat="35.88242" lon="115.115292">
        <ele>37.36</ele>
        <time>2022-08-22T10:58:28Z</time>
        <extensions>
          <gpxtpx:TrackPointExtension></gpxtpx:TrackPointExtension>
        </extensions>
      </trkpt>
      <trkpt lat="35.882438" lon="115.115132">
        <ele>37.45</ele>
        <time>2022-08-22T10:58:33Z</time>
        <extensions>
          <gpxtpx:TrackPointExtension></gpxtpx:TrackPointExtension>
        </extensions>
      </trkpt>
      <trkpt lat="35.882459" lon="115.114982">
        <ele>37.66</ele>
        <time>2022-08-22T10:58:38Z</time>
        <extensions>
          <gpxtpx:TrackPointExtension></gpxtpx:TrackPointExtension>
        </extensions>
      </trkpt>
      <trkpt lat="35.882473" lon="115.114804">
        <ele>37.11</ele>
        <time>2022-08-22T10:58:43Z</time>
        <extensions>
          <gpxtpx:TrackPointExtension></gpxtpx:TrackPointExtension>
        </extensions>
      </trkpt>
      <trkpt lat="35.882487" lon="115.114618">
        <ele>37.33</ele>
        <time>2022-08-22T10:58:48Z</time>
        <extensions>
          <gpxtpx:TrackPointExtension></gpxtpx:TrackPointExtension>
        </extensions>
      </trkpt>
      <trkpt lat="35.882504" lon="115.114444">
        <ele>37.51</ele>
        <time>2022-08-22T10:58:53Z</time>
        <extensions>
          <gpxtpx:TrackPointExtension></gpxtpx:TrackPointExtension>
        </extensions>
      </trkpt>
      <trkpt lat="35.882531" lon="115.114298">
        <ele>37.33</ele>
        <time>2022-08-22T10:58:58Z</time>
        <extensions>
          <gpxtpx:TrackPointExtension></gpxtpx:TrackPointExtension>
        </extensions>
      </trkpt>
      <trkpt lat="35.882559" lon="115.114136">
        <ele>37.58</ele>
        <time>2022-08-22T10:59:03Z</time>
        <extensions>
          <gpxtpx:TrackPointExtension></gpxtpx:TrackPointExtension>
        </extensions>
      </trkpt>
      <trkpt lat="35.882583" lon="115.113963">
        <ele>37.44</ele>
        <time>2022-08-22T10:59:08Z</time>
        <extensions>
          <gpxtpx:TrackPointExtension></gpxtpx:TrackPointExtension>
        </extensions>
      </trkpt>
      <trkpt lat="35.882602" lon="115.113812">
        <ele>37.29</ele>
        <time>2022-08-22T10:59:13Z</time>
        <extensions>
          <gpxtpx:TrackPointExtension></gpxtpx:TrackPointExtension>
        </extensions>
      </trkpt>
      <trkpt lat="35.882627" lon="115.113663">
        <ele>37.15</ele>
        <time>2022-08-22T10:59:18Z</time>
        <extensions>
          <gpxtpx:TrackPointExtension></gpxtpx:TrackPointExtension>
        </extensions>
      </trkpt>
      <trkpt lat="35.882653" lon="115.113502">
        <ele>37.15</ele>
        <time>2022-08-22T10:59:23Z</time>
        <extensions>
          <gpxtpx:TrackPointExtension></gpxtpx:TrackPointExtension>
        </extensions>
      </trkpt>
      <trkpt lat="35.882681" lon="115.113326">
        <ele>36.86</ele>
        <time>2022-08-22T10:59:28Z</time>
        <extensions>
          <gpxtpx:TrackPointExtension></gpxtpx:TrackPointExtension>
        </extensions>
      </trkpt>
      <trkpt lat="35.882679" lon="115.113162">
        <ele>36.95</ele>
        <time>2022-08-22T10:59:33Z</time>
        <extensions>
          <gpxtpx:TrackPointExtension></gpxtpx:TrackPointExtension>
        </extensions>
      </trkpt>
      <trkpt lat="35.882702" lon="115.11302">
        <ele>36.75</ele>
        <time>2022-08-22T10:59:38Z</time>
        <extensions>
          <gpxtpx:TrackPointExtension></gpxtpx:TrackPointExtension>
        </extensions>
      </trkpt>
      <trkpt lat="35.882714" lon="115.112852">
        <ele>36.75</ele>
        <time>2022-08-22T10:59:43Z</time>
        <extensions>
          <gpxtpx:TrackPointExtension></gpxtpx:TrackPointExtension>
        </extensions>
      </trkpt>
      <trkpt lat="35.882731" lon="115.112681">
        <ele>36.9</ele>
        <time>2022-08-22T10:59:48Z</time>
        <extensions>
          <gpxtpx:TrackPointExtension></gpxtpx:TrackPointExtension>
        </extensions>
      </trkpt>
      <trkpt lat="35.882765" lon="115.112555">
        <ele>36.63</ele>
        <time>2022-08-22T10:59:53Z</time>
        <extensions>
          <gpxtpx:TrackPointExtension></gpxtpx:TrackPointExtension>
        </extensions>
      </trkpt>
      <trkpt lat="35.882784" lon="115.112391">
        <ele>36.77</ele>
        <time>2022-08-22T10:59:58Z</time>
        <extensions>
          <gpxtpx:TrackPointExtension></gpxtpx:TrackPointExtension>
        </extensions>
      </trkpt>
      <trkpt lat="35.882809" lon="115.112242">
        <ele>36.81</ele>
        <time>2022-08-22T11:00:03Z</time>
        <extensions>
          <gpxtpx:TrackPointExtension></gpxtpx:TrackPointExtension>
        </extensions>
      </trkpt>
      <trkpt lat="35.882849" lon="115.11208">
        <ele>36.76</ele>
        <time>2022-08-22T11:00:08Z</time>
        <extensions>
          <gpxtpx:TrackPointExtension></gpxtpx:TrackPointExtension>
        </extensions>
      </trkpt>
      <trkpt lat="35.882859" lon="115.111919">
        <ele>36.74</ele>
        <time>2022-08-22T11:00:13Z</time>
        <extensions>
          <gpxtpx:TrackPointExtension></gpxtpx:TrackPointExtension>
        </extensions>
      </trkpt>
      <trkpt lat="35.882876" lon="115.111733">
        <ele>36.62</ele>
        <time>2022-08-22T11:00:18Z</time>
        <extensions>
          <gpxtpx:TrackPointExtension></gpxtpx:TrackPointExtension>
        </extensions>
      </trkpt>
      <trkpt lat="35.882895" lon="115.111568">
        <ele>36.63</ele>
        <time>2022-08-22T11:00:23Z</time>
        <extensions>
          <gpxtpx:TrackPointExtension></gpxtpx:TrackPointExtension>
        </extensions>
      </trkpt>
      <trkpt lat="35.882924" lon="115.111395">
        <ele>36.66</ele>
        <time>2022-08-22T11:00:28Z</time>
        <extensions>
          <gpxtpx:TrackPointExtension></gpxtpx:TrackPointExtension>
        </extensions>
      </trkpt>
      <trkpt lat="35.882943" lon="115.111224">
        <ele>36.52</ele>
        <time>2022-08-22T11:00:33Z</time>
        <extensions>
          <gpxtpx:TrackPointExtension></gpxtpx:TrackPointExtension>
        </extensions>
      </trkpt>
      <trkpt lat="35.882973" lon="115.111093">
        <ele>36.01</ele>
        <time>2022-08-22T11:00:38Z</time>
        <extensions>
          <gpxtpx:TrackPointExtension></gpxtpx:TrackPointExtension>
        </extensions>
      </trkpt>
      <trkpt lat="35.882993" lon="115.110957">
        <ele>36.28</ele>
        <time>2022-08-22T11:00:43Z</time>
        <extensions>
          <gpxtpx:TrackPointExtension></gpxtpx:TrackPointExtension>
        </extensions>
      </trkpt>
      <trkpt lat="35.882993" lon="115.110801">
        <ele>36.56</ele>
        <time>2022-08-22T11:00:48Z</time>
        <extensions>
          <gpxtpx:TrackPointExtension></gpxtpx:TrackPointExtension>
        </extensions>
      </trkpt>
      <trkpt lat="35.883019" lon="115.110638">
        <ele>36.38</ele>
        <time>2022-08-22T11:00:53Z</time>
        <extensions>
          <gpxtpx:TrackPointExtension></gpxtpx:TrackPointExtension>
        </extensions>
      </trkpt>
      <trkpt lat="35.883037" lon="115.110487">
        <ele>36.22</ele>
        <time>2022-08-22T11:00:58Z</time>
        <extensions>
          <gpxtpx:TrackPointExtension></gpxtpx:TrackPointExtension>
        </extensions>
      </trkpt>
      <trkpt lat="35.883057" lon="115.110349">
        <ele>36.01</ele>
        <time>2022-08-22T11:01:03Z</time>
        <extensions>
          <gpxtpx:TrackPointExtension></gpxtpx:TrackPointExtension>
        </extensions>
      </trkpt>
      <trkpt lat="35.883077" lon="115.110208">
        <ele>36</ele>
        <time>2022-08-22T11:01:08Z</time>
        <extensions>
          <gpxtpx:TrackPointExtension></gpxtpx:TrackPointExtension>
        </extensions>
      </trkpt>
      <trkpt lat="35.883077" lon="115.110208">
        <ele>36</ele>
        <time>2022-08-22T11:01:26Z</time>
        <extensions>
          <gpxtpx:TrackPointExtension></gpxtpx:TrackPointExtension>
        </extensions>
      </trkpt>
    </trkseg>
  </trk>
</gpx>