<?xml version="1.0" encoding="UTF-8"?>
<gpx xmlns="http://www.topografix.com/GPX/1/1" xmlns:gpxtpx="http://www.garmin.com/xmlschemas/TrackPointExtension/v1" xmlns:xsi="http://www.w3.org/2001/XMLSchema-instance" xsi:schemaLocation="http://www.topografix.com/GPX/1/1 http://www.topografix.com/GPX/1/1/gpx.xsd" version="1.1" creator="gpx.py -- https://github.com/tkrajina/gpxpy">
  <trk>
    <name>gpx from joyrun 1661259703</name>
    <trkseg>
      <trkpt lat="35.884538" lon="115.112739">
        <ele>42.38</ele>
        <time>2022-08-23T13:01:43Z</time>
        <extensions>
          <gpxtpx:TrackPointExtension></gpxtpx:TrackPointExtension>
        </extensions>
      </trkpt>
      <trkpt lat="35.884407" lon="115.112779">
        <ele>42.15</ele>
        <time>2022-08-23T13:01:48Z</time>
        <extensions>
          <gpxtpx:TrackPointExtension></gpxtpx:TrackPointExtension>
        </extensions>
      </trkpt>
      <trkpt lat="35.884248" lon="115.112777">
        <ele>42.13</ele>
        <time>2022-08-23T13:01:53Z</time>
        <extensions>
          <gpxtpx:TrackPointExtension></gpxtpx:TrackPointExtension>
        </extensions>
      </trkpt>
      <trkpt lat="35.884096" lon="115.112739">
        <ele>41.74</ele>
        <time>2022-08-23T13:01:58Z</time>
        <extensions>
          <gpxtpx:TrackPointExtension></gpxtpx:TrackPointExtension>
        </extensions>
      </trkpt>
      <trkpt lat="35.883913" lon="115.112688">
        <ele>41.81</ele>
        <time>2022-08-23T13:02:03Z</time>
        <extensions>
          <gpxtpx:TrackPointExtension></gpxtpx:TrackPointExtension>
        </extensions>
      </trkpt>
      <trkpt lat="35.883727" lon="115.112664">
        <ele>42.03</ele>
        <time>2022-08-23T13:02:08Z</time>
        <extensions>
          <gpxtpx:TrackPointExtension></gpxtpx:TrackPointExtension>
        </extensions>
      </trkpt>
      <trkpt lat="35.883543" lon="115.112665">
        <ele>41.87</ele>
        <time>2022-08-23T13:02:13Z</time>
        <extensions>
          <gpxtpx:TrackPointExtension></gpxtpx:TrackPointExtension>
        </extensions>
      </trkpt>
      <trkpt lat="35.883367" lon="115.112624">
        <ele>41.85</ele>
        <time>2022-08-23T13:02:18Z</time>
        <extensions>
          <gpxtpx:TrackPointExtension></gpxtpx:TrackPointExtension>
        </extensions>
      </trkpt>
      <trkpt lat="35.883199" lon="115.112595">
        <ele>42.21</ele>
        <time>2022-08-23T13:02:23Z</time>
        <extensions>
          <gpxtpx:TrackPointExtension></gpxtpx:TrackPointExtension>
        </extensions>
      </trkpt>
      <trkpt lat="35.883021" lon="115.112585">
        <ele>42.21</ele>
        <time>2022-08-23T13:02:28Z</time>
        <extensions>
          <gpxtpx:TrackPointExtension></gpxtpx:TrackPointExtension>
        </extensions>
      </trkpt>
      <trkpt lat="35.882859" lon="115.112577">
        <ele>41.84</ele>
        <time>2022-08-23T13:02:33Z</time>
        <extensions>
          <gpxtpx:TrackPointExtension></gpxtpx:TrackPointExtension>
        </extensions>
      </trkpt>
      <trkpt lat="35.882699" lon="115.112561">
        <ele>41.91</ele>
        <time>2022-08-23T13:02:38Z</time>
        <extensions>
          <gpxtpx:TrackPointExtension></gpxtpx:TrackPointExtension>
        </extensions>
      </trkpt>
      <trkpt lat="35.882547" lon="115.112528">
        <ele>42.21</ele>
        <time>2022-08-23T13:02:43Z</time>
        <extensions>
          <gpxtpx:TrackPointExtension></gpxtpx:TrackPointExtension>
        </extensions>
      </trkpt>
      <trkpt lat="35.882376" lon="115.112504">
        <ele>42.14</ele>
        <time>2022-08-23T13:02:48Z</time>
        <extensions>
          <gpxtpx:TrackPointExtension></gpxtpx:TrackPointExtension>
        </extensions>
      </trkpt>
      <trkpt lat="35.882196" lon="115.112458">
        <ele>42.13</ele>
        <time>2022-08-23T13:02:53Z</time>
        <extensions>
          <gpxtpx:TrackPointExtension></gpxtpx:TrackPointExtension>
        </extensions>
      </trkpt>
      <trkpt lat="35.88203" lon="115.112407">
        <ele>42.09</ele>
        <time>2022-08-23T13:02:58Z</time>
        <extensions>
          <gpxtpx:TrackPointExtension></gpxtpx:TrackPointExtension>
        </extensions>
      </trkpt>
      <trkpt lat="35.881861" lon="115.11237">
        <ele>42.18</ele>
        <time>2022-08-23T13:03:03Z</time>
        <extensions>
          <gpxtpx:TrackPointExtension></gpxtpx:TrackPointExtension>
        </extensions>
      </trkpt>
      <trkpt lat="35.881678" lon="115.11235">
        <ele>42.23</ele>
        <time>2022-08-23T13:03:08Z</time>
        <extensions>
          <gpxtpx:TrackPointExtension></gpxtpx:TrackPointExtension>
        </extensions>
      </trkpt>
      <trkpt lat="35.881521" lon="115.112318">
        <ele>42.07</ele>
        <time>2022-08-23T13:03:13Z</time>
        <extensions>
          <gpxtpx:TrackPointExtension></gpxtpx:TrackPointExtension>
        </extensions>
      </trkpt>
      <trkpt lat="35.881365" lon="115.112284">
        <ele>42.4</ele>
        <time>2022-08-23T13:03:18Z</time>
        <extensions>
          <gpxtpx:TrackPointExtension></gpxtpx:TrackPointExtension>
        </extensions>
      </trkpt>
      <trkpt lat="35.881189" lon="115.112252">
        <ele>42</ele>
        <time>2022-08-23T13:03:23Z</time>
        <extensions>
          <gpxtpx:TrackPointExtension></gpxtpx:TrackPointExtension>
        </extensions>
      </trkpt>
      <trkpt lat="35.881016" lon="115.112211">
        <ele>42.44</ele>
        <time>2022-08-23T13:03:28Z</time>
        <extensions>
          <gpxtpx:TrackPointExtension></gpxtpx:TrackPointExtension>
        </extensions>
      </trkpt>
      <trkpt lat="35.880829" lon="115.112171">
        <ele>41.99</ele>
        <time>2022-08-23T13:03:33Z</time>
        <extensions>
          <gpxtpx:TrackPointExtension></gpxtpx:TrackPointExtension>
        </extensions>
      </trkpt>
      <trkpt lat="35.880654" lon="115.112155">
        <ele>42.08</ele>
        <time>2022-08-23T13:03:38Z</time>
        <extensions>
          <gpxtpx:TrackPointExtension></gpxtpx:TrackPointExtension>
        </extensions>
      </trkpt>
      <trkpt lat="35.880498" lon="115.112127">
        <ele>41.94</ele>
        <time>2022-08-23T13:03:43Z</time>
        <extensions>
          <gpxtpx:TrackPointExtension></gpxtpx:TrackPointExtension>
        </extensions>
      </trkpt>
      <trkpt lat="35.880332" lon="115.112101">
        <ele>42.16</ele>
        <time>2022-08-23T13:03:48Z</time>
        <extensions>
          <gpxtpx:TrackPointExtension></gpxtpx:TrackPointExtension>
        </extensions>
      </trkpt>
      <trkpt lat="35.88018" lon="115.112065">
        <ele>41.93</ele>
        <time>2022-08-23T13:03:53Z</time>
        <extensions>
          <gpxtpx:TrackPointExtension></gpxtpx:TrackPointExtension>
        </extensions>
      </trkpt>
      <trkpt lat="35.880018" lon="115.112025">
        <ele>42.09</ele>
        <time>2022-08-23T13:03:58Z</time>
        <extensions>
          <gpxtpx:TrackPointExtension></gpxtpx:TrackPointExtension>
        </extensions>
      </trkpt>
      <trkpt lat="35.87983" lon="115.112013">
        <ele>41.93</ele>
        <time>2022-08-23T13:04:03Z</time>
        <extensions>
          <gpxtpx:TrackPointExtension></gpxtpx:TrackPointExtension>
        </extensions>
      </trkpt>
      <trkpt lat="35.879683" lon="115.112007">
        <ele>41.94</ele>
        <time>2022-08-23T13:04:08Z</time>
        <extensions>
          <gpxtpx:TrackPointExtension></gpxtpx:TrackPointExtension>
        </extensions>
      </trkpt>
      <trkpt lat="35.87953" lon="115.111937">
        <ele>42.1</ele>
        <time>2022-08-23T13:04:13Z</time>
        <extensions>
          <gpxtpx:TrackPointExtension></gpxtpx:TrackPointExtension>
        </extensions>
      </trkpt>
      <trkpt lat="35.879451" lon="115.111732">
        <ele>42.26</ele>
        <time>2022-08-23T13:04:18Z</time>
        <extensions>
          <gpxtpx:TrackPointExtension></gpxtpx:TrackPointExtension>
        </extensions>
      </trkpt>
      <trkpt lat="35.879478" lon="115.111488">
        <ele>42.41</ele>
        <time>2022-08-23T13:04:23Z</time>
        <extensions>
          <gpxtpx:TrackPointExtension></gpxtpx:TrackPointExtension>
        </extensions>
      </trkpt>
      <trkpt lat="35.879515" lon="115.111292">
        <ele>42.47</ele>
        <time>2022-08-23T13:04:28Z</time>
        <extensions>
          <gpxtpx:TrackPointExtension></gpxtpx:TrackPointExtension>
        </extensions>
      </trkpt>
      <trkpt lat="35.879552" lon="115.111083">
        <ele>42.26</ele>
        <time>2022-08-23T13:04:33Z</time>
        <extensions>
          <gpxtpx:TrackPointExtension></gpxtpx:TrackPointExtension>
        </extensions>
      </trkpt>
      <trkpt lat="35.879583" lon="115.110863">
        <ele>42.39</ele>
        <time>2022-08-23T13:04:38Z</time>
        <extensions>
          <gpxtpx:TrackPointExtension></gpxtpx:TrackPointExtension>
        </extensions>
      </trkpt>
      <trkpt lat="35.879608" lon="115.11066">
        <ele>42.2</ele>
        <time>2022-08-23T13:04:43Z</time>
        <extensions>
          <gpxtpx:TrackPointExtension></gpxtpx:TrackPointExtension>
        </extensions>
      </trkpt>
      <trkpt lat="35.879641" lon="115.110463">
        <ele>42.09</ele>
        <time>2022-08-23T13:04:48Z</time>
        <extensions>
          <gpxtpx:TrackPointExtension></gpxtpx:TrackPointExtension>
        </extensions>
      </trkpt>
      <trkpt lat="35.879676" lon="115.110263">
        <ele>42.03</ele>
        <time>2022-08-23T13:04:53Z</time>
        <extensions>
          <gpxtpx:TrackPointExtension></gpxtpx:TrackPointExtension>
        </extensions>
      </trkpt>
      <trkpt lat="35.879692" lon="115.110066">
        <ele>42.48</ele>
        <time>2022-08-23T13:04:58Z</time>
        <extensions>
          <gpxtpx:TrackPointExtension></gpxtpx:TrackPointExtension>
        </extensions>
      </trkpt>
      <trkpt lat="35.879721" lon="115.109862">
        <ele>42.27</ele>
        <time>2022-08-23T13:05:03Z</time>
        <extensions>
          <gpxtpx:TrackPointExtension></gpxtpx:TrackPointExtension>
        </extensions>
      </trkpt>
      <trkpt lat="35.879754" lon="115.109665">
        <ele>42.45</ele>
        <time>2022-08-23T13:05:08Z</time>
        <extensions>
          <gpxtpx:TrackPointExtension></gpxtpx:TrackPointExtension>
        </extensions>
      </trkpt>
      <trkpt lat="35.879783" lon="115.109482">
        <ele>42.31</ele>
        <time>2022-08-23T13:05:13Z</time>
        <extensions>
          <gpxtpx:TrackPointExtension></gpxtpx:TrackPointExtension>
        </extensions>
      </trkpt>
      <trkpt lat="35.879796" lon="115.109289">
        <ele>42.36</ele>
        <time>2022-08-23T13:05:18Z</time>
        <extensions>
          <gpxtpx:TrackPointExtension></gpxtpx:TrackPointExtension>
        </extensions>
      </trkpt>
      <trkpt lat="35.879807" lon="115.109117">
        <ele>42.34</ele>
        <time>2022-08-23T13:05:23Z</time>
        <extensions>
          <gpxtpx:TrackPointExtension></gpxtpx:TrackPointExtension>
        </extensions>
      </trkpt>
      <trkpt lat="35.879834" lon="115.108935">
        <ele>42.47</ele>
        <time>2022-08-23T13:05:28Z</time>
        <extensions>
          <gpxtpx:TrackPointExtension></gpxtpx:TrackPointExtension>
        </extensions>
      </trkpt>
      <trkpt lat="35.87991" lon="115.108805">
        <ele>42.48</ele>
        <time>2022-08-23T13:05:33Z</time>
        <extensions>
          <gpxtpx:TrackPointExtension></gpxtpx:TrackPointExtension>
        </extensions>
      </trkpt>
      <trkpt lat="35.879911" lon="115.108659">
        <ele>42.55</ele>
        <time>2022-08-23T13:05:38Z</time>
        <extensions>
          <gpxtpx:TrackPointExtension></gpxtpx:TrackPointExtension>
        </extensions>
      </trkpt>
      <trkpt lat="35.879922" lon="115.108456">
        <ele>42.52</ele>
        <time>2022-08-23T13:05:43Z</time>
        <extensions>
          <gpxtpx:TrackPointExtension></gpxtpx:TrackPointExtension>
        </extensions>
      </trkpt>
      <trkpt lat="35.879938" lon="115.10823">
        <ele>42.39</ele>
        <time>2022-08-23T13:05:48Z</time>
        <extensions>
          <gpxtpx:TrackPointExtension></gpxtpx:TrackPointExtension>
        </extensions>
      </trkpt>
      <trkpt lat="35.879966" lon="115.108033">
        <ele>42.29</ele>
        <time>2022-08-23T13:05:53Z</time>
        <extensions>
          <gpxtpx:TrackPointExtension></gpxtpx:TrackPointExtension>
        </extensions>
      </trkpt>
      <trkpt lat="35.87999" lon="115.107832">
        <ele>42.3</ele>
        <time>2022-08-23T13:05:58Z</time>
        <extensions>
          <gpxtpx:TrackPointExtension></gpxtpx:TrackPointExtension>
        </extensions>
      </trkpt>
      <trkpt lat="35.880008" lon="115.107648">
        <ele>42.32</ele>
        <time>2022-08-23T13:06:03Z</time>
        <extensions>
          <gpxtpx:TrackPointExtension></gpxtpx:TrackPointExtension>
        </extensions>
      </trkpt>
      <trkpt lat="35.880041" lon="115.107511">
        <ele>42.55</ele>
        <time>2022-08-23T13:06:08Z</time>
        <extensions>
          <gpxtpx:TrackPointExtension></gpxtpx:TrackPointExtension>
        </extensions>
      </trkpt>
      <trkpt lat="35.88005" lon="115.107266">
        <ele>42.58</ele>
        <time>2022-08-23T13:06:13Z</time>
        <extensions>
          <gpxtpx:TrackPointExtension></gpxtpx:TrackPointExtension>
        </extensions>
      </trkpt>
      <trkpt lat="35.880076" lon="115.107097">
        <ele>42.71</ele>
        <time>2022-08-23T13:06:18Z</time>
        <extensions>
          <gpxtpx:TrackPointExtension></gpxtpx:TrackPointExtension>
        </extensions>
      </trkpt>
      <trkpt lat="35.880106" lon="115.106902">
        <ele>43</ele>
        <time>2022-08-23T13:06:23Z</time>
        <extensions>
          <gpxtpx:TrackPointExtension></gpxtpx:TrackPointExtension>
        </extensions>
      </trkpt>
      <trkpt lat="35.880122" lon="115.106707">
        <ele>42.78</ele>
        <time>2022-08-23T13:06:28Z</time>
        <extensions>
          <gpxtpx:TrackPointExtension></gpxtpx:TrackPointExtension>
        </extensions>
      </trkpt>
      <trkpt lat="35.880162" lon="115.106501">
        <ele>42.77</ele>
        <time>2022-08-23T13:06:33Z</time>
        <extensions>
          <gpxtpx:TrackPointExtension></gpxtpx:TrackPointExtension>
        </extensions>
      </trkpt>
      <trkpt lat="35.880139" lon="115.106256">
        <ele>42.79</ele>
        <time>2022-08-23T13:06:38Z</time>
        <extensions>
          <gpxtpx:TrackPointExtension></gpxtpx:TrackPointExtension>
        </extensions>
      </trkpt>
      <trkpt lat="35.880157" lon="115.106061">
        <ele>42.73</ele>
        <time>2022-08-23T13:06:43Z</time>
        <extensions>
          <gpxtpx:TrackPointExtension></gpxtpx:TrackPointExtension>
        </extensions>
      </trkpt>
      <trkpt lat="35.880178" lon="115.105895">
        <ele>42.53</ele>
        <time>2022-08-23T13:06:48Z</time>
        <extensions>
          <gpxtpx:TrackPointExtension></gpxtpx:TrackPointExtension>
        </extensions>
      </trkpt>
      <trkpt lat="35.88024" lon="115.105724">
        <ele>42.67</ele>
        <time>2022-08-23T13:06:53Z</time>
        <extensions>
          <gpxtpx:TrackPointExtension></gpxtpx:TrackPointExtension>
        </extensions>
      </trkpt>
      <trkpt lat="35.880293" lon="115.105554">
        <ele>42.57</ele>
        <time>2022-08-23T13:06:58Z</time>
        <extensions>
          <gpxtpx:TrackPointExtension></gpxtpx:TrackPointExtension>
        </extensions>
      </trkpt>
      <trkpt lat="35.880337" lon="115.10535">
        <ele>42.65</ele>
        <time>2022-08-23T13:07:03Z</time>
        <extensions>
          <gpxtpx:TrackPointExtension></gpxtpx:TrackPointExtension>
        </extensions>
      </trkpt>
      <trkpt lat="35.880355" lon="115.105147">
        <ele>42.67</ele>
        <time>2022-08-23T13:07:08Z</time>
        <extensions>
          <gpxtpx:TrackPointExtension></gpxtpx:TrackPointExtension>
        </extensions>
      </trkpt>
      <trkpt lat="35.880375" lon="115.104952">
        <ele>42.94</ele>
        <time>2022-08-23T13:07:13Z</time>
        <extensions>
          <gpxtpx:TrackPointExtension></gpxtpx:TrackPointExtension>
        </extensions>
      </trkpt>
      <trkpt lat="35.880414" lon="115.104748">
        <ele>42.84</ele>
        <time>2022-08-23T13:07:18Z</time>
        <extensions>
          <gpxtpx:TrackPointExtension></gpxtpx:TrackPointExtension>
        </extensions>
      </trkpt>
      <trkpt lat="35.880437" lon="115.104559">
        <ele>42.69</ele>
        <time>2022-08-23T13:07:23Z</time>
        <extensions>
          <gpxtpx:TrackPointExtension></gpxtpx:TrackPointExtension>
        </extensions>
      </trkpt>
      <trkpt lat="35.880451" lon="115.104369">
        <ele>42.55</ele>
        <time>2022-08-23T13:07:28Z</time>
        <extensions>
          <gpxtpx:TrackPointExtension></gpxtpx:TrackPointExtension>
        </extensions>
      </trkpt>
      <trkpt lat="35.880477" lon="115.104169">
        <ele>42.56</ele>
        <time>2022-08-23T13:07:33Z</time>
        <extensions>
          <gpxtpx:TrackPointExtension></gpxtpx:TrackPointExtension>
        </extensions>
      </trkpt>
      <trkpt lat="35.880492" lon="115.103978">
        <ele>42.34</ele>
        <time>2022-08-23T13:07:38Z</time>
        <extensions>
          <gpxtpx:TrackPointExtension></gpxtpx:TrackPointExtension>
        </extensions>
      </trkpt>
      <trkpt lat="35.880513" lon="115.103797">
        <ele>42.06</ele>
        <time>2022-08-23T13:07:43Z</time>
        <extensions>
          <gpxtpx:TrackPointExtension></gpxtpx:TrackPointExtension>
        </extensions>
      </trkpt>
      <trkpt lat="35.880532" lon="115.103644">
        <ele>42.34</ele>
        <time>2022-08-23T13:07:48Z</time>
        <extensions>
          <gpxtpx:TrackPointExtension></gpxtpx:TrackPointExtension>
        </extensions>
      </trkpt>
      <trkpt lat="35.880485" lon="115.103541">
        <ele>42.29</ele>
        <time>2022-08-23T13:07:53Z</time>
        <extensions>
          <gpxtpx:TrackPointExtension></gpxtpx:TrackPointExtension>
        </extensions>
      </trkpt>
      <trkpt lat="35.880364" lon="115.103565">
        <ele>42.2</ele>
        <time>2022-08-23T13:07:58Z</time>
        <extensions>
          <gpxtpx:TrackPointExtension></gpxtpx:TrackPointExtension>
        </extensions>
      </trkpt>
      <trkpt lat="35.880318" lon="115.103725">
        <ele>42.45</ele>
        <time>2022-08-23T13:08:03Z</time>
        <extensions>
          <gpxtpx:TrackPointExtension></gpxtpx:TrackPointExtension>
        </extensions>
      </trkpt>
      <trkpt lat="35.880295" lon="115.103922">
        <ele>41.85</ele>
        <time>2022-08-23T13:08:08Z</time>
        <extensions>
          <gpxtpx:TrackPointExtension></gpxtpx:TrackPointExtension>
        </extensions>
      </trkpt>
      <trkpt lat="35.880283" lon="115.104091">
        <ele>42.44</ele>
        <time>2022-08-23T13:08:13Z</time>
        <extensions>
          <gpxtpx:TrackPointExtension></gpxtpx:TrackPointExtension>
        </extensions>
      </trkpt>
      <trkpt lat="35.880244" lon="115.104265">
        <ele>42.26</ele>
        <time>2022-08-23T13:08:18Z</time>
        <extensions>
          <gpxtpx:TrackPointExtension></gpxtpx:TrackPointExtension>
        </extensions>
      </trkpt>
      <trkpt lat="35.88021" lon="115.104461">
        <ele>42.25</ele>
        <time>2022-08-23T13:08:23Z</time>
        <extensions>
          <gpxtpx:TrackPointExtension></gpxtpx:TrackPointExtension>
        </extensions>
      </trkpt>
      <trkpt lat="35.880185" lon="115.104643">
        <ele>42.43</ele>
        <time>2022-08-23T13:08:28Z</time>
        <extensions>
          <gpxtpx:TrackPointExtension></gpxtpx:TrackPointExtension>
        </extensions>
      </trkpt>
      <trkpt lat="35.880165" lon="115.104831">
        <ele>42.29</ele>
        <time>2022-08-23T13:08:33Z</time>
        <extensions>
          <gpxtpx:TrackPointExtension></gpxtpx:TrackPointExtension>
        </extensions>
      </trkpt>
      <trkpt lat="35.880166" lon="115.104978">
        <ele>42.48</ele>
        <time>2022-08-23T13:08:38Z</time>
        <extensions>
          <gpxtpx:TrackPointExtension></gpxtpx:TrackPointExtension>
        </extensions>
      </trkpt>
      <trkpt lat="35.88016" lon="115.105128">
        <ele>42.28</ele>
        <time>2022-08-23T13:08:43Z</time>
        <extensions>
          <gpxtpx:TrackPointExtension></gpxtpx:TrackPointExtension>
        </extensions>
      </trkpt>
      <trkpt lat="35.880139" lon="115.105299">
        <ele>42.37</ele>
        <time>2022-08-23T13:08:48Z</time>
        <extensions>
          <gpxtpx:TrackPointExtension></gpxtpx:TrackPointExtension>
        </extensions>
      </trkpt>
      <trkpt lat="35.880061" lon="115.105444">
        <ele>42.27</ele>
        <time>2022-08-23T13:08:53Z</time>
        <extensions>
          <gpxtpx:TrackPointExtension></gpxtpx:TrackPointExtension>
        </extensions>
      </trkpt>
      <trkpt lat="35.880042" lon="115.1056">
        <ele>42.16</ele>
        <time>2022-08-23T13:08:58Z</time>
        <extensions>
          <gpxtpx:TrackPointExtension></gpxtpx:TrackPointExtension>
        </extensions>
      </trkpt>
      <trkpt lat="35.880025" lon="115.105808">
        <ele>42.66</ele>
        <time>2022-08-23T13:09:03Z</time>
        <extensions>
          <gpxtpx:TrackPointExtension></gpxtpx:TrackPointExtension>
        </extensions>
      </trkpt>
      <trkpt lat="35.879991" lon="115.106002">
        <ele>42.52</ele>
        <time>2022-08-23T13:09:08Z</time>
        <extensions>
          <gpxtpx:TrackPointExtension></gpxtpx:TrackPointExtension>
        </extensions>
      </trkpt>
      <trkpt lat="35.879962" lon="115.106165">
        <ele>42.35</ele>
        <time>2022-08-23T13:09:13Z</time>
        <extensions>
          <gpxtpx:TrackPointExtension></gpxtpx:TrackPointExtension>
        </extensions>
      </trkpt>
      <trkpt lat="35.879964" lon="115.106337">
        <ele>42.6</ele>
        <time>2022-08-23T13:09:18Z</time>
        <extensions>
          <gpxtpx:TrackPointExtension></gpxtpx:TrackPointExtension>
        </extensions>
      </trkpt>
      <trkpt lat="35.879936" lon="115.106479">
        <ele>42.72</ele>
        <time>2022-08-23T13:09:23Z</time>
        <extensions>
          <gpxtpx:TrackPointExtension></gpxtpx:TrackPointExtension>
        </extensions>
      </trkpt>
      <trkpt lat="35.879931" lon="115.10665">
        <ele>42.66</ele>
        <time>2022-08-23T13:09:28Z</time>
        <extensions>
          <gpxtpx:TrackPointExtension></gpxtpx:TrackPointExtension>
        </extensions>
      </trkpt>
      <trkpt lat="35.879909" lon="115.106803">
        <ele>42.65</ele>
        <time>2022-08-23T13:09:33Z</time>
        <extensions>
          <gpxtpx:TrackPointExtension></gpxtpx:TrackPointExtension>
        </extensions>
      </trkpt>
      <trkpt lat="35.879867" lon="115.106968">
        <ele>42.78</ele>
        <time>2022-08-23T13:09:38Z</time>
        <extensions>
          <gpxtpx:TrackPointExtension></gpxtpx:TrackPointExtension>
        </extensions>
      </trkpt>
      <trkpt lat="35.879866" lon="115.107149">
        <ele>42.44</ele>
        <time>2022-08-23T13:09:43Z</time>
        <extensions>
          <gpxtpx:TrackPointExtension></gpxtpx:TrackPointExtension>
        </extensions>
      </trkpt>
      <trkpt lat="35.879839" lon="115.107306">
        <ele>42.22</ele>
        <time>2022-08-23T13:09:48Z</time>
        <extensions>
          <gpxtpx:TrackPointExtension></gpxtpx:TrackPointExtension>
        </extensions>
      </trkpt>
      <trkpt lat="35.879811" lon="115.107496">
        <ele>42.13</ele>
        <time>2022-08-23T13:09:53Z</time>
        <extensions>
          <gpxtpx:TrackPointExtension></gpxtpx:TrackPointExtension>
        </extensions>
      </trkpt>
      <trkpt lat="35.879776" lon="115.107641">
        <ele>42.39</ele>
        <time>2022-08-23T13:09:58Z</time>
        <extensions>
          <gpxtpx:TrackPointExtension></gpxtpx:TrackPointExtension>
        </extensions>
      </trkpt>
      <trkpt lat="35.879755" lon="115.107803">
        <ele>42.8</ele>
        <time>2022-08-23T13:10:03Z</time>
        <extensions>
          <gpxtpx:TrackPointExtension></gpxtpx:TrackPointExtension>
        </extensions>
      </trkpt>
      <trkpt lat="35.879746" lon="115.10791">
        <ele>42.69</ele>
        <time>2022-08-23T13:10:08Z</time>
        <extensions>
          <gpxtpx:TrackPointExtension></gpxtpx:TrackPointExtension>
        </extensions>
      </trkpt>
      <trkpt lat="35.879751" lon="115.10795">
        <ele>42.83</ele>
        <time>2022-08-23T13:10:13Z</time>
        <extensions>
          <gpxtpx:TrackPointExtension></gpxtpx:TrackPointExtension>
        </extensions>
      </trkpt>
      <trkpt lat="35.879749" lon="115.107995">
        <ele>42.92</ele>
        <time>2022-08-23T13:10:18Z</time>
        <extensions>
          <gpxtpx:TrackPointExtension></gpxtpx:TrackPointExtension>
        </extensions>
      </trkpt>
      <trkpt lat="35.879722" lon="115.108047">
        <ele>42.85</ele>
        <time>2022-08-23T13:10:23Z</time>
        <extensions>
          <gpxtpx:TrackPointExtension></gpxtpx:TrackPointExtension>
        </extensions>
      </trkpt>
      <trkpt lat="35.879715" lon="115.108132">
        <ele>42.76</ele>
        <time>2022-08-23T13:10:28Z</time>
        <extensions>
          <gpxtpx:TrackPointExtension></gpxtpx:TrackPointExtension>
        </extensions>
      </trkpt>
      <trkpt lat="35.879707" lon="115.108208">
        <ele>42.73</ele>
        <time>2022-08-23T13:10:33Z</time>
        <extensions>
          <gpxtpx:TrackPointExtension></gpxtpx:TrackPointExtension>
        </extensions>
      </trkpt>
      <trkpt lat="35.879688" lon="115.108301">
        <ele>42.83</ele>
        <time>2022-08-23T13:10:38Z</time>
        <extensions>
          <gpxtpx:TrackPointExtension></gpxtpx:TrackPointExtension>
        </extensions>
      </trkpt>
      <trkpt lat="35.879674" lon="115.108379">
        <ele>42.7</ele>
        <time>2022-08-23T13:10:43Z</time>
        <extensions>
          <gpxtpx:TrackPointExtension></gpxtpx:TrackPointExtension>
        </extensions>
      </trkpt>
      <trkpt lat="35.879663" lon="115.108465">
        <ele>42.61</ele>
        <time>2022-08-23T13:10:48Z</time>
        <extensions>
          <gpxtpx:TrackPointExtension></gpxtpx:TrackPointExtension>
        </extensions>
      </trkpt>
      <trkpt lat="35.879655" lon="115.10855">
        <ele>42.54</ele>
        <time>2022-08-23T13:10:53Z</time>
        <extensions>
          <gpxtpx:TrackPointExtension></gpxtpx:TrackPointExtension>
        </extensions>
      </trkpt>
      <trkpt lat="35.879648" lon="115.108623">
        <ele>42.61</ele>
        <time>2022-08-23T13:10:58Z</time>
        <extensions>
          <gpxtpx:TrackPointExtension></gpxtpx:TrackPointExtension>
        </extensions>
      </trkpt>
      <trkpt lat="35.879642" lon="115.108746">
        <ele>42.47</ele>
        <time>2022-08-23T13:11:03Z</time>
        <extensions>
          <gpxtpx:TrackPointExtension></gpxtpx:TrackPointExtension>
        </extensions>
      </trkpt>
      <trkpt lat="35.879636" lon="115.108907">
        <ele>42.5</ele>
        <time>2022-08-23T13:11:08Z</time>
        <extensions>
          <gpxtpx:TrackPointExtension></gpxtpx:TrackPointExtension>
        </extensions>
      </trkpt>
      <trkpt lat="35.879602" lon="115.109085">
        <ele>42.23</ele>
        <time>2022-08-23T13:11:13Z</time>
        <extensions>
          <gpxtpx:TrackPointExtension></gpxtpx:TrackPointExtension>
        </extensions>
      </trkpt>
      <trkpt lat="35.879567" lon="115.10925">
        <ele>42.24</ele>
        <time>2022-08-23T13:11:18Z</time>
        <extensions>
          <gpxtpx:TrackPointExtension></gpxtpx:TrackPointExtension>
        </extensions>
      </trkpt>
      <trkpt lat="35.879552" lon="115.10942">
        <ele>42.64</ele>
        <time>2022-08-23T13:11:23Z</time>
        <extensions>
          <gpxtpx:TrackPointExtension></gpxtpx:TrackPointExtension>
        </extensions>
      </trkpt>
      <trkpt lat="35.879524" lon="115.109625">
        <ele>42.32</ele>
        <time>2022-08-23T13:11:28Z</time>
        <extensions>
          <gpxtpx:TrackPointExtension></gpxtpx:TrackPointExtension>
        </extensions>
      </trkpt>
      <trkpt lat="35.879521" lon="115.109785">
        <ele>42.4</ele>
        <time>2022-08-23T13:11:33Z</time>
        <extensions>
          <gpxtpx:TrackPointExtension></gpxtpx:TrackPointExtension>
        </extensions>
      </trkpt>
      <trkpt lat="35.879505" lon="115.109971">
        <ele>42.6</ele>
        <time>2022-08-23T13:11:38Z</time>
        <extensions>
          <gpxtpx:TrackPointExtension></gpxtpx:TrackPointExtension>
        </extensions>
      </trkpt>
      <trkpt lat="35.879497" lon="115.110123">
        <ele>42.46</ele>
        <time>2022-08-23T13:11:43Z</time>
        <extensions>
          <gpxtpx:TrackPointExtension></gpxtpx:TrackPointExtension>
        </extensions>
      </trkpt>
      <trkpt lat="35.879474" lon="115.110293">
        <ele>42.45</ele>
        <time>2022-08-23T13:11:48Z</time>
        <extensions>
          <gpxtpx:TrackPointExtension></gpxtpx:TrackPointExtension>
        </extensions>
      </trkpt>
      <trkpt lat="35.879452" lon="115.11048">
        <ele>42.59</ele>
        <time>2022-08-23T13:11:53Z</time>
        <extensions>
          <gpxtpx:TrackPointExtension></gpxtpx:TrackPointExtension>
        </extensions>
      </trkpt>
      <trkpt lat="35.879395" lon="115.110658">
        <ele>42.62</ele>
        <time>2022-08-23T13:11:58Z</time>
        <extensions>
          <gpxtpx:TrackPointExtension></gpxtpx:TrackPointExtension>
        </extensions>
      </trkpt>
      <trkpt lat="35.879362" lon="115.110842">
        <ele>42.37</ele>
        <time>2022-08-23T13:12:03Z</time>
        <extensions>
          <gpxtpx:TrackPointExtension></gpxtpx:TrackPointExtension>
        </extensions>
      </trkpt>
      <trkpt lat="35.879331" lon="115.111017">
        <ele>42.23</ele>
        <time>2022-08-23T13:12:08Z</time>
        <extensions>
          <gpxtpx:TrackPointExtension></gpxtpx:TrackPointExtension>
        </extensions>
      </trkpt>
      <trkpt lat="35.87932" lon="115.111187">
        <ele>42.08</ele>
        <time>2022-08-23T13:12:13Z</time>
        <extensions>
          <gpxtpx:TrackPointExtension></gpxtpx:TrackPointExtension>
        </extensions>
      </trkpt>
      <trkpt lat="35.879324" lon="115.111372">
        <ele>42.1</ele>
        <time>2022-08-23T13:12:18Z</time>
        <extensions>
          <gpxtpx:TrackPointExtension></gpxtpx:TrackPointExtension>
        </extensions>
      </trkpt>
      <trkpt lat="35.879314" lon="115.111549">
        <ele>42.15</ele>
        <time>2022-08-23T13:12:23Z</time>
        <extensions>
          <gpxtpx:TrackPointExtension></gpxtpx:TrackPointExtension>
        </extensions>
      </trkpt>
      <trkpt lat="35.879328" lon="115.111715">
        <ele>42.43</ele>
        <time>2022-08-23T13:12:28Z</time>
        <extensions>
          <gpxtpx:TrackPointExtension></gpxtpx:TrackPointExtension>
        </extensions>
      </trkpt>
      <trkpt lat="35.879373" lon="115.111871">
        <ele>41.95</ele>
        <time>2022-08-23T13:12:33Z</time>
        <extensions>
          <gpxtpx:TrackPointExtension></gpxtpx:TrackPointExtension>
        </extensions>
      </trkpt>
      <trkpt lat="35.879443" lon="115.112052">
        <ele>41.84</ele>
        <time>2022-08-23T13:12:38Z</time>
        <extensions>
          <gpxtpx:TrackPointExtension></gpxtpx:TrackPointExtension>
        </extensions>
      </trkpt>
      <trkpt lat="35.879446" lon="115.112194">
        <ele>41.93</ele>
        <time>2022-08-23T13:12:43Z</time>
        <extensions>
          <gpxtpx:TrackPointExtension></gpxtpx:TrackPointExtension>
        </extensions>
      </trkpt>
      <trkpt lat="35.879403" lon="115.112417">
        <ele>42.22</ele>
        <time>2022-08-23T13:12:48Z</time>
        <extensions>
          <gpxtpx:TrackPointExtension></gpxtpx:TrackPointExtension>
        </extensions>
      </trkpt>
      <trkpt lat="35.879351" lon="115.112555">
        <ele>42.11</ele>
        <time>2022-08-23T13:12:53Z</time>
        <extensions>
          <gpxtpx:TrackPointExtension></gpxtpx:TrackPointExtension>
        </extensions>
      </trkpt>
      <trkpt lat="35.879336" lon="115.112709">
        <ele>41.94</ele>
        <time>2022-08-23T13:12:58Z</time>
        <extensions>
          <gpxtpx:TrackPointExtension></gpxtpx:TrackPointExtension>
        </extensions>
      </trkpt>
      <trkpt lat="35.879288" lon="115.112892">
        <ele>42.05</ele>
        <time>2022-08-23T13:13:03Z</time>
        <extensions>
          <gpxtpx:TrackPointExtension></gpxtpx:TrackPointExtension>
        </extensions>
      </trkpt>
      <trkpt lat="35.879262" lon="115.113003">
        <ele>42.07</ele>
        <time>2022-08-23T13:13:08Z</time>
        <extensions>
          <gpxtpx:TrackPointExtension></gpxtpx:TrackPointExtension>
        </extensions>
      </trkpt>
      <trkpt lat="35.879254" lon="115.113166">
        <ele>42.14</ele>
        <time>2022-08-23T13:13:13Z</time>
        <extensions>
          <gpxtpx:TrackPointExtension></gpxtpx:TrackPointExtension>
        </extensions>
      </trkpt>
      <trkpt lat="35.879265" lon="115.11332">
        <ele>42.18</ele>
        <time>2022-08-23T13:13:18Z</time>
        <extensions>
          <gpxtpx:TrackPointExtension></gpxtpx:TrackPointExtension>
        </extensions>
      </trkpt>
      <trkpt lat="35.879244" lon="115.113466">
        <ele>41.84</ele>
        <time>2022-08-23T13:13:23Z</time>
        <extensions>
          <gpxtpx:TrackPointExtension></gpxtpx:TrackPointExtension>
        </extensions>
      </trkpt>
      <trkpt lat="35.879221" lon="115.113633">
        <ele>41.68</ele>
        <time>2022-08-23T13:13:28Z</time>
        <extensions>
          <gpxtpx:TrackPointExtension></gpxtpx:TrackPointExtension>
        </extensions>
      </trkpt>
      <trkpt lat="35.879192" lon="115.113779">
        <ele>41.59</ele>
        <time>2022-08-23T13:13:33Z</time>
        <extensions>
          <gpxtpx:TrackPointExtension></gpxtpx:TrackPointExtension>
        </extensions>
      </trkpt>
      <trkpt lat="35.879171" lon="115.113943">
        <ele>41.96</ele>
        <time>2022-08-23T13:13:38Z</time>
        <extensions>
          <gpxtpx:TrackPointExtension></gpxtpx:TrackPointExtension>
        </extensions>
      </trkpt>
      <trkpt lat="35.879139" lon="115.114092">
        <ele>41.99</ele>
        <time>2022-08-23T13:13:43Z</time>
        <extensions>
          <gpxtpx:TrackPointExtension></gpxtpx:TrackPointExtension>
        </extensions>
      </trkpt>
      <trkpt lat="35.879105" lon="115.114274">
        <ele>41.77</ele>
        <time>2022-08-23T13:13:48Z</time>
        <extensions>
          <gpxtpx:TrackPointExtension></gpxtpx:TrackPointExtension>
        </extensions>
      </trkpt>
      <trkpt lat="35.87909" lon="115.114434">
        <ele>41.78</ele>
        <time>2022-08-23T13:13:53Z</time>
        <extensions>
          <gpxtpx:TrackPointExtension></gpxtpx:TrackPointExtension>
        </extensions>
      </trkpt>
      <trkpt lat="35.879082" lon="115.114571">
        <ele>41.89</ele>
        <time>2022-08-23T13:13:58Z</time>
        <extensions>
          <gpxtpx:TrackPointExtension></gpxtpx:TrackPointExtension>
        </extensions>
      </trkpt>
      <trkpt lat="35.879066" lon="115.114729">
        <ele>41.81</ele>
        <time>2022-08-23T13:14:03Z</time>
        <extensions>
          <gpxtpx:TrackPointExtension></gpxtpx:TrackPointExtension>
        </extensions>
      </trkpt>
      <trkpt lat="35.879038" lon="115.114937">
        <ele>41.58</ele>
        <time>2022-08-23T13:14:08Z</time>
        <extensions>
          <gpxtpx:TrackPointExtension></gpxtpx:TrackPointExtension>
        </extensions>
      </trkpt>
      <trkpt lat="35.87899" lon="115.115111">
        <ele>41.67</ele>
        <time>2022-08-23T13:14:13Z</time>
        <extensions>
          <gpxtpx:TrackPointExtension></gpxtpx:TrackPointExtension>
        </extensions>
      </trkpt>
      <trkpt lat="35.878972" lon="115.11528">
        <ele>41.56</ele>
        <time>2022-08-23T13:14:18Z</time>
        <extensions>
          <gpxtpx:TrackPointExtension></gpxtpx:TrackPointExtension>
        </extensions>
      </trkpt>
      <trkpt lat="35.878962" lon="115.11546">
        <ele>41.9</ele>
        <time>2022-08-23T13:14:23Z</time>
        <extensions>
          <gpxtpx:TrackPointExtension></gpxtpx:TrackPointExtension>
        </extensions>
      </trkpt>
      <trkpt lat="35.87894" lon="115.115609">
        <ele>41.97</ele>
        <time>2022-08-23T13:14:28Z</time>
        <extensions>
          <gpxtpx:TrackPointExtension></gpxtpx:TrackPointExtension>
        </extensions>
      </trkpt>
      <trkpt lat="35.878907" lon="115.115752">
        <ele>42</ele>
        <time>2022-08-23T13:14:33Z</time>
        <extensions>
          <gpxtpx:TrackPointExtension></gpxtpx:TrackPointExtension>
        </extensions>
      </trkpt>
      <trkpt lat="35.878878" lon="115.115905">
        <ele>42.21</ele>
        <time>2022-08-23T13:14:38Z</time>
        <extensions>
          <gpxtpx:TrackPointExtension></gpxtpx:TrackPointExtension>
        </extensions>
      </trkpt>
      <trkpt lat="35.878861" lon="115.11607">
        <ele>41.94</ele>
        <time>2022-08-23T13:14:43Z</time>
        <extensions>
          <gpxtpx:TrackPointExtension></gpxtpx:TrackPointExtension>
        </extensions>
      </trkpt>
      <trkpt lat="35.878837" lon="115.11625">
        <ele>42.3</ele>
        <time>2022-08-23T13:14:48Z</time>
        <extensions>
          <gpxtpx:TrackPointExtension></gpxtpx:TrackPointExtension>
        </extensions>
      </trkpt>
      <trkpt lat="35.878813" lon="115.116407">
        <ele>41.93</ele>
        <time>2022-08-23T13:14:53Z</time>
        <extensions>
          <gpxtpx:TrackPointExtension></gpxtpx:TrackPointExtension>
        </extensions>
      </trkpt>
      <trkpt lat="35.878804" lon="115.116574">
        <ele>42.21</ele>
        <time>2022-08-23T13:14:58Z</time>
        <extensions>
          <gpxtpx:TrackPointExtension></gpxtpx:TrackPointExtension>
        </extensions>
      </trkpt>
      <trkpt lat="35.878803" lon="115.11673">
        <ele>42.08</ele>
        <time>2022-08-23T13:15:03Z</time>
        <extensions>
          <gpxtpx:TrackPointExtension></gpxtpx:TrackPointExtension>
        </extensions>
      </trkpt>
      <trkpt lat="35.878809" lon="115.116872">
        <ele>42</ele>
        <time>2022-08-23T13:15:08Z</time>
        <extensions>
          <gpxtpx:TrackPointExtension></gpxtpx:TrackPointExtension>
        </extensions>
      </trkpt>
      <trkpt lat="35.878797" lon="115.117037">
        <ele>41.9</ele>
        <time>2022-08-23T13:15:13Z</time>
        <extensions>
          <gpxtpx:TrackPointExtension></gpxtpx:TrackPointExtension>
        </extensions>
      </trkpt>
      <trkpt lat="35.878793" lon="115.117098">
        <ele>41.67</ele>
        <time>2022-08-23T13:15:18Z</time>
        <extensions>
          <gpxtpx:TrackPointExtension></gpxtpx:TrackPointExtension>
        </extensions>
      </trkpt>
      <trkpt lat="35.878834" lon="115.116937">
        <ele>41.55</ele>
        <time>2022-08-23T13:15:23Z</time>
        <extensions>
          <gpxtpx:TrackPointExtension></gpxtpx:TrackPointExtension>
        </extensions>
      </trkpt>
      <trkpt lat="35.878834" lon="115.11675">
        <ele>41.75</ele>
        <time>2022-08-23T13:15:28Z</time>
        <extensions>
          <gpxtpx:TrackPointExtension></gpxtpx:TrackPointExtension>
        </extensions>
      </trkpt>
      <trkpt lat="35.878858" lon="115.116561">
        <ele>41.59</ele>
        <time>2022-08-23T13:15:33Z</time>
        <extensions>
          <gpxtpx:TrackPointExtension></gpxtpx:TrackPointExtension>
        </extensions>
      </trkpt>
      <trkpt lat="35.878864" lon="115.116358">
        <ele>41.73</ele>
        <time>2022-08-23T13:15:38Z</time>
        <extensions>
          <gpxtpx:TrackPointExtension></gpxtpx:TrackPointExtension>
        </extensions>
      </trkpt>
      <trkpt lat="35.87887" lon="115.116185">
        <ele>41.87</ele>
        <time>2022-08-23T13:15:43Z</time>
        <extensions>
          <gpxtpx:TrackPointExtension></gpxtpx:TrackPointExtension>
        </extensions>
      </trkpt>
      <trkpt lat="35.878896" lon="115.116001">
        <ele>41.63</ele>
        <time>2022-08-23T13:15:48Z</time>
        <extensions>
          <gpxtpx:TrackPointExtension></gpxtpx:TrackPointExtension>
        </extensions>
      </trkpt>
      <trkpt lat="35.878928" lon="115.115823">
        <ele>41.76</ele>
        <time>2022-08-23T13:15:53Z</time>
        <extensions>
          <gpxtpx:TrackPointExtension></gpxtpx:TrackPointExtension>
        </extensions>
      </trkpt>
      <trkpt lat="35.878946" lon="115.115655">
        <ele>41.78</ele>
        <time>2022-08-23T13:15:58Z</time>
        <extensions>
          <gpxtpx:TrackPointExtension></gpxtpx:TrackPointExtension>
        </extensions>
      </trkpt>
      <trkpt lat="35.878977" lon="115.1155">
        <ele>41.88</ele>
        <time>2022-08-23T13:16:03Z</time>
        <extensions>
          <gpxtpx:TrackPointExtension></gpxtpx:TrackPointExtension>
        </extensions>
      </trkpt>
      <trkpt lat="35.878978" lon="115.115333">
        <ele>41.65</ele>
        <time>2022-08-23T13:16:08Z</time>
        <extensions>
          <gpxtpx:TrackPointExtension></gpxtpx:TrackPointExtension>
        </extensions>
      </trkpt>
      <trkpt lat="35.878998" lon="115.11516">
        <ele>41.62</ele>
        <time>2022-08-23T13:16:13Z</time>
        <extensions>
          <gpxtpx:TrackPointExtension></gpxtpx:TrackPointExtension>
        </extensions>
      </trkpt>
      <trkpt lat="35.879011" lon="115.11498">
        <ele>41.97</ele>
        <time>2022-08-23T13:16:18Z</time>
        <extensions>
          <gpxtpx:TrackPointExtension></gpxtpx:TrackPointExtension>
        </extensions>
      </trkpt>
      <trkpt lat="35.87903" lon="115.114824">
        <ele>41.86</ele>
        <time>2022-08-23T13:16:23Z</time>
        <extensions>
          <gpxtpx:TrackPointExtension></gpxtpx:TrackPointExtension>
        </extensions>
      </trkpt>
      <trkpt lat="35.879043" lon="115.114657">
        <ele>41.95</ele>
        <time>2022-08-23T13:16:28Z</time>
        <extensions>
          <gpxtpx:TrackPointExtension></gpxtpx:TrackPointExtension>
        </extensions>
      </trkpt>
      <trkpt lat="35.879084" lon="115.114513">
        <ele>41.94</ele>
        <time>2022-08-23T13:16:33Z</time>
        <extensions>
          <gpxtpx:TrackPointExtension></gpxtpx:TrackPointExtension>
        </extensions>
      </trkpt>
      <trkpt lat="35.879116" lon="115.114356">
        <ele>41.91</ele>
        <time>2022-08-23T13:16:38Z</time>
        <extensions>
          <gpxtpx:TrackPointExtension></gpxtpx:TrackPointExtension>
        </extensions>
      </trkpt>
      <trkpt lat="35.879128" lon="115.11418">
        <ele>41.84</ele>
        <time>2022-08-23T13:16:43Z</time>
        <extensions>
          <gpxtpx:TrackPointExtension></gpxtpx:TrackPointExtension>
        </extensions>
      </trkpt>
      <trkpt lat="35.879127" lon="115.113993">
        <ele>41.9</ele>
        <time>2022-08-23T13:16:48Z</time>
        <extensions>
          <gpxtpx:TrackPointExtension></gpxtpx:TrackPointExtension>
        </extensions>
      </trkpt>
      <trkpt lat="35.879175" lon="115.113804">
        <ele>41.88</ele>
        <time>2022-08-23T13:16:53Z</time>
        <extensions>
          <gpxtpx:TrackPointExtension></gpxtpx:TrackPointExtension>
        </extensions>
      </trkpt>
      <trkpt lat="35.879194" lon="115.113618">
        <ele>42.11</ele>
        <time>2022-08-23T13:16:58Z</time>
        <extensions>
          <gpxtpx:TrackPointExtension></gpxtpx:TrackPointExtension>
        </extensions>
      </trkpt>
      <trkpt lat="35.879234" lon="115.113447">
        <ele>41.93</ele>
        <time>2022-08-23T13:17:03Z</time>
        <extensions>
          <gpxtpx:TrackPointExtension></gpxtpx:TrackPointExtension>
        </extensions>
      </trkpt>
      <trkpt lat="35.879256" lon="115.113287">
        <ele>42.08</ele>
        <time>2022-08-23T13:17:08Z</time>
        <extensions>
          <gpxtpx:TrackPointExtension></gpxtpx:TrackPointExtension>
        </extensions>
      </trkpt>
      <trkpt lat="35.879271" lon="115.113131">
        <ele>42.05</ele>
        <time>2022-08-23T13:17:13Z</time>
        <extensions>
          <gpxtpx:TrackPointExtension></gpxtpx:TrackPointExtension>
        </extensions>
      </trkpt>
      <trkpt lat="35.879325" lon="115.112965">
        <ele>42.2</ele>
        <time>2022-08-23T13:17:18Z</time>
        <extensions>
          <gpxtpx:TrackPointExtension></gpxtpx:TrackPointExtension>
        </extensions>
      </trkpt>
      <trkpt lat="35.879344" lon="115.112794">
        <ele>42.13</ele>
        <time>2022-08-23T13:17:23Z</time>
        <extensions>
          <gpxtpx:TrackPointExtension></gpxtpx:TrackPointExtension>
        </extensions>
      </trkpt>
      <trkpt lat="35.87936" lon="115.112599">
        <ele>42.06</ele>
        <time>2022-08-23T13:17:28Z</time>
        <extensions>
          <gpxtpx:TrackPointExtension></gpxtpx:TrackPointExtension>
        </extensions>
      </trkpt>
      <trkpt lat="35.879396" lon="115.112401">
        <ele>42.32</ele>
        <time>2022-08-23T13:17:33Z</time>
        <extensions>
          <gpxtpx:TrackPointExtension></gpxtpx:TrackPointExtension>
        </extensions>
      </trkpt>
      <trkpt lat="35.87944" lon="115.11222">
        <ele>41.92</ele>
        <time>2022-08-23T13:17:38Z</time>
        <extensions>
          <gpxtpx:TrackPointExtension></gpxtpx:TrackPointExtension>
        </extensions>
      </trkpt>
      <trkpt lat="35.879489" lon="115.112048">
        <ele>41.59</ele>
        <time>2022-08-23T13:17:43Z</time>
        <extensions>
          <gpxtpx:TrackPointExtension></gpxtpx:TrackPointExtension>
        </extensions>
      </trkpt>
      <trkpt lat="35.879643" lon="115.112027">
        <ele>41.71</ele>
        <time>2022-08-23T13:17:48Z</time>
        <extensions>
          <gpxtpx:TrackPointExtension></gpxtpx:TrackPointExtension>
        </extensions>
      </trkpt>
      <trkpt lat="35.879799" lon="115.112088">
        <ele>41.99</ele>
        <time>2022-08-23T13:17:53Z</time>
        <extensions>
          <gpxtpx:TrackPointExtension></gpxtpx:TrackPointExtension>
        </extensions>
      </trkpt>
      <trkpt lat="35.879799" lon="115.112088">
        <ele>41.99</ele>
        <time>2022-08-23T13:18:01Z</time>
        <extensions>
          <gpxtpx:TrackPointExtension></gpxtpx:TrackPointExtension>
        </extensions>
      </trkpt>
    </trkseg>
  </trk>
</gpx>