<?xml version="1.0" encoding="UTF-8"?>
<gpx xmlns="http://www.topografix.com/GPX/1/1" xmlns:gpxtpx="http://www.garmin.com/xmlschemas/TrackPointExtension/v1" xmlns:xsi="http://www.w3.org/2001/XMLSchema-instance" xsi:schemaLocation="http://www.topografix.com/GPX/1/1 http://www.topografix.com/GPX/1/1/gpx.xsd" version="1.1" creator="gpx.py -- https://github.com/tkrajina/gpxpy">
  <trk>
    <name>gpx from joyrun 1661518664</name>
    <trkseg>
      <trkpt lat="35.885258" lon="115.112077">
        <ele>45.92</ele>
        <time>2022-08-26T12:57:44Z</time>
        <extensions>
          <gpxtpx:TrackPointExtension></gpxtpx:TrackPointExtension>
        </extensions>
      </trkpt>
      <trkpt lat="35.885275" lon="115.11202">
        <ele>46.11</ele>
        <time>2022-08-26T12:57:49Z</time>
        <extensions>
          <gpxtpx:TrackPointExtension></gpxtpx:TrackPointExtension>
        </extensions>
      </trkpt>
      <trkpt lat="35.88525" lon="115.11194">
        <ele>46.09</ele>
        <time>2022-08-26T12:57:54Z</time>
        <extensions>
          <gpxtpx:TrackPointExtension></gpxtpx:TrackPointExtension>
        </extensions>
      </trkpt>
      <trkpt lat="35.885161" lon="115.111937">
        <ele>45.89</ele>
        <time>2022-08-26T12:57:59Z</time>
        <extensions>
          <gpxtpx:TrackPointExtension></gpxtpx:TrackPointExtension>
        </extensions>
      </trkpt>
      <trkpt lat="35.885064" lon="115.111961">
        <ele>46.07</ele>
        <time>2022-08-26T12:58:04Z</time>
        <extensions>
          <gpxtpx:TrackPointExtension></gpxtpx:TrackPointExtension>
        </extensions>
      </trkpt>
      <trkpt lat="35.884998" lon="115.111965">
        <ele>45.79</ele>
        <time>2022-08-26T12:58:09Z</time>
        <extensions>
          <gpxtpx:TrackPointExtension></gpxtpx:TrackPointExtension>
        </extensions>
      </trkpt>
      <trkpt lat="35.88494" lon="115.112003">
        <ele>45.63</ele>
        <time>2022-08-26T12:58:14Z</time>
        <extensions>
          <gpxtpx:TrackPointExtension></gpxtpx:TrackPointExtension>
        </extensions>
      </trkpt>
      <trkpt lat="35.884891" lon="115.112074">
        <ele>45.48</ele>
        <time>2022-08-26T12:58:19Z</time>
        <extensions>
          <gpxtpx:TrackPointExtension></gpxtpx:TrackPointExtension>
        </extensions>
      </trkpt>
      <trkpt lat="35.88485" lon="115.112167">
        <ele>45.84</ele>
        <time>2022-08-26T12:58:24Z</time>
        <extensions>
          <gpxtpx:TrackPointExtension></gpxtpx:TrackPointExtension>
        </extensions>
      </trkpt>
      <trkpt lat="35.884821" lon="115.112237">
        <ele>45.9</ele>
        <time>2022-08-26T12:58:29Z</time>
        <extensions>
          <gpxtpx:TrackPointExtension></gpxtpx:TrackPointExtension>
        </extensions>
      </trkpt>
      <trkpt lat="35.884831" lon="115.112322">
        <ele>45.55</ele>
        <time>2022-08-26T12:58:34Z</time>
        <extensions>
          <gpxtpx:TrackPointExtension></gpxtpx:TrackPointExtension>
        </extensions>
      </trkpt>
      <trkpt lat="35.884867" lon="115.11243">
        <ele>45.42</ele>
        <time>2022-08-26T12:58:39Z</time>
        <extensions>
          <gpxtpx:TrackPointExtension></gpxtpx:TrackPointExtension>
        </extensions>
      </trkpt>
      <trkpt lat="35.884824" lon="115.112521">
        <ele>45.42</ele>
        <time>2022-08-26T12:58:44Z</time>
        <extensions>
          <gpxtpx:TrackPointExtension></gpxtpx:TrackPointExtension>
        </extensions>
      </trkpt>
      <trkpt lat="35.884746" lon="115.112583">
        <ele>45.45</ele>
        <time>2022-08-26T12:58:49Z</time>
        <extensions>
          <gpxtpx:TrackPointExtension></gpxtpx:TrackPointExtension>
        </extensions>
      </trkpt>
      <trkpt lat="35.884723" lon="115.112667">
        <ele>45.08</ele>
        <time>2022-08-26T12:58:54Z</time>
        <extensions>
          <gpxtpx:TrackPointExtension></gpxtpx:TrackPointExtension>
        </extensions>
      </trkpt>
      <trkpt lat="35.884683" lon="115.11271">
        <ele>45.3</ele>
        <time>2022-08-26T12:58:59Z</time>
        <extensions>
          <gpxtpx:TrackPointExtension></gpxtpx:TrackPointExtension>
        </extensions>
      </trkpt>
      <trkpt lat="35.884619" lon="115.112707">
        <ele>44.81</ele>
        <time>2022-08-26T12:59:04Z</time>
        <extensions>
          <gpxtpx:TrackPointExtension></gpxtpx:TrackPointExtension>
        </extensions>
      </trkpt>
      <trkpt lat="35.884544" lon="115.112673">
        <ele>44.93</ele>
        <time>2022-08-26T12:59:09Z</time>
        <extensions>
          <gpxtpx:TrackPointExtension></gpxtpx:TrackPointExtension>
        </extensions>
      </trkpt>
      <trkpt lat="35.884447" lon="115.11262">
        <ele>44.84</ele>
        <time>2022-08-26T12:59:14Z</time>
        <extensions>
          <gpxtpx:TrackPointExtension></gpxtpx:TrackPointExtension>
        </extensions>
      </trkpt>
      <trkpt lat="35.88441" lon="115.112586">
        <ele>44.75</ele>
        <time>2022-08-26T12:59:19Z</time>
        <extensions>
          <gpxtpx:TrackPointExtension></gpxtpx:TrackPointExtension>
        </extensions>
      </trkpt>
      <trkpt lat="35.884334" lon="115.112578">
        <ele>44.85</ele>
        <time>2022-08-26T12:59:24Z</time>
        <extensions>
          <gpxtpx:TrackPointExtension></gpxtpx:TrackPointExtension>
        </extensions>
      </trkpt>
      <trkpt lat="35.884252" lon="115.11258">
        <ele>44.87</ele>
        <time>2022-08-26T12:59:29Z</time>
        <extensions>
          <gpxtpx:TrackPointExtension></gpxtpx:TrackPointExtension>
        </extensions>
      </trkpt>
      <trkpt lat="35.884181" lon="115.112566">
        <ele>44.79</ele>
        <time>2022-08-26T12:59:34Z</time>
        <extensions>
          <gpxtpx:TrackPointExtension></gpxtpx:TrackPointExtension>
        </extensions>
      </trkpt>
      <trkpt lat="35.884134" lon="115.112535">
        <ele>44.74</ele>
        <time>2022-08-26T12:59:39Z</time>
        <extensions>
          <gpxtpx:TrackPointExtension></gpxtpx:TrackPointExtension>
        </extensions>
      </trkpt>
      <trkpt lat="35.883989" lon="115.112567">
        <ele>44.72</ele>
        <time>2022-08-26T12:59:44Z</time>
        <extensions>
          <gpxtpx:TrackPointExtension></gpxtpx:TrackPointExtension>
        </extensions>
      </trkpt>
      <trkpt lat="35.883909" lon="115.112568">
        <ele>44.74</ele>
        <time>2022-08-26T12:59:49Z</time>
        <extensions>
          <gpxtpx:TrackPointExtension></gpxtpx:TrackPointExtension>
        </extensions>
      </trkpt>
      <trkpt lat="35.883861" lon="115.112577">
        <ele>44.71</ele>
        <time>2022-08-26T12:59:54Z</time>
        <extensions>
          <gpxtpx:TrackPointExtension></gpxtpx:TrackPointExtension>
        </extensions>
      </trkpt>
      <trkpt lat="35.883785" lon="115.112564">
        <ele>44.78</ele>
        <time>2022-08-26T12:59:59Z</time>
        <extensions>
          <gpxtpx:TrackPointExtension></gpxtpx:TrackPointExtension>
        </extensions>
      </trkpt>
      <trkpt lat="35.8837" lon="115.112564">
        <ele>44.81</ele>
        <time>2022-08-26T13:00:04Z</time>
        <extensions>
          <gpxtpx:TrackPointExtension></gpxtpx:TrackPointExtension>
        </extensions>
      </trkpt>
      <trkpt lat="35.88364" lon="115.112556">
        <ele>44.78</ele>
        <time>2022-08-26T13:00:09Z</time>
        <extensions>
          <gpxtpx:TrackPointExtension></gpxtpx:TrackPointExtension>
        </extensions>
      </trkpt>
      <trkpt lat="35.883572" lon="115.112542">
        <ele>44.93</ele>
        <time>2022-08-26T13:00:14Z</time>
        <extensions>
          <gpxtpx:TrackPointExtension></gpxtpx:TrackPointExtension>
        </extensions>
      </trkpt>
      <trkpt lat="35.883485" lon="115.112534">
        <ele>45.16</ele>
        <time>2022-08-26T13:00:19Z</time>
        <extensions>
          <gpxtpx:TrackPointExtension></gpxtpx:TrackPointExtension>
        </extensions>
      </trkpt>
      <trkpt lat="35.883421" lon="115.112521">
        <ele>45.06</ele>
        <time>2022-08-26T13:00:24Z</time>
        <extensions>
          <gpxtpx:TrackPointExtension></gpxtpx:TrackPointExtension>
        </extensions>
      </trkpt>
      <trkpt lat="35.883353" lon="115.112502">
        <ele>44.74</ele>
        <time>2022-08-26T13:00:29Z</time>
        <extensions>
          <gpxtpx:TrackPointExtension></gpxtpx:TrackPointExtension>
        </extensions>
      </trkpt>
      <trkpt lat="35.883286" lon="115.112497">
        <ele>44.77</ele>
        <time>2022-08-26T13:00:34Z</time>
        <extensions>
          <gpxtpx:TrackPointExtension></gpxtpx:TrackPointExtension>
        </extensions>
      </trkpt>
      <trkpt lat="35.883238" lon="115.112447">
        <ele>44.67</ele>
        <time>2022-08-26T13:00:39Z</time>
        <extensions>
          <gpxtpx:TrackPointExtension></gpxtpx:TrackPointExtension>
        </extensions>
      </trkpt>
      <trkpt lat="35.883164" lon="115.112453">
        <ele>44.61</ele>
        <time>2022-08-26T13:00:44Z</time>
        <extensions>
          <gpxtpx:TrackPointExtension></gpxtpx:TrackPointExtension>
        </extensions>
      </trkpt>
      <trkpt lat="35.883103" lon="115.112477">
        <ele>44.51</ele>
        <time>2022-08-26T13:00:49Z</time>
        <extensions>
          <gpxtpx:TrackPointExtension></gpxtpx:TrackPointExtension>
        </extensions>
      </trkpt>
      <trkpt lat="35.883069" lon="115.112476">
        <ele>44.6</ele>
        <time>2022-08-26T13:00:54Z</time>
        <extensions>
          <gpxtpx:TrackPointExtension></gpxtpx:TrackPointExtension>
        </extensions>
      </trkpt>
      <trkpt lat="35.883026" lon="115.112465">
        <ele>44.55</ele>
        <time>2022-08-26T13:00:59Z</time>
        <extensions>
          <gpxtpx:TrackPointExtension></gpxtpx:TrackPointExtension>
        </extensions>
      </trkpt>
      <trkpt lat="35.883001" lon="115.112465">
        <ele>44.85</ele>
        <time>2022-08-26T13:01:04Z</time>
        <extensions>
          <gpxtpx:TrackPointExtension></gpxtpx:TrackPointExtension>
        </extensions>
      </trkpt>
      <trkpt lat="35.88296" lon="115.112477">
        <ele>44.64</ele>
        <time>2022-08-26T13:01:09Z</time>
        <extensions>
          <gpxtpx:TrackPointExtension></gpxtpx:TrackPointExtension>
        </extensions>
      </trkpt>
      <trkpt lat="35.882871" lon="115.112472">
        <ele>45.06</ele>
        <time>2022-08-26T13:01:14Z</time>
        <extensions>
          <gpxtpx:TrackPointExtension></gpxtpx:TrackPointExtension>
        </extensions>
      </trkpt>
      <trkpt lat="35.882796" lon="115.112474">
        <ele>44.85</ele>
        <time>2022-08-26T13:01:19Z</time>
        <extensions>
          <gpxtpx:TrackPointExtension></gpxtpx:TrackPointExtension>
        </extensions>
      </trkpt>
      <trkpt lat="35.88272" lon="115.112487">
        <ele>44.8</ele>
        <time>2022-08-26T13:01:24Z</time>
        <extensions>
          <gpxtpx:TrackPointExtension></gpxtpx:TrackPointExtension>
        </extensions>
      </trkpt>
      <trkpt lat="35.882639" lon="115.112488">
        <ele>44.66</ele>
        <time>2022-08-26T13:01:29Z</time>
        <extensions>
          <gpxtpx:TrackPointExtension></gpxtpx:TrackPointExtension>
        </extensions>
      </trkpt>
      <trkpt lat="35.882556" lon="115.112476">
        <ele>44.62</ele>
        <time>2022-08-26T13:01:34Z</time>
        <extensions>
          <gpxtpx:TrackPointExtension></gpxtpx:TrackPointExtension>
        </extensions>
      </trkpt>
      <trkpt lat="35.882479" lon="115.112468">
        <ele>44.71</ele>
        <time>2022-08-26T13:01:39Z</time>
        <extensions>
          <gpxtpx:TrackPointExtension></gpxtpx:TrackPointExtension>
        </extensions>
      </trkpt>
      <trkpt lat="35.882396" lon="115.11246">
        <ele>44.61</ele>
        <time>2022-08-26T13:01:44Z</time>
        <extensions>
          <gpxtpx:TrackPointExtension></gpxtpx:TrackPointExtension>
        </extensions>
      </trkpt>
      <trkpt lat="35.882321" lon="115.112456">
        <ele>44.69</ele>
        <time>2022-08-26T13:01:49Z</time>
        <extensions>
          <gpxtpx:TrackPointExtension></gpxtpx:TrackPointExtension>
        </extensions>
      </trkpt>
      <trkpt lat="35.882242" lon="115.112451">
        <ele>44.63</ele>
        <time>2022-08-26T13:01:54Z</time>
        <extensions>
          <gpxtpx:TrackPointExtension></gpxtpx:TrackPointExtension>
        </extensions>
      </trkpt>
      <trkpt lat="35.882177" lon="115.112423">
        <ele>44.87</ele>
        <time>2022-08-26T13:01:59Z</time>
        <extensions>
          <gpxtpx:TrackPointExtension></gpxtpx:TrackPointExtension>
        </extensions>
      </trkpt>
      <trkpt lat="35.882094" lon="115.112414">
        <ele>44.86</ele>
        <time>2022-08-26T13:02:04Z</time>
        <extensions>
          <gpxtpx:TrackPointExtension></gpxtpx:TrackPointExtension>
        </extensions>
      </trkpt>
      <trkpt lat="35.882011" lon="115.112403">
        <ele>44.88</ele>
        <time>2022-08-26T13:02:09Z</time>
        <extensions>
          <gpxtpx:TrackPointExtension></gpxtpx:TrackPointExtension>
        </extensions>
      </trkpt>
      <trkpt lat="35.881934" lon="115.112386">
        <ele>44.67</ele>
        <time>2022-08-26T13:02:14Z</time>
        <extensions>
          <gpxtpx:TrackPointExtension></gpxtpx:TrackPointExtension>
        </extensions>
      </trkpt>
      <trkpt lat="35.881867" lon="115.112357">
        <ele>44.93</ele>
        <time>2022-08-26T13:02:19Z</time>
        <extensions>
          <gpxtpx:TrackPointExtension></gpxtpx:TrackPointExtension>
        </extensions>
      </trkpt>
      <trkpt lat="35.881791" lon="115.112343">
        <ele>44.9</ele>
        <time>2022-08-26T13:02:24Z</time>
        <extensions>
          <gpxtpx:TrackPointExtension></gpxtpx:TrackPointExtension>
        </extensions>
      </trkpt>
      <trkpt lat="35.88172" lon="115.112319">
        <ele>44.6</ele>
        <time>2022-08-26T13:02:29Z</time>
        <extensions>
          <gpxtpx:TrackPointExtension></gpxtpx:TrackPointExtension>
        </extensions>
      </trkpt>
      <trkpt lat="35.881652" lon="115.112304">
        <ele>44.96</ele>
        <time>2022-08-26T13:02:34Z</time>
        <extensions>
          <gpxtpx:TrackPointExtension></gpxtpx:TrackPointExtension>
        </extensions>
      </trkpt>
      <trkpt lat="35.881561" lon="115.112303">
        <ele>44.95</ele>
        <time>2022-08-26T13:02:39Z</time>
        <extensions>
          <gpxtpx:TrackPointExtension></gpxtpx:TrackPointExtension>
        </extensions>
      </trkpt>
      <trkpt lat="35.881449" lon="115.11228">
        <ele>44.47</ele>
        <time>2022-08-26T13:02:44Z</time>
        <extensions>
          <gpxtpx:TrackPointExtension></gpxtpx:TrackPointExtension>
        </extensions>
      </trkpt>
      <trkpt lat="35.88131" lon="115.112259">
        <ele>44.59</ele>
        <time>2022-08-26T13:02:49Z</time>
        <extensions>
          <gpxtpx:TrackPointExtension></gpxtpx:TrackPointExtension>
        </extensions>
      </trkpt>
      <trkpt lat="35.881164" lon="115.112228">
        <ele>44.43</ele>
        <time>2022-08-26T13:02:54Z</time>
        <extensions>
          <gpxtpx:TrackPointExtension></gpxtpx:TrackPointExtension>
        </extensions>
      </trkpt>
      <trkpt lat="35.881023" lon="115.112178">
        <ele>44.36</ele>
        <time>2022-08-26T13:02:59Z</time>
        <extensions>
          <gpxtpx:TrackPointExtension></gpxtpx:TrackPointExtension>
        </extensions>
      </trkpt>
      <trkpt lat="35.880848" lon="115.112133">
        <ele>44.49</ele>
        <time>2022-08-26T13:03:04Z</time>
        <extensions>
          <gpxtpx:TrackPointExtension></gpxtpx:TrackPointExtension>
        </extensions>
      </trkpt>
      <trkpt lat="35.880666" lon="115.112093">
        <ele>44.54</ele>
        <time>2022-08-26T13:03:09Z</time>
        <extensions>
          <gpxtpx:TrackPointExtension></gpxtpx:TrackPointExtension>
        </extensions>
      </trkpt>
      <trkpt lat="35.880498" lon="115.112078">
        <ele>44.26</ele>
        <time>2022-08-26T13:03:14Z</time>
        <extensions>
          <gpxtpx:TrackPointExtension></gpxtpx:TrackPointExtension>
        </extensions>
      </trkpt>
      <trkpt lat="35.880304" lon="115.112051">
        <ele>44.29</ele>
        <time>2022-08-26T13:03:19Z</time>
        <extensions>
          <gpxtpx:TrackPointExtension></gpxtpx:TrackPointExtension>
        </extensions>
      </trkpt>
      <trkpt lat="35.880122" lon="115.112014">
        <ele>44.44</ele>
        <time>2022-08-26T13:03:24Z</time>
        <extensions>
          <gpxtpx:TrackPointExtension></gpxtpx:TrackPointExtension>
        </extensions>
      </trkpt>
      <trkpt lat="35.879938" lon="115.111969">
        <ele>44</ele>
        <time>2022-08-26T13:03:29Z</time>
        <extensions>
          <gpxtpx:TrackPointExtension></gpxtpx:TrackPointExtension>
        </extensions>
      </trkpt>
      <trkpt lat="35.879752" lon="115.11193">
        <ele>44.4</ele>
        <time>2022-08-26T13:03:34Z</time>
        <extensions>
          <gpxtpx:TrackPointExtension></gpxtpx:TrackPointExtension>
        </extensions>
      </trkpt>
      <trkpt lat="35.879583" lon="115.111912">
        <ele>44.07</ele>
        <time>2022-08-26T13:03:39Z</time>
        <extensions>
          <gpxtpx:TrackPointExtension></gpxtpx:TrackPointExtension>
        </extensions>
      </trkpt>
      <trkpt lat="35.879426" lon="115.111802">
        <ele>44.03</ele>
        <time>2022-08-26T13:03:44Z</time>
        <extensions>
          <gpxtpx:TrackPointExtension></gpxtpx:TrackPointExtension>
        </extensions>
      </trkpt>
      <trkpt lat="35.879468" lon="115.111568">
        <ele>44.48</ele>
        <time>2022-08-26T13:03:49Z</time>
        <extensions>
          <gpxtpx:TrackPointExtension></gpxtpx:TrackPointExtension>
        </extensions>
      </trkpt>
      <trkpt lat="35.879528" lon="115.111375">
        <ele>44.24</ele>
        <time>2022-08-26T13:03:54Z</time>
        <extensions>
          <gpxtpx:TrackPointExtension></gpxtpx:TrackPointExtension>
        </extensions>
      </trkpt>
      <trkpt lat="35.879559" lon="115.111174">
        <ele>44.32</ele>
        <time>2022-08-26T13:03:59Z</time>
        <extensions>
          <gpxtpx:TrackPointExtension></gpxtpx:TrackPointExtension>
        </extensions>
      </trkpt>
      <trkpt lat="35.879581" lon="115.110942">
        <ele>44.55</ele>
        <time>2022-08-26T13:04:04Z</time>
        <extensions>
          <gpxtpx:TrackPointExtension></gpxtpx:TrackPointExtension>
        </extensions>
      </trkpt>
      <trkpt lat="35.879601" lon="115.110723">
        <ele>44.31</ele>
        <time>2022-08-26T13:04:09Z</time>
        <extensions>
          <gpxtpx:TrackPointExtension></gpxtpx:TrackPointExtension>
        </extensions>
      </trkpt>
      <trkpt lat="35.879633" lon="115.11055">
        <ele>44.47</ele>
        <time>2022-08-26T13:04:14Z</time>
        <extensions>
          <gpxtpx:TrackPointExtension></gpxtpx:TrackPointExtension>
        </extensions>
      </trkpt>
      <trkpt lat="35.879668" lon="115.110336">
        <ele>44.29</ele>
        <time>2022-08-26T13:04:19Z</time>
        <extensions>
          <gpxtpx:TrackPointExtension></gpxtpx:TrackPointExtension>
        </extensions>
      </trkpt>
      <trkpt lat="35.879694" lon="115.110127">
        <ele>44.64</ele>
        <time>2022-08-26T13:04:24Z</time>
        <extensions>
          <gpxtpx:TrackPointExtension></gpxtpx:TrackPointExtension>
        </extensions>
      </trkpt>
      <trkpt lat="35.879715" lon="115.10992">
        <ele>44.37</ele>
        <time>2022-08-26T13:04:29Z</time>
        <extensions>
          <gpxtpx:TrackPointExtension></gpxtpx:TrackPointExtension>
        </extensions>
      </trkpt>
      <trkpt lat="35.879753" lon="115.109711">
        <ele>44.32</ele>
        <time>2022-08-26T13:04:34Z</time>
        <extensions>
          <gpxtpx:TrackPointExtension></gpxtpx:TrackPointExtension>
        </extensions>
      </trkpt>
      <trkpt lat="35.879778" lon="115.109517">
        <ele>44.52</ele>
        <time>2022-08-26T13:04:39Z</time>
        <extensions>
          <gpxtpx:TrackPointExtension></gpxtpx:TrackPointExtension>
        </extensions>
      </trkpt>
      <trkpt lat="35.879811" lon="115.109318">
        <ele>44.52</ele>
        <time>2022-08-26T13:04:44Z</time>
        <extensions>
          <gpxtpx:TrackPointExtension></gpxtpx:TrackPointExtension>
        </extensions>
      </trkpt>
      <trkpt lat="35.879823" lon="115.109131">
        <ele>44.59</ele>
        <time>2022-08-26T13:04:49Z</time>
        <extensions>
          <gpxtpx:TrackPointExtension></gpxtpx:TrackPointExtension>
        </extensions>
      </trkpt>
      <trkpt lat="35.87984" lon="115.108941">
        <ele>44.28</ele>
        <time>2022-08-26T13:04:54Z</time>
        <extensions>
          <gpxtpx:TrackPointExtension></gpxtpx:TrackPointExtension>
        </extensions>
      </trkpt>
      <trkpt lat="35.879887" lon="115.108854">
        <ele>44.24</ele>
        <time>2022-08-26T13:04:59Z</time>
        <extensions>
          <gpxtpx:TrackPointExtension></gpxtpx:TrackPointExtension>
        </extensions>
      </trkpt>
      <trkpt lat="35.879904" lon="115.10869">
        <ele>44.5</ele>
        <time>2022-08-26T13:05:04Z</time>
        <extensions>
          <gpxtpx:TrackPointExtension></gpxtpx:TrackPointExtension>
        </extensions>
      </trkpt>
      <trkpt lat="35.879874" lon="115.108508">
        <ele>44.42</ele>
        <time>2022-08-26T13:05:09Z</time>
        <extensions>
          <gpxtpx:TrackPointExtension></gpxtpx:TrackPointExtension>
        </extensions>
      </trkpt>
      <trkpt lat="35.879917" lon="115.108299">
        <ele>44.36</ele>
        <time>2022-08-26T13:05:14Z</time>
        <extensions>
          <gpxtpx:TrackPointExtension></gpxtpx:TrackPointExtension>
        </extensions>
      </trkpt>
      <trkpt lat="35.879943" lon="115.108111">
        <ele>44.4</ele>
        <time>2022-08-26T13:05:19Z</time>
        <extensions>
          <gpxtpx:TrackPointExtension></gpxtpx:TrackPointExtension>
        </extensions>
      </trkpt>
      <trkpt lat="35.879975" lon="115.107915">
        <ele>44.26</ele>
        <time>2022-08-26T13:05:24Z</time>
        <extensions>
          <gpxtpx:TrackPointExtension></gpxtpx:TrackPointExtension>
        </extensions>
      </trkpt>
      <trkpt lat="35.880023" lon="115.107714">
        <ele>44.31</ele>
        <time>2022-08-26T13:05:29Z</time>
        <extensions>
          <gpxtpx:TrackPointExtension></gpxtpx:TrackPointExtension>
        </extensions>
      </trkpt>
      <trkpt lat="35.880054" lon="115.107496">
        <ele>44.22</ele>
        <time>2022-08-26T13:05:34Z</time>
        <extensions>
          <gpxtpx:TrackPointExtension></gpxtpx:TrackPointExtension>
        </extensions>
      </trkpt>
      <trkpt lat="35.880068" lon="115.10733">
        <ele>44.14</ele>
        <time>2022-08-26T13:05:39Z</time>
        <extensions>
          <gpxtpx:TrackPointExtension></gpxtpx:TrackPointExtension>
        </extensions>
      </trkpt>
      <trkpt lat="35.880076" lon="115.107122">
        <ele>44.15</ele>
        <time>2022-08-26T13:05:44Z</time>
        <extensions>
          <gpxtpx:TrackPointExtension></gpxtpx:TrackPointExtension>
        </extensions>
      </trkpt>
      <trkpt lat="35.880104" lon="115.106908">
        <ele>44.3</ele>
        <time>2022-08-26T13:05:49Z</time>
        <extensions>
          <gpxtpx:TrackPointExtension></gpxtpx:TrackPointExtension>
        </extensions>
      </trkpt>
      <trkpt lat="35.880116" lon="115.106681">
        <ele>44.44</ele>
        <time>2022-08-26T13:05:54Z</time>
        <extensions>
          <gpxtpx:TrackPointExtension></gpxtpx:TrackPointExtension>
        </extensions>
      </trkpt>
      <trkpt lat="35.880124" lon="115.106466">
        <ele>44.38</ele>
        <time>2022-08-26T13:05:59Z</time>
        <extensions>
          <gpxtpx:TrackPointExtension></gpxtpx:TrackPointExtension>
        </extensions>
      </trkpt>
      <trkpt lat="35.880134" lon="115.106265">
        <ele>44.11</ele>
        <time>2022-08-26T13:06:04Z</time>
        <extensions>
          <gpxtpx:TrackPointExtension></gpxtpx:TrackPointExtension>
        </extensions>
      </trkpt>
      <trkpt lat="35.880199" lon="115.106083">
        <ele>44.09</ele>
        <time>2022-08-26T13:06:09Z</time>
        <extensions>
          <gpxtpx:TrackPointExtension></gpxtpx:TrackPointExtension>
        </extensions>
      </trkpt>
      <trkpt lat="35.880237" lon="115.10592">
        <ele>44.09</ele>
        <time>2022-08-26T13:06:14Z</time>
        <extensions>
          <gpxtpx:TrackPointExtension></gpxtpx:TrackPointExtension>
        </extensions>
      </trkpt>
      <trkpt lat="35.880268" lon="115.105733">
        <ele>43.96</ele>
        <time>2022-08-26T13:06:19Z</time>
        <extensions>
          <gpxtpx:TrackPointExtension></gpxtpx:TrackPointExtension>
        </extensions>
      </trkpt>
      <trkpt lat="35.8803" lon="115.105569">
        <ele>43.96</ele>
        <time>2022-08-26T13:06:24Z</time>
        <extensions>
          <gpxtpx:TrackPointExtension></gpxtpx:TrackPointExtension>
        </extensions>
      </trkpt>
      <trkpt lat="35.880349" lon="115.105381">
        <ele>43.93</ele>
        <time>2022-08-26T13:06:29Z</time>
        <extensions>
          <gpxtpx:TrackPointExtension></gpxtpx:TrackPointExtension>
        </extensions>
      </trkpt>
      <trkpt lat="35.880368" lon="115.105196">
        <ele>43.83</ele>
        <time>2022-08-26T13:06:34Z</time>
        <extensions>
          <gpxtpx:TrackPointExtension></gpxtpx:TrackPointExtension>
        </extensions>
      </trkpt>
      <trkpt lat="35.880396" lon="115.104979">
        <ele>43.8</ele>
        <time>2022-08-26T13:06:39Z</time>
        <extensions>
          <gpxtpx:TrackPointExtension></gpxtpx:TrackPointExtension>
        </extensions>
      </trkpt>
      <trkpt lat="35.880412" lon="115.104749">
        <ele>43.67</ele>
        <time>2022-08-26T13:06:44Z</time>
        <extensions>
          <gpxtpx:TrackPointExtension></gpxtpx:TrackPointExtension>
        </extensions>
      </trkpt>
      <trkpt lat="35.880433" lon="115.104573">
        <ele>43.78</ele>
        <time>2022-08-26T13:06:49Z</time>
        <extensions>
          <gpxtpx:TrackPointExtension></gpxtpx:TrackPointExtension>
        </extensions>
      </trkpt>
      <trkpt lat="35.88045" lon="115.104368">
        <ele>43.96</ele>
        <time>2022-08-26T13:06:54Z</time>
        <extensions>
          <gpxtpx:TrackPointExtension></gpxtpx:TrackPointExtension>
        </extensions>
      </trkpt>
      <trkpt lat="35.88047" lon="115.104197">
        <ele>43.82</ele>
        <time>2022-08-26T13:06:59Z</time>
        <extensions>
          <gpxtpx:TrackPointExtension></gpxtpx:TrackPointExtension>
        </extensions>
      </trkpt>
      <trkpt lat="35.880493" lon="115.103987">
        <ele>43.65</ele>
        <time>2022-08-26T13:07:04Z</time>
        <extensions>
          <gpxtpx:TrackPointExtension></gpxtpx:TrackPointExtension>
        </extensions>
      </trkpt>
      <trkpt lat="35.880544" lon="115.103753">
        <ele>43.76</ele>
        <time>2022-08-26T13:07:09Z</time>
        <extensions>
          <gpxtpx:TrackPointExtension></gpxtpx:TrackPointExtension>
        </extensions>
      </trkpt>
      <trkpt lat="35.880565" lon="115.103585">
        <ele>43.9</ele>
        <time>2022-08-26T13:07:14Z</time>
        <extensions>
          <gpxtpx:TrackPointExtension></gpxtpx:TrackPointExtension>
        </extensions>
      </trkpt>
      <trkpt lat="35.88057" lon="115.103683">
        <ele>43.92</ele>
        <time>2022-08-26T13:07:19Z</time>
        <extensions>
          <gpxtpx:TrackPointExtension></gpxtpx:TrackPointExtension>
        </extensions>
      </trkpt>
      <trkpt lat="35.88052" lon="115.103881">
        <ele>43.64</ele>
        <time>2022-08-26T13:07:24Z</time>
        <extensions>
          <gpxtpx:TrackPointExtension></gpxtpx:TrackPointExtension>
        </extensions>
      </trkpt>
      <trkpt lat="35.880478" lon="115.104091">
        <ele>43.86</ele>
        <time>2022-08-26T13:07:29Z</time>
        <extensions>
          <gpxtpx:TrackPointExtension></gpxtpx:TrackPointExtension>
        </extensions>
      </trkpt>
      <trkpt lat="35.880466" lon="115.104254">
        <ele>43.86</ele>
        <time>2022-08-26T13:07:34Z</time>
        <extensions>
          <gpxtpx:TrackPointExtension></gpxtpx:TrackPointExtension>
        </extensions>
      </trkpt>
      <trkpt lat="35.880424" lon="115.104453">
        <ele>44.02</ele>
        <time>2022-08-26T13:07:39Z</time>
        <extensions>
          <gpxtpx:TrackPointExtension></gpxtpx:TrackPointExtension>
        </extensions>
      </trkpt>
      <trkpt lat="35.88039" lon="115.104678">
        <ele>43.91</ele>
        <time>2022-08-26T13:07:44Z</time>
        <extensions>
          <gpxtpx:TrackPointExtension></gpxtpx:TrackPointExtension>
        </extensions>
      </trkpt>
      <trkpt lat="35.8804" lon="115.10485">
        <ele>43.85</ele>
        <time>2022-08-26T13:07:49Z</time>
        <extensions>
          <gpxtpx:TrackPointExtension></gpxtpx:TrackPointExtension>
        </extensions>
      </trkpt>
      <trkpt lat="35.880388" lon="115.105027">
        <ele>43.86</ele>
        <time>2022-08-26T13:07:54Z</time>
        <extensions>
          <gpxtpx:TrackPointExtension></gpxtpx:TrackPointExtension>
        </extensions>
      </trkpt>
      <trkpt lat="35.880369" lon="115.105224">
        <ele>43.78</ele>
        <time>2022-08-26T13:07:59Z</time>
        <extensions>
          <gpxtpx:TrackPointExtension></gpxtpx:TrackPointExtension>
        </extensions>
      </trkpt>
      <trkpt lat="35.880338" lon="115.105424">
        <ele>44.17</ele>
        <time>2022-08-26T13:08:04Z</time>
        <extensions>
          <gpxtpx:TrackPointExtension></gpxtpx:TrackPointExtension>
        </extensions>
      </trkpt>
      <trkpt lat="35.880285" lon="115.105615">
        <ele>43.92</ele>
        <time>2022-08-26T13:08:09Z</time>
        <extensions>
          <gpxtpx:TrackPointExtension></gpxtpx:TrackPointExtension>
        </extensions>
      </trkpt>
      <trkpt lat="35.880233" lon="115.105832">
        <ele>43.93</ele>
        <time>2022-08-26T13:08:14Z</time>
        <extensions>
          <gpxtpx:TrackPointExtension></gpxtpx:TrackPointExtension>
        </extensions>
      </trkpt>
      <trkpt lat="35.880183" lon="115.106069">
        <ele>43.89</ele>
        <time>2022-08-26T13:08:19Z</time>
        <extensions>
          <gpxtpx:TrackPointExtension></gpxtpx:TrackPointExtension>
        </extensions>
      </trkpt>
      <trkpt lat="35.880173" lon="115.106264">
        <ele>43.95</ele>
        <time>2022-08-26T13:08:24Z</time>
        <extensions>
          <gpxtpx:TrackPointExtension></gpxtpx:TrackPointExtension>
        </extensions>
      </trkpt>
      <trkpt lat="35.880144" lon="115.106439">
        <ele>44.1</ele>
        <time>2022-08-26T13:08:29Z</time>
        <extensions>
          <gpxtpx:TrackPointExtension></gpxtpx:TrackPointExtension>
        </extensions>
      </trkpt>
      <trkpt lat="35.880161" lon="115.106641">
        <ele>44</ele>
        <time>2022-08-26T13:08:34Z</time>
        <extensions>
          <gpxtpx:TrackPointExtension></gpxtpx:TrackPointExtension>
        </extensions>
      </trkpt>
      <trkpt lat="35.88013" lon="115.106843">
        <ele>44.14</ele>
        <time>2022-08-26T13:08:39Z</time>
        <extensions>
          <gpxtpx:TrackPointExtension></gpxtpx:TrackPointExtension>
        </extensions>
      </trkpt>
      <trkpt lat="35.880117" lon="115.107005">
        <ele>44</ele>
        <time>2022-08-26T13:08:44Z</time>
        <extensions>
          <gpxtpx:TrackPointExtension></gpxtpx:TrackPointExtension>
        </extensions>
      </trkpt>
      <trkpt lat="35.88014" lon="115.107011">
        <ele>44.13</ele>
        <time>2022-08-26T13:08:49Z</time>
        <extensions>
          <gpxtpx:TrackPointExtension></gpxtpx:TrackPointExtension>
        </extensions>
      </trkpt>
      <trkpt lat="35.880143" lon="115.10677">
        <ele>44.27</ele>
        <time>2022-08-26T13:08:54Z</time>
        <extensions>
          <gpxtpx:TrackPointExtension></gpxtpx:TrackPointExtension>
        </extensions>
      </trkpt>
      <trkpt lat="35.880162" lon="115.106552">
        <ele>44.22</ele>
        <time>2022-08-26T13:08:59Z</time>
        <extensions>
          <gpxtpx:TrackPointExtension></gpxtpx:TrackPointExtension>
        </extensions>
      </trkpt>
      <trkpt lat="35.88019" lon="115.106362">
        <ele>43.99</ele>
        <time>2022-08-26T13:09:04Z</time>
        <extensions>
          <gpxtpx:TrackPointExtension></gpxtpx:TrackPointExtension>
        </extensions>
      </trkpt>
      <trkpt lat="35.880211" lon="115.106209">
        <ele>43.97</ele>
        <time>2022-08-26T13:09:09Z</time>
        <extensions>
          <gpxtpx:TrackPointExtension></gpxtpx:TrackPointExtension>
        </extensions>
      </trkpt>
      <trkpt lat="35.880231" lon="115.106">
        <ele>43.94</ele>
        <time>2022-08-26T13:09:14Z</time>
        <extensions>
          <gpxtpx:TrackPointExtension></gpxtpx:TrackPointExtension>
        </extensions>
      </trkpt>
      <trkpt lat="35.880262" lon="115.105777">
        <ele>44.03</ele>
        <time>2022-08-26T13:09:19Z</time>
        <extensions>
          <gpxtpx:TrackPointExtension></gpxtpx:TrackPointExtension>
        </extensions>
      </trkpt>
      <trkpt lat="35.880287" lon="115.105605">
        <ele>43.91</ele>
        <time>2022-08-26T13:09:24Z</time>
        <extensions>
          <gpxtpx:TrackPointExtension></gpxtpx:TrackPointExtension>
        </extensions>
      </trkpt>
      <trkpt lat="35.88031" lon="115.105419">
        <ele>43.97</ele>
        <time>2022-08-26T13:09:29Z</time>
        <extensions>
          <gpxtpx:TrackPointExtension></gpxtpx:TrackPointExtension>
        </extensions>
      </trkpt>
      <trkpt lat="35.880333" lon="115.105254">
        <ele>43.68</ele>
        <time>2022-08-26T13:09:34Z</time>
        <extensions>
          <gpxtpx:TrackPointExtension></gpxtpx:TrackPointExtension>
        </extensions>
      </trkpt>
      <trkpt lat="35.880364" lon="115.105089">
        <ele>43.79</ele>
        <time>2022-08-26T13:09:39Z</time>
        <extensions>
          <gpxtpx:TrackPointExtension></gpxtpx:TrackPointExtension>
        </extensions>
      </trkpt>
      <trkpt lat="35.88039" lon="115.104925">
        <ele>43.82</ele>
        <time>2022-08-26T13:09:44Z</time>
        <extensions>
          <gpxtpx:TrackPointExtension></gpxtpx:TrackPointExtension>
        </extensions>
      </trkpt>
      <trkpt lat="35.880435" lon="115.104772">
        <ele>43.92</ele>
        <time>2022-08-26T13:09:49Z</time>
        <extensions>
          <gpxtpx:TrackPointExtension></gpxtpx:TrackPointExtension>
        </extensions>
      </trkpt>
      <trkpt lat="35.880466" lon="115.104606">
        <ele>43.85</ele>
        <time>2022-08-26T13:09:54Z</time>
        <extensions>
          <gpxtpx:TrackPointExtension></gpxtpx:TrackPointExtension>
        </extensions>
      </trkpt>
      <trkpt lat="35.880477" lon="115.104404">
        <ele>44</ele>
        <time>2022-08-26T13:09:59Z</time>
        <extensions>
          <gpxtpx:TrackPointExtension></gpxtpx:TrackPointExtension>
        </extensions>
      </trkpt>
      <trkpt lat="35.880488" lon="115.104241">
        <ele>43.66</ele>
        <time>2022-08-26T13:10:04Z</time>
        <extensions>
          <gpxtpx:TrackPointExtension></gpxtpx:TrackPointExtension>
        </extensions>
      </trkpt>
      <trkpt lat="35.880496" lon="115.104089">
        <ele>43.82</ele>
        <time>2022-08-26T13:10:09Z</time>
        <extensions>
          <gpxtpx:TrackPointExtension></gpxtpx:TrackPointExtension>
        </extensions>
      </trkpt>
      <trkpt lat="35.880512" lon="115.103927">
        <ele>43.86</ele>
        <time>2022-08-26T13:10:14Z</time>
        <extensions>
          <gpxtpx:TrackPointExtension></gpxtpx:TrackPointExtension>
        </extensions>
      </trkpt>
      <trkpt lat="35.880532" lon="115.103762">
        <ele>43.66</ele>
        <time>2022-08-26T13:10:19Z</time>
        <extensions>
          <gpxtpx:TrackPointExtension></gpxtpx:TrackPointExtension>
        </extensions>
      </trkpt>
      <trkpt lat="35.88055" lon="115.103626">
        <ele>43.88</ele>
        <time>2022-08-26T13:10:24Z</time>
        <extensions>
          <gpxtpx:TrackPointExtension></gpxtpx:TrackPointExtension>
        </extensions>
      </trkpt>
      <trkpt lat="35.880557" lon="115.103642">
        <ele>43.64</ele>
        <time>2022-08-26T13:10:29Z</time>
        <extensions>
          <gpxtpx:TrackPointExtension></gpxtpx:TrackPointExtension>
        </extensions>
      </trkpt>
      <trkpt lat="35.880548" lon="115.103807">
        <ele>43.66</ele>
        <time>2022-08-26T13:10:34Z</time>
        <extensions>
          <gpxtpx:TrackPointExtension></gpxtpx:TrackPointExtension>
        </extensions>
      </trkpt>
      <trkpt lat="35.880512" lon="115.103998">
        <ele>43.75</ele>
        <time>2022-08-26T13:10:39Z</time>
        <extensions>
          <gpxtpx:TrackPointExtension></gpxtpx:TrackPointExtension>
        </extensions>
      </trkpt>
      <trkpt lat="35.880494" lon="115.104163">
        <ele>43.62</ele>
        <time>2022-08-26T13:10:44Z</time>
        <extensions>
          <gpxtpx:TrackPointExtension></gpxtpx:TrackPointExtension>
        </extensions>
      </trkpt>
      <trkpt lat="35.880462" lon="115.104347">
        <ele>43.83</ele>
        <time>2022-08-26T13:10:49Z</time>
        <extensions>
          <gpxtpx:TrackPointExtension></gpxtpx:TrackPointExtension>
        </extensions>
      </trkpt>
      <trkpt lat="35.880438" lon="115.104528">
        <ele>43.65</ele>
        <time>2022-08-26T13:10:54Z</time>
        <extensions>
          <gpxtpx:TrackPointExtension></gpxtpx:TrackPointExtension>
        </extensions>
      </trkpt>
      <trkpt lat="35.880403" lon="115.104729">
        <ele>43.73</ele>
        <time>2022-08-26T13:10:59Z</time>
        <extensions>
          <gpxtpx:TrackPointExtension></gpxtpx:TrackPointExtension>
        </extensions>
      </trkpt>
      <trkpt lat="35.880393" lon="115.104911">
        <ele>43.9</ele>
        <time>2022-08-26T13:11:04Z</time>
        <extensions>
          <gpxtpx:TrackPointExtension></gpxtpx:TrackPointExtension>
        </extensions>
      </trkpt>
      <trkpt lat="35.880371" lon="115.105084">
        <ele>43.65</ele>
        <time>2022-08-26T13:11:09Z</time>
        <extensions>
          <gpxtpx:TrackPointExtension></gpxtpx:TrackPointExtension>
        </extensions>
      </trkpt>
      <trkpt lat="35.88033" lon="115.105272">
        <ele>43.96</ele>
        <time>2022-08-26T13:11:14Z</time>
        <extensions>
          <gpxtpx:TrackPointExtension></gpxtpx:TrackPointExtension>
        </extensions>
      </trkpt>
      <trkpt lat="35.880304" lon="115.105475">
        <ele>43.86</ele>
        <time>2022-08-26T13:11:19Z</time>
        <extensions>
          <gpxtpx:TrackPointExtension></gpxtpx:TrackPointExtension>
        </extensions>
      </trkpt>
      <trkpt lat="35.880303" lon="115.105704">
        <ele>43.92</ele>
        <time>2022-08-26T13:11:24Z</time>
        <extensions>
          <gpxtpx:TrackPointExtension></gpxtpx:TrackPointExtension>
        </extensions>
      </trkpt>
      <trkpt lat="35.880251" lon="115.10592">
        <ele>43.98</ele>
        <time>2022-08-26T13:11:29Z</time>
        <extensions>
          <gpxtpx:TrackPointExtension></gpxtpx:TrackPointExtension>
        </extensions>
      </trkpt>
      <trkpt lat="35.880226" lon="115.106065">
        <ele>43.92</ele>
        <time>2022-08-26T13:11:34Z</time>
        <extensions>
          <gpxtpx:TrackPointExtension></gpxtpx:TrackPointExtension>
        </extensions>
      </trkpt>
      <trkpt lat="35.880179" lon="115.106257">
        <ele>43.85</ele>
        <time>2022-08-26T13:11:39Z</time>
        <extensions>
          <gpxtpx:TrackPointExtension></gpxtpx:TrackPointExtension>
        </extensions>
      </trkpt>
      <trkpt lat="35.880138" lon="115.10644">
        <ele>44.18</ele>
        <time>2022-08-26T13:11:44Z</time>
        <extensions>
          <gpxtpx:TrackPointExtension></gpxtpx:TrackPointExtension>
        </extensions>
      </trkpt>
      <trkpt lat="35.880115" lon="115.106614">
        <ele>43.82</ele>
        <time>2022-08-26T13:11:49Z</time>
        <extensions>
          <gpxtpx:TrackPointExtension></gpxtpx:TrackPointExtension>
        </extensions>
      </trkpt>
      <trkpt lat="35.880107" lon="115.106791">
        <ele>44.02</ele>
        <time>2022-08-26T13:11:54Z</time>
        <extensions>
          <gpxtpx:TrackPointExtension></gpxtpx:TrackPointExtension>
        </extensions>
      </trkpt>
      <trkpt lat="35.880108" lon="115.106998">
        <ele>43.77</ele>
        <time>2022-08-26T13:11:59Z</time>
        <extensions>
          <gpxtpx:TrackPointExtension></gpxtpx:TrackPointExtension>
        </extensions>
      </trkpt>
      <trkpt lat="35.880073" lon="115.107198">
        <ele>43.94</ele>
        <time>2022-08-26T13:12:04Z</time>
        <extensions>
          <gpxtpx:TrackPointExtension></gpxtpx:TrackPointExtension>
        </extensions>
      </trkpt>
      <trkpt lat="35.880055" lon="115.107317">
        <ele>43.6</ele>
        <time>2022-08-26T13:12:09Z</time>
        <extensions>
          <gpxtpx:TrackPointExtension></gpxtpx:TrackPointExtension>
        </extensions>
      </trkpt>
      <trkpt lat="35.880033" lon="115.107462">
        <ele>43.86</ele>
        <time>2022-08-26T13:12:14Z</time>
        <extensions>
          <gpxtpx:TrackPointExtension></gpxtpx:TrackPointExtension>
        </extensions>
      </trkpt>
      <trkpt lat="35.880011" lon="115.107694">
        <ele>43.85</ele>
        <time>2022-08-26T13:12:19Z</time>
        <extensions>
          <gpxtpx:TrackPointExtension></gpxtpx:TrackPointExtension>
        </extensions>
      </trkpt>
      <trkpt lat="35.879968" lon="115.107926">
        <ele>43.91</ele>
        <time>2022-08-26T13:12:24Z</time>
        <extensions>
          <gpxtpx:TrackPointExtension></gpxtpx:TrackPointExtension>
        </extensions>
      </trkpt>
      <trkpt lat="35.879963" lon="115.108134">
        <ele>44.04</ele>
        <time>2022-08-26T13:12:29Z</time>
        <extensions>
          <gpxtpx:TrackPointExtension></gpxtpx:TrackPointExtension>
        </extensions>
      </trkpt>
      <trkpt lat="35.879929" lon="115.108339">
        <ele>43.86</ele>
        <time>2022-08-26T13:12:34Z</time>
        <extensions>
          <gpxtpx:TrackPointExtension></gpxtpx:TrackPointExtension>
        </extensions>
      </trkpt>
      <trkpt lat="35.879901" lon="115.10854">
        <ele>43.82</ele>
        <time>2022-08-26T13:12:39Z</time>
        <extensions>
          <gpxtpx:TrackPointExtension></gpxtpx:TrackPointExtension>
        </extensions>
      </trkpt>
      <trkpt lat="35.879921" lon="115.10873">
        <ele>43.76</ele>
        <time>2022-08-26T13:12:44Z</time>
        <extensions>
          <gpxtpx:TrackPointExtension></gpxtpx:TrackPointExtension>
        </extensions>
      </trkpt>
      <trkpt lat="35.879913" lon="115.1089">
        <ele>44.16</ele>
        <time>2022-08-26T13:12:49Z</time>
        <extensions>
          <gpxtpx:TrackPointExtension></gpxtpx:TrackPointExtension>
        </extensions>
      </trkpt>
      <trkpt lat="35.879833" lon="115.109066">
        <ele>43.74</ele>
        <time>2022-08-26T13:12:54Z</time>
        <extensions>
          <gpxtpx:TrackPointExtension></gpxtpx:TrackPointExtension>
        </extensions>
      </trkpt>
      <trkpt lat="35.879809" lon="115.109253">
        <ele>43.75</ele>
        <time>2022-08-26T13:12:59Z</time>
        <extensions>
          <gpxtpx:TrackPointExtension></gpxtpx:TrackPointExtension>
        </extensions>
      </trkpt>
      <trkpt lat="35.87981" lon="115.109443">
        <ele>43.54</ele>
        <time>2022-08-26T13:13:04Z</time>
        <extensions>
          <gpxtpx:TrackPointExtension></gpxtpx:TrackPointExtension>
        </extensions>
      </trkpt>
      <trkpt lat="35.879763" lon="115.109639">
        <ele>43.71</ele>
        <time>2022-08-26T13:13:09Z</time>
        <extensions>
          <gpxtpx:TrackPointExtension></gpxtpx:TrackPointExtension>
        </extensions>
      </trkpt>
      <trkpt lat="35.879745" lon="115.109817">
        <ele>43.69</ele>
        <time>2022-08-26T13:13:14Z</time>
        <extensions>
          <gpxtpx:TrackPointExtension></gpxtpx:TrackPointExtension>
        </extensions>
      </trkpt>
      <trkpt lat="35.879732" lon="115.109989">
        <ele>43.67</ele>
        <time>2022-08-26T13:13:19Z</time>
        <extensions>
          <gpxtpx:TrackPointExtension></gpxtpx:TrackPointExtension>
        </extensions>
      </trkpt>
      <trkpt lat="35.879715" lon="115.110146">
        <ele>43.8</ele>
        <time>2022-08-26T13:13:24Z</time>
        <extensions>
          <gpxtpx:TrackPointExtension></gpxtpx:TrackPointExtension>
        </extensions>
      </trkpt>
      <trkpt lat="35.879656" lon="115.110319">
        <ele>43.76</ele>
        <time>2022-08-26T13:13:29Z</time>
        <extensions>
          <gpxtpx:TrackPointExtension></gpxtpx:TrackPointExtension>
        </extensions>
      </trkpt>
      <trkpt lat="35.879632" lon="115.110493">
        <ele>43.62</ele>
        <time>2022-08-26T13:13:34Z</time>
        <extensions>
          <gpxtpx:TrackPointExtension></gpxtpx:TrackPointExtension>
        </extensions>
      </trkpt>
      <trkpt lat="35.87961" lon="115.110667">
        <ele>43.66</ele>
        <time>2022-08-26T13:13:39Z</time>
        <extensions>
          <gpxtpx:TrackPointExtension></gpxtpx:TrackPointExtension>
        </extensions>
      </trkpt>
      <trkpt lat="35.879604" lon="115.110779">
        <ele>43.64</ele>
        <time>2022-08-26T13:13:44Z</time>
        <extensions>
          <gpxtpx:TrackPointExtension></gpxtpx:TrackPointExtension>
        </extensions>
      </trkpt>
      <trkpt lat="35.879585" lon="115.110958">
        <ele>43.74</ele>
        <time>2022-08-26T13:13:49Z</time>
        <extensions>
          <gpxtpx:TrackPointExtension></gpxtpx:TrackPointExtension>
        </extensions>
      </trkpt>
      <trkpt lat="35.879569" lon="115.111079">
        <ele>43.65</ele>
        <time>2022-08-26T13:13:54Z</time>
        <extensions>
          <gpxtpx:TrackPointExtension></gpxtpx:TrackPointExtension>
        </extensions>
      </trkpt>
      <trkpt lat="35.87956" lon="115.111224">
        <ele>43.41</ele>
        <time>2022-08-26T13:13:59Z</time>
        <extensions>
          <gpxtpx:TrackPointExtension></gpxtpx:TrackPointExtension>
        </extensions>
      </trkpt>
      <trkpt lat="35.879527" lon="115.111429">
        <ele>43.75</ele>
        <time>2022-08-26T13:14:04Z</time>
        <extensions>
          <gpxtpx:TrackPointExtension></gpxtpx:TrackPointExtension>
        </extensions>
      </trkpt>
      <trkpt lat="35.879495" lon="115.111516">
        <ele>43.62</ele>
        <time>2022-08-26T13:14:09Z</time>
        <extensions>
          <gpxtpx:TrackPointExtension></gpxtpx:TrackPointExtension>
        </extensions>
      </trkpt>
      <trkpt lat="35.879517" lon="115.111354">
        <ele>43.65</ele>
        <time>2022-08-26T13:14:14Z</time>
        <extensions>
          <gpxtpx:TrackPointExtension></gpxtpx:TrackPointExtension>
        </extensions>
      </trkpt>
      <trkpt lat="35.879534" lon="115.111155">
        <ele>43.76</ele>
        <time>2022-08-26T13:14:19Z</time>
        <extensions>
          <gpxtpx:TrackPointExtension></gpxtpx:TrackPointExtension>
        </extensions>
      </trkpt>
      <trkpt lat="35.879566" lon="115.110976">
        <ele>43.85</ele>
        <time>2022-08-26T13:14:24Z</time>
        <extensions>
          <gpxtpx:TrackPointExtension></gpxtpx:TrackPointExtension>
        </extensions>
      </trkpt>
      <trkpt lat="35.879598" lon="115.110785">
        <ele>43.6</ele>
        <time>2022-08-26T13:14:29Z</time>
        <extensions>
          <gpxtpx:TrackPointExtension></gpxtpx:TrackPointExtension>
        </extensions>
      </trkpt>
      <trkpt lat="35.879626" lon="115.110594">
        <ele>43.5</ele>
        <time>2022-08-26T13:14:34Z</time>
        <extensions>
          <gpxtpx:TrackPointExtension></gpxtpx:TrackPointExtension>
        </extensions>
      </trkpt>
      <trkpt lat="35.879664" lon="115.110395">
        <ele>43.76</ele>
        <time>2022-08-26T13:14:39Z</time>
        <extensions>
          <gpxtpx:TrackPointExtension></gpxtpx:TrackPointExtension>
        </extensions>
      </trkpt>
      <trkpt lat="35.879696" lon="115.110207">
        <ele>43.74</ele>
        <time>2022-08-26T13:14:44Z</time>
        <extensions>
          <gpxtpx:TrackPointExtension></gpxtpx:TrackPointExtension>
        </extensions>
      </trkpt>
      <trkpt lat="35.879706" lon="115.110024">
        <ele>43.55</ele>
        <time>2022-08-26T13:14:49Z</time>
        <extensions>
          <gpxtpx:TrackPointExtension></gpxtpx:TrackPointExtension>
        </extensions>
      </trkpt>
      <trkpt lat="35.879734" lon="115.109825">
        <ele>43.53</ele>
        <time>2022-08-26T13:14:54Z</time>
        <extensions>
          <gpxtpx:TrackPointExtension></gpxtpx:TrackPointExtension>
        </extensions>
      </trkpt>
      <trkpt lat="35.879775" lon="115.109651">
        <ele>43.6</ele>
        <time>2022-08-26T13:14:59Z</time>
        <extensions>
          <gpxtpx:TrackPointExtension></gpxtpx:TrackPointExtension>
        </extensions>
      </trkpt>
      <trkpt lat="35.879777" lon="115.109543">
        <ele>43.97</ele>
        <time>2022-08-26T13:15:04Z</time>
        <extensions>
          <gpxtpx:TrackPointExtension></gpxtpx:TrackPointExtension>
        </extensions>
      </trkpt>
      <trkpt lat="35.879743" lon="115.109858">
        <ele>43.37</ele>
        <time>2022-08-26T13:15:09Z</time>
        <extensions>
          <gpxtpx:TrackPointExtension></gpxtpx:TrackPointExtension>
        </extensions>
      </trkpt>
      <trkpt lat="35.879702" lon="115.110124">
        <ele>43.67</ele>
        <time>2022-08-26T13:15:14Z</time>
        <extensions>
          <gpxtpx:TrackPointExtension></gpxtpx:TrackPointExtension>
        </extensions>
      </trkpt>
      <trkpt lat="35.879699" lon="115.110375">
        <ele>43.47</ele>
        <time>2022-08-26T13:15:19Z</time>
        <extensions>
          <gpxtpx:TrackPointExtension></gpxtpx:TrackPointExtension>
        </extensions>
      </trkpt>
      <trkpt lat="35.879658" lon="115.110593">
        <ele>43.76</ele>
        <time>2022-08-26T13:15:24Z</time>
        <extensions>
          <gpxtpx:TrackPointExtension></gpxtpx:TrackPointExtension>
        </extensions>
      </trkpt>
      <trkpt lat="35.879616" lon="115.110807">
        <ele>43.78</ele>
        <time>2022-08-26T13:15:41Z</time>
        <extensions>
          <gpxtpx:TrackPointExtension></gpxtpx:TrackPointExtension>
        </extensions>
      </trkpt>
    </trkseg>
  </trk>
</gpx>