<?xml version="1.0" encoding="UTF-8"?>
<gpx xmlns="http://www.topografix.com/GPX/1/1" xmlns:gpxtpx="http://www.garmin.com/xmlschemas/TrackPointExtension/v1" xmlns:xsi="http://www.w3.org/2001/XMLSchema-instance" xsi:schemaLocation="http://www.topografix.com/GPX/1/1 http://www.topografix.com/GPX/1/1/gpx.xsd" version="1.1" creator="gpx.py -- https://github.com/tkrajina/gpxpy">
  <trk>
    <name>gpx from keep</name>
    <type>Ride</type>
    <trkseg>
      <trkpt lat="35.8763408671618" lon="115.07504506148302">
        <ele>35.577287814579904</ele>
        <time>2022-09-03T07:33:39Z</time>
      </trkpt>
      <trkpt lat="35.87641386937923" lon="115.075015087765">
        <ele>31.372391225770116</ele>
        <time>2022-09-03T07:33:40Z</time>
      </trkpt>
      <trkpt lat="35.87648182342011" lon="115.07504904154051">
        <ele>29.460329878143966</ele>
        <time>2022-09-03T07:33:44Z</time>
      </trkpt>
      <trkpt lat="35.8763918138183" lon="115.07644051638292">
        <ele>34.78643157426268</ele>
        <time>2022-09-03T07:34:07Z</time>
      </trkpt>
      <trkpt lat="35.87637774831126" lon="115.07653841398104">
        <ele>28.44641446135938</ele>
        <time>2022-09-03T07:34:09Z</time>
      </trkpt>
      <trkpt lat="35.876392565061465" lon="115.07679314441336">
        <ele>22.156522788107395</ele>
        <time>2022-09-03T07:34:14Z</time>
      </trkpt>
      <trkpt lat="35.87638447796803" lon="115.07692201111901">
        <ele>23.156554657034576</ele>
        <time>2022-09-03T07:34:16Z</time>
      </trkpt>
      <trkpt lat="35.87646502614504" lon="115.0775553563104">
        <ele>27.01764207519591</ele>
        <time>2022-09-03T07:34:26Z</time>
      </trkpt>
      <trkpt lat="35.87647685610892" lon="115.07780910246622">
        <ele>27.98546745814383</ele>
        <time>2022-09-03T07:34:30Z</time>
      </trkpt>
      <trkpt lat="35.876459697339264" lon="115.07806285536911">
        <ele>27.715712104924023</ele>
        <time>2022-09-03T07:34:34Z</time>
      </trkpt>
      <trkpt lat="35.87638046081668" lon="115.07847446779765">
        <ele>28.59214268811047</ele>
        <time>2022-09-03T07:34:40Z</time>
      </trkpt>
      <trkpt lat="35.87638029504222" lon="115.07874421327092">
        <ele>28.662074517458677</ele>
        <time>2022-09-03T07:34:43Z</time>
      </trkpt>
      <trkpt lat="35.87642716740782" lon="115.07893303238221">
        <ele>28.98087921831757</ele>
        <time>2022-09-03T07:34:45Z</time>
      </trkpt>
      <trkpt lat="35.87651404582706" lon="115.07909487381558">
        <ele>28.835484905168414</ele>
        <time>2022-09-03T07:34:47Z</time>
      </trkpt>
      <trkpt lat="35.87662293900408" lon="115.07922274516518">
        <ele>29.589253339916468</ele>
        <time>2022-09-03T07:34:49Z</time>
      </trkpt>
      <trkpt lat="35.876743851563845" lon="115.07931265041113">
        <ele>29.92382100224495</ele>
        <time>2022-09-03T07:34:51Z</time>
      </trkpt>
      <trkpt lat="35.876955761461424" lon="115.07936258216284">
        <ele>29.727576692588627</ele>
        <time>2022-09-03T07:34:54Z</time>
      </trkpt>
      <trkpt lat="35.877410677668955" lon="115.07928160565108">
        <ele>32.191918056458235</ele>
        <time>2022-09-03T07:35:00Z</time>
      </trkpt>
      <trkpt lat="35.877868550696974" lon="115.07927356290702">
        <ele>34.656663313508034</ele>
        <time>2022-09-03T07:35:06Z</time>
      </trkpt>
      <trkpt lat="35.8783033369711" lon="115.07942637749446">
        <ele>35.62999271322042</ele>
        <time>2022-09-03T07:35:12Z</time>
      </trkpt>
      <trkpt lat="35.87874409141347" lon="115.07963414392573">
        <ele>36.36141730006784</ele>
        <time>2022-09-03T07:35:18Z</time>
      </trkpt>
      <trkpt lat="35.87897500253214" lon="115.0796740833261">
        <ele>36.062582979910076</ele>
        <time>2022-09-03T07:35:21Z</time>
      </trkpt>
      <trkpt lat="35.87928094948651" lon="115.07961310392177">
        <ele>37.053654667921364</ele>
        <time>2022-09-03T07:35:25Z</time>
      </trkpt>
      <trkpt lat="35.87947793872844" lon="115.0795331535479">
        <ele>38.272422179579735</ele>
        <time>2022-09-03T07:35:29Z</time>
      </trkpt>
      <trkpt lat="35.87955491840945" lon="115.07953014781712">
        <ele>37.14661623351276</ele>
        <time>2022-09-03T07:35:31Z</time>
      </trkpt>
      <trkpt lat="35.87966698432524" lon="115.07936028795208">
        <ele>35.78100834134966</ele>
        <time>2022-09-03T07:35:37Z</time>
      </trkpt>
      <trkpt lat="35.87976796820683" lon="115.07933829676199">
        <ele>34.515291640535</ele>
        <time>2022-09-03T07:35:40Z</time>
      </trkpt>
      <trkpt lat="35.879869928004524" lon="115.07935726849661">
        <ele>33.35678916238248</ele>
        <time>2022-09-03T07:35:43Z</time>
      </trkpt>
      <trkpt lat="35.8799578767798" lon="115.0794022183962">
        <ele>32.32104004826397</ele>
        <time>2022-09-03T07:35:46Z</time>
      </trkpt>
      <trkpt lat="35.88007976369037" lon="115.0795380833787">
        <ele>31.087864405475557</ele>
        <time>2022-09-03T07:35:52Z</time>
      </trkpt>
      <trkpt lat="35.880352644049275" lon="115.07961098867709">
        <ele>31.85407291445881</ele>
        <time>2022-09-03T07:35:59Z</time>
      </trkpt>
      <trkpt lat="35.88078637546566" lon="115.07986771516802">
        <ele>31.834641900844872</ele>
        <time>2022-09-03T07:36:09Z</time>
      </trkpt>
      <trkpt lat="35.88087432311055" lon="115.07991666286297">
        <ele>31.913285391405225</ele>
        <time>2022-09-03T07:36:11Z</time>
      </trkpt>
      <trkpt lat="35.880977281531166" lon="115.07993863249133">
        <ele>32.181126727722585</ele>
        <time>2022-09-03T07:36:13Z</time>
      </trkpt>
      <trkpt lat="35.88107825716053" lon="115.0799306284176">
        <ele>32.214008297771215</ele>
        <time>2022-09-03T07:36:15Z</time>
      </trkpt>
    </trkseg>
  </trk>
</gpx>