<?xml version="1.0" encoding="UTF-8"?>
<gpx xmlns="http://www.topografix.com/GPX/1/1" xmlns:gpxtpx="http://www.garmin.com/xmlschemas/TrackPointExtension/v1" xmlns:xsi="http://www.w3.org/2001/XMLSchema-instance" xsi:schemaLocation="http://www.topografix.com/GPX/1/1 http://www.topografix.com/GPX/1/1/gpx.xsd" version="1.1" creator="gpx.py -- https://github.com/tkrajina/gpxpy">
  <trk>
    <name>gpx from keep</name>
    <type>Run</type>
    <trkseg>
      <trkpt lat="34.81093911705627" lon="113.52630851166711">
        <ele>92.11624908447266</ele>
        <time>2021-11-17T10:00:14Z</time>
      </trkpt>
      <trkpt lat="34.81099214237974" lon="113.52606351896888">
        <ele>90.51261901855469</ele>
        <time>2021-11-17T10:00:20Z</time>
      </trkpt>
      <trkpt lat="34.810999965717464" lon="113.52594456267678">
        <ele>89.43633270263672</ele>
        <time>2021-11-17T10:00:23Z</time>
      </trkpt>
      <trkpt lat="34.81093220668568" lon="113.52572925127052">
        <ele>88.87420654296875</ele>
        <time>2021-11-17T10:00:29Z</time>
      </trkpt>
      <trkpt lat="34.810859341303306" lon="113.52563561813244">
        <ele>88.89529418945312</ele>
        <time>2021-11-17T10:00:32Z</time>
      </trkpt>
      <trkpt lat="34.81079824831258" lon="113.52558853187136">
        <ele>88.46912384033203</ele>
        <time>2021-11-17T10:00:35Z</time>
      </trkpt>
      <trkpt lat="34.81053500705996" lon="113.52554364467935">
        <ele>86.98847198486328</ele>
        <time>2021-11-17T10:00:44Z</time>
      </trkpt>
      <trkpt lat="34.81044019372075" lon="113.52555563209468">
        <ele>86.79024505615234</ele>
        <time>2021-11-17T10:00:47Z</time>
      </trkpt>
      <trkpt lat="34.810116316047925" lon="113.52553552267511">
        <ele>86.0521011352539</ele>
        <time>2021-11-17T10:00:59Z</time>
      </trkpt>
      <trkpt lat="34.809876201158254" lon="113.52552656509995">
        <ele>85.3380126953125</ele>
        <time>2021-11-17T10:01:08Z</time>
      </trkpt>
      <trkpt lat="34.80978307560763" lon="113.52556250706984">
        <ele>85.28202819824219</ele>
        <time>2021-11-17T10:01:11Z</time>
      </trkpt>
      <trkpt lat="34.80970408759934" lon="113.52561641352104">
        <ele>85.04917907714844</ele>
        <time>2021-11-17T10:01:14Z</time>
      </trkpt>
      <trkpt lat="34.80964494107752" lon="113.52569345578888">
        <ele>84.69512176513672</ele>
        <time>2021-11-17T10:01:17Z</time>
      </trkpt>
      <trkpt lat="34.80958388131572" lon="113.52586931058232">
        <ele>84.42285919189453</ele>
        <time>2021-11-17T10:01:23Z</time>
      </trkpt>
      <trkpt lat="34.809580069692664" lon="113.52596757877953">
        <ele>84.45352935791016</ele>
        <time>2021-11-17T10:01:26Z</time>
      </trkpt>
      <trkpt lat="34.80964107738472" lon="113.52619241668873">
        <ele>84.53407287597656</ele>
        <time>2021-11-17T10:01:32Z</time>
      </trkpt>
      <trkpt lat="34.80977798941875" lon="113.5263233338841">
        <ele>84.76444244384766</ele>
        <time>2021-11-17T10:01:38Z</time>
      </trkpt>
      <trkpt lat="34.8098610459376" lon="113.52637613315524">
        <ele>85.19413757324219</ele>
        <time>2021-11-17T10:01:41Z</time>
      </trkpt>
      <trkpt lat="34.81011606265333" lon="113.52638427232108">
        <ele>85.71980285644531</ele>
        <time>2021-11-17T10:01:50Z</time>
      </trkpt>
      <trkpt lat="34.8102049969825" lon="113.52640440615633">
        <ele>85.71054077148438</ele>
        <time>2021-11-17T10:01:53Z</time>
      </trkpt>
      <trkpt lat="34.81046400091557" lon="113.52638233000606">
        <ele>85.76775360107422</ele>
        <time>2021-11-17T10:02:02Z</time>
      </trkpt>
      <trkpt lat="34.810655908330595" lon="113.5264021807243">
        <ele>85.08488464355469</ele>
        <time>2021-11-17T10:02:08Z</time>
      </trkpt>
      <trkpt lat="34.810824087279684" lon="113.52636242078067">
        <ele>85.23885345458984</ele>
        <time>2021-11-17T10:02:14Z</time>
      </trkpt>
      <trkpt lat="34.810942924625095" lon="113.52620833897954">
        <ele>84.94183349609375</ele>
        <time>2021-11-17T10:02:20Z</time>
      </trkpt>
      <trkpt lat="34.8110190660133" lon="113.52589039086712">
        <ele>84.86642456054688</ele>
        <time>2021-11-17T10:02:29Z</time>
      </trkpt>
      <trkpt lat="34.81094701536715" lon="113.52579730249563">
        <ele>84.54148864746094</ele>
        <time>2021-11-17T10:02:32Z</time>
      </trkpt>
      <trkpt lat="34.81091616244589" lon="113.52570747604891">
        <ele>84.20144653320312</ele>
        <time>2021-11-17T10:02:35Z</time>
      </trkpt>
      <trkpt lat="34.81084034643085" lon="113.52562554829419">
        <ele>84.17322540283203</ele>
        <time>2021-11-17T10:02:38Z</time>
      </trkpt>
      <trkpt lat="34.810756219815886" lon="113.52557846446132">
        <ele>83.96489715576172</ele>
        <time>2021-11-17T10:02:41Z</time>
      </trkpt>
      <trkpt lat="34.810659151372235" lon="113.52555669773527">
        <ele>83.82428741455078</ele>
        <time>2021-11-17T10:02:44Z</time>
      </trkpt>
      <trkpt lat="34.81033311854973" lon="113.52554148837736">
        <ele>84.56694793701172</ele>
        <time>2021-11-17T10:02:56Z</time>
      </trkpt>
      <trkpt lat="34.810061035352696" lon="113.52553552853506">
        <ele>83.6761245727539</ele>
        <time>2021-11-17T10:03:05Z</time>
      </trkpt>
      <trkpt lat="34.809910009374676" lon="113.52550151791067">
        <ele>82.84817504882812</ele>
        <time>2021-11-17T10:03:11Z</time>
      </trkpt>
      <trkpt lat="34.80982819548606" lon="113.52551050961769">
        <ele>82.97883605957031</ele>
        <time>2021-11-17T10:03:14Z</time>
      </trkpt>
      <trkpt lat="34.80968701772479" lon="113.52561723196733">
        <ele>82.69757080078125</ele>
        <time>2021-11-17T10:03:20Z</time>
      </trkpt>
      <trkpt lat="34.80959807082708" lon="113.52580234527093">
        <ele>82.8401870727539</ele>
        <time>2021-11-17T10:03:26Z</time>
      </trkpt>
      <trkpt lat="34.809573118711825" lon="113.52600432778854">
        <ele>83.0351791381836</ele>
        <time>2021-11-17T10:03:32Z</time>
      </trkpt>
      <trkpt lat="34.809631894701155" lon="113.52620439480306">
        <ele>83.3079833984375</ele>
        <time>2021-11-17T10:03:38Z</time>
      </trkpt>
      <trkpt lat="34.80973713300766" lon="113.52634756460745">
        <ele>83.4784164428711</ele>
        <time>2021-11-17T10:03:44Z</time>
      </trkpt>
      <trkpt lat="34.80988209382398" lon="113.52644717670891">
        <ele>84.1756362915039</ele>
        <time>2021-11-17T10:03:50Z</time>
      </trkpt>
      <trkpt lat="34.81004922247265" lon="113.5264204828213">
        <ele>84.32808685302734</ele>
        <time>2021-11-17T10:03:56Z</time>
      </trkpt>
      <trkpt lat="34.81036879117951" lon="113.52645120822197">
        <ele>84.4609146118164</ele>
        <time>2021-11-17T10:04:08Z</time>
      </trkpt>
      <trkpt lat="34.81060399040101" lon="113.5264454669769">
        <ele>84.26925659179688</ele>
        <time>2021-11-17T10:04:17Z</time>
      </trkpt>
      <trkpt lat="34.81067801149773" lon="113.52646206368328">
        <ele>84.04535675048828</ele>
        <time>2021-11-17T10:04:20Z</time>
      </trkpt>
      <trkpt lat="34.8108420559661" lon="113.52639508363728">
        <ele>83.90708923339844</ele>
        <time>2021-11-17T10:04:26Z</time>
      </trkpt>
      <trkpt lat="34.81092207232854" lon="113.52631912954081">
        <ele>83.85169219970703</ele>
        <time>2021-11-17T10:04:29Z</time>
      </trkpt>
      <trkpt lat="34.81098791350086" lon="113.52621051187307">
        <ele>83.74832153320312</ele>
        <time>2021-11-17T10:04:32Z</time>
      </trkpt>
      <trkpt lat="34.81101583414568" lon="113.5260033582541">
        <ele>84.11772918701172</ele>
        <time>2021-11-17T10:04:38Z</time>
      </trkpt>
      <trkpt lat="34.81100402791382" lon="113.52583840027638">
        <ele>84.37614440917969</ele>
        <time>2021-11-17T10:04:44Z</time>
      </trkpt>
      <trkpt lat="34.81097126485545" lon="113.52574340212263">
        <ele>83.84156799316406</ele>
        <time>2021-11-17T10:04:47Z</time>
      </trkpt>
      <trkpt lat="34.81086415150023" lon="113.52560948524439">
        <ele>83.33468627929688</ele>
        <time>2021-11-17T10:04:53Z</time>
      </trkpt>
      <trkpt lat="34.810696268396505" lon="113.52555369945996">
        <ele>83.29503631591797</ele>
        <time>2021-11-17T10:04:59Z</time>
      </trkpt>
      <trkpt lat="34.810418218001395" lon="113.52554556254964">
        <ele>82.47190856933594</ele>
        <time>2021-11-17T10:05:08Z</time>
      </trkpt>
      <trkpt lat="34.81033803988712" lon="113.52555836505115">
        <ele>82.58277130126953</ele>
        <time>2021-11-17T10:05:11Z</time>
      </trkpt>
      <trkpt lat="34.81003393978708" lon="113.525536620259">
        <ele>81.82107543945312</ele>
        <time>2021-11-17T10:05:23Z</time>
      </trkpt>
      <trkpt lat="34.809848320790536" lon="113.52553854542556">
        <ele>81.94203186035156</ele>
        <time>2021-11-17T10:05:29Z</time>
      </trkpt>
      <trkpt lat="34.80977116005745" lon="113.52556550267276">
        <ele>82.37069702148438</ele>
        <time>2021-11-17T10:05:32Z</time>
      </trkpt>
      <trkpt lat="34.80969298218313" lon="113.5256183201843">
        <ele>82.5467758178711</ele>
        <time>2021-11-17T10:05:35Z</time>
      </trkpt>
      <trkpt lat="34.809587234279114" lon="113.52580343526293">
        <ele>82.72340393066406</ele>
        <time>2021-11-17T10:05:41Z</time>
      </trkpt>
      <trkpt lat="34.80957504152079" lon="113.52601439932667">
        <ele>83.3451156616211</ele>
        <time>2021-11-17T10:05:47Z</time>
      </trkpt>
      <trkpt lat="34.809602151797165" lon="113.52612436879652">
        <ele>83.4323501586914</ele>
        <time>2021-11-17T10:05:50Z</time>
      </trkpt>
      <trkpt lat="34.80964303790319" lon="113.52621718738202">
        <ele>83.7073745727539</ele>
        <time>2021-11-17T10:05:53Z</time>
      </trkpt>
      <trkpt lat="34.80976503387185" lon="113.52634347855194">
        <ele>83.82779693603516</ele>
        <time>2021-11-17T10:05:59Z</time>
      </trkpt>
      <trkpt lat="34.809842903282714" lon="113.52638130699806">
        <ele>84.16991424560547</ele>
        <time>2021-11-17T10:06:02Z</time>
      </trkpt>
      <trkpt lat="34.81017484519448" lon="113.5263760999023">
        <ele>83.2705307006836</ele>
        <time>2021-11-17T10:06:14Z</time>
      </trkpt>
      <trkpt lat="34.81049494959343" lon="113.52640437543029">
        <ele>84.56877136230469</ele>
        <time>2021-11-17T10:06:26Z</time>
      </trkpt>
      <trkpt lat="34.81074591119943" lon="113.52641632590368">
        <ele>83.75605010986328</ele>
        <time>2021-11-17T10:06:35Z</time>
      </trkpt>
      <trkpt lat="34.81088600146921" lon="113.52630742846847">
        <ele>83.69932556152344</ele>
        <time>2021-11-17T10:06:41Z</time>
      </trkpt>
      <trkpt lat="34.81099989445085" lon="113.52602214238034">
        <ele>82.4225082397461</ele>
        <time>2021-11-17T10:06:50Z</time>
      </trkpt>
      <trkpt lat="34.81100697764016" lon="113.52593149586247">
        <ele>82.04751586914062</ele>
        <time>2021-11-17T10:06:53Z</time>
      </trkpt>
      <trkpt lat="34.810990171957485" lon="113.52582451900201">
        <ele>82.08052825927734</ele>
        <time>2021-11-17T10:06:56Z</time>
      </trkpt>
      <trkpt lat="34.81094712132261" lon="113.525733332861">
        <ele>82.01747131347656</ele>
        <time>2021-11-17T10:06:59Z</time>
      </trkpt>
      <trkpt lat="34.81079015186269" lon="113.52560132671648">
        <ele>82.69956970214844</ele>
        <time>2021-11-17T10:07:05Z</time>
      </trkpt>
      <trkpt lat="34.810603074635154" lon="113.52556323678581">
        <ele>82.84822845458984</ele>
        <time>2021-11-17T10:07:11Z</time>
      </trkpt>
      <trkpt lat="34.81029196209375" lon="113.52555428674387">
        <ele>82.68904113769531</ele>
        <time>2021-11-17T10:07:23Z</time>
      </trkpt>
      <trkpt lat="34.810057034634255" lon="113.52556030032783">
        <ele>82.23204040527344</ele>
        <time>2021-11-17T10:07:32Z</time>
      </trkpt>
      <trkpt lat="34.8098892266825" lon="113.52553364125667">
        <ele>82.648193359375</ele>
        <time>2021-11-17T10:07:38Z</time>
      </trkpt>
      <trkpt lat="34.80974031151656" lon="113.52558238312628">
        <ele>82.69964599609375</ele>
        <time>2021-11-17T10:07:44Z</time>
      </trkpt>
      <trkpt lat="34.8096791753666" lon="113.52562349368098">
        <ele>82.71587371826172</ele>
        <time>2021-11-17T10:07:47Z</time>
      </trkpt>
      <trkpt lat="34.80962300684218" lon="113.5256994467709">
        <ele>82.5185546875</ele>
        <time>2021-11-17T10:07:50Z</time>
      </trkpt>
      <trkpt lat="34.8095682449144" lon="113.52590061641436">
        <ele>82.81888580322266</ele>
        <time>2021-11-17T10:07:56Z</time>
      </trkpt>
      <trkpt lat="34.809561995760326" lon="113.52599942919998">
        <ele>82.93309020996094</ele>
        <time>2021-11-17T10:07:59Z</time>
      </trkpt>
      <trkpt lat="34.80957797264077" lon="113.52610041701698">
        <ele>82.88050842285156</ele>
        <time>2021-11-17T10:08:02Z</time>
      </trkpt>
      <trkpt lat="34.80961290275249" lon="113.52619541396021">
        <ele>83.41483306884766</ele>
        <time>2021-11-17T10:08:05Z</time>
      </trkpt>
      <trkpt lat="34.809675989806586" lon="113.52628060820393">
        <ele>83.53924560546875</ele>
        <time>2021-11-17T10:08:08Z</time>
      </trkpt>
      <trkpt lat="34.80977291265348" lon="113.52635137170778">
        <ele>83.75264739990234</ele>
        <time>2021-11-17T10:08:11Z</time>
      </trkpt>
      <trkpt lat="34.80999202674565" lon="113.52641341152543">
        <ele>83.68321228027344</ele>
        <time>2021-11-17T10:08:17Z</time>
      </trkpt>
      <trkpt lat="34.81031423693583" lon="113.52641746047212">
        <ele>85.0169906616211</ele>
        <time>2021-11-17T10:08:26Z</time>
      </trkpt>
      <trkpt lat="34.81063510469054" lon="113.52642640926787">
        <ele>84.10607147216797</ele>
        <time>2021-11-17T10:08:35Z</time>
      </trkpt>
      <trkpt lat="34.8107477850572" lon="113.52640734290456">
        <ele>84.58826446533203</ele>
        <time>2021-11-17T10:08:38Z</time>
      </trkpt>
      <trkpt lat="34.810843027509385" lon="113.52635125830645">
        <ele>84.92825317382812</ele>
        <time>2021-11-17T10:08:41Z</time>
      </trkpt>
      <trkpt lat="34.81092085565353" lon="113.52626741033633">
        <ele>84.9245376586914</ele>
        <time>2021-11-17T10:08:44Z</time>
      </trkpt>
      <trkpt lat="34.81096121023152" lon="113.52615335104454">
        <ele>84.67097473144531</ele>
        <time>2021-11-17T10:08:47Z</time>
      </trkpt>
      <trkpt lat="34.81098095921898" lon="113.52603521042423">
        <ele>84.05302429199219</ele>
        <time>2021-11-17T10:08:50Z</time>
      </trkpt>
      <trkpt lat="34.810976033619625" lon="113.52591135560637">
        <ele>83.6944351196289</ele>
        <time>2021-11-17T10:08:53Z</time>
      </trkpt>
      <trkpt lat="34.81094293867791" lon="113.5257926753419">
        <ele>83.27093505859375</ele>
        <time>2021-11-17T10:08:56Z</time>
      </trkpt>
      <trkpt lat="34.810880046428665" lon="113.5256783532225">
        <ele>83.26453399658203</ele>
        <time>2021-11-17T10:08:59Z</time>
      </trkpt>
      <trkpt lat="34.8107670514238" lon="113.52557546897425">
        <ele>84.58167266845703</ele>
        <time>2021-11-17T10:09:02Z</time>
      </trkpt>
      <trkpt lat="34.81068432400326" lon="113.52554553434105">
        <ele>83.29417419433594</ele>
        <time>2021-11-17T10:09:05Z</time>
      </trkpt>
    </trkseg>
  </trk>
</gpx>