<?xml version="1.0" encoding="UTF-8"?>
<gpx xmlns="http://www.topografix.com/GPX/1/1" xmlns:gpxtpx="http://www.garmin.com/xmlschemas/TrackPointExtension/v1" xmlns:xsi="http://www.w3.org/2001/XMLSchema-instance" xsi:schemaLocation="http://www.topografix.com/GPX/1/1 http://www.topografix.com/GPX/1/1/gpx.xsd" version="1.1" creator="gpx.py -- https://github.com/tkrajina/gpxpy">
  <trk>
    <name>gpx from keep</name>
    <type>Run</type>
    <trkseg>
      <trkpt lat="34.80979222978719" lon="113.52649349384839">
        <ele>94.40714676667211</ele>
        <time>2023-08-19T12:09:06Z</time>
      </trkpt>
      <trkpt lat="34.810079815647406" lon="113.52644931119141">
        <ele>93.68508969275022</ele>
        <time>2023-08-19T12:09:18Z</time>
      </trkpt>
      <trkpt lat="34.810302664798684" lon="113.52648139826155">
        <ele>94.08339797405365</ele>
        <time>2023-08-19T12:09:27Z</time>
      </trkpt>
      <trkpt lat="34.810630221568786" lon="113.52644222864994">
        <ele>92.45926778402202</ele>
        <time>2023-08-19T12:09:39Z</time>
      </trkpt>
      <trkpt lat="34.81076483082018" lon="113.5263448786669">
        <ele>91.99265301913537</ele>
        <time>2023-08-19T12:09:45Z</time>
      </trkpt>
      <trkpt lat="34.81085930896413" lon="113.52618030042056">
        <ele>91.3336284178742</ele>
        <time>2023-08-19T12:09:51Z</time>
      </trkpt>
      <trkpt lat="34.81087703992248" lon="113.52608296208216">
        <ele>91.55385753802207</ele>
        <time>2023-08-19T12:09:54Z</time>
      </trkpt>
      <trkpt lat="34.81087278073531" lon="113.52598060843584">
        <ele>91.49006944882389</ele>
        <time>2023-08-19T12:09:57Z</time>
      </trkpt>
      <trkpt lat="34.810820377471025" lon="113.5258029988111">
        <ele>91.5632861035675</ele>
        <time>2023-08-19T12:10:03Z</time>
      </trkpt>
      <trkpt lat="34.810774249549446" lon="113.52573476712006">
        <ele>91.84417847266877</ele>
        <time>2023-08-19T12:10:06Z</time>
      </trkpt>
      <trkpt lat="34.8107091672911" lon="113.52567657212442">
        <ele>91.86097505099549</ele>
        <time>2023-08-19T12:10:09Z</time>
      </trkpt>
      <trkpt lat="34.81055016509248" lon="113.52561136260339">
        <ele>91.80673864343551</ele>
        <time>2023-08-19T12:10:15Z</time>
      </trkpt>
      <trkpt lat="34.8102094490157" lon="113.52558330116737">
        <ele>90.87577309646987</ele>
        <time>2023-08-19T12:10:27Z</time>
      </trkpt>
      <trkpt lat="34.809893670386685" lon="113.52554118827">
        <ele>90.11321720858538</ele>
        <time>2023-08-19T12:10:39Z</time>
      </trkpt>
      <trkpt lat="34.80972382730048" lon="113.52553317838795">
        <ele>90.28097759460216</ele>
        <time>2023-08-19T12:10:45Z</time>
      </trkpt>
      <trkpt lat="34.80957026311359" lon="113.52563956400246">
        <ele>90.16624637705438</ele>
        <time>2023-08-19T12:10:51Z</time>
      </trkpt>
      <trkpt lat="34.809507564703914" lon="113.52573088746256">
        <ele>90.67905963781382</ele>
        <time>2023-08-19T12:10:54Z</time>
      </trkpt>
      <trkpt lat="34.809441108191876" lon="113.52591453089347">
        <ele>90.88591900832341</ele>
        <time>2023-08-19T12:11:00Z</time>
      </trkpt>
      <trkpt lat="34.80944562825175" lon="113.52611823521758">
        <ele>91.67215395552823</ele>
        <time>2023-08-19T12:11:06Z</time>
      </trkpt>
      <trkpt lat="34.809468838884676" lon="113.52620954831505">
        <ele>91.84251553909618</ele>
        <time>2023-08-19T12:11:09Z</time>
      </trkpt>
      <trkpt lat="34.80951500982201" lon="113.52629483795525">
        <ele>92.25162952266706</ele>
        <time>2023-08-19T12:11:12Z</time>
      </trkpt>
      <trkpt lat="34.80964715245696" lon="113.52640420133854">
        <ele>92.73319938965818</ele>
        <time>2023-08-19T12:11:18Z</time>
      </trkpt>
      <trkpt lat="34.80972912850048" lon="113.52642827569939">
        <ele>92.89762633180278</ele>
        <time>2023-08-19T12:11:21Z</time>
      </trkpt>
      <trkpt lat="34.810035825637286" lon="113.52643526741899">
        <ele>92.1760168385525</ele>
        <time>2023-08-19T12:11:33Z</time>
      </trkpt>
      <trkpt lat="34.81035458215426" lon="113.52647035471557">
        <ele>91.93856729783317</ele>
        <time>2023-08-19T12:11:45Z</time>
      </trkpt>
      <trkpt lat="34.81051245808586" lon="113.52648639332233">
        <ele>90.75151608365637</ele>
        <time>2023-08-19T12:11:51Z</time>
      </trkpt>
      <trkpt lat="34.810595345589704" lon="113.52647634995462">
        <ele>90.23214118879625</ele>
        <time>2023-08-19T12:11:54Z</time>
      </trkpt>
      <trkpt lat="34.810674175556684" lon="113.52644222399218">
        <ele>90.06612259202686</ele>
        <time>2023-08-19T12:11:57Z</time>
      </trkpt>
      <trkpt lat="34.81074694744327" lon="113.52638301211357">
        <ele>90.0660323682974</ele>
        <time>2023-08-19T12:12:00Z</time>
      </trkpt>
      <trkpt lat="34.810842422124104" lon="113.52621743047804">
        <ele>90.0635459736187</ele>
        <time>2023-08-19T12:12:06Z</time>
      </trkpt>
      <trkpt lat="34.81087589382308" lon="113.52602576436273">
        <ele>90.75846616262008</ele>
        <time>2023-08-19T12:12:12Z</time>
      </trkpt>
      <trkpt lat="34.8108494299384" lon="113.52583510701757">
        <ele>90.97498743768969</ele>
        <time>2023-08-19T12:12:18Z</time>
      </trkpt>
      <trkpt lat="34.81080726682263" lon="113.52575483321661">
        <ele>91.18214763279838</ele>
        <time>2023-08-19T12:12:21Z</time>
      </trkpt>
      <trkpt lat="34.81074315246154" lon="113.52568459637521">
        <ele>91.2440130766459</ele>
        <time>2023-08-19T12:12:24Z</time>
      </trkpt>
      <trkpt lat="34.810608122590914" lon="113.52561838084446">
        <ele>91.38609894026742</ele>
        <time>2023-08-19T12:12:30Z</time>
      </trkpt>
      <trkpt lat="34.810272349438364" lon="113.52557024919989">
        <ele>90.36235477318975</ele>
        <time>2023-08-19T12:12:42Z</time>
      </trkpt>
      <trkpt lat="34.80993070175343" lon="113.52556827844563">
        <ele>90.32770853326598</ele>
        <time>2023-08-19T12:12:54Z</time>
      </trkpt>
      <trkpt lat="34.809766821278224" lon="113.5255482261148">
        <ele>89.9240939793843</ele>
        <time>2023-08-19T12:13:00Z</time>
      </trkpt>
      <trkpt lat="34.80968593965004" lon="113.52556127999613">
        <ele>89.69349132393434</ele>
        <time>2023-08-19T12:13:03Z</time>
      </trkpt>
      <trkpt lat="34.80960316641698" lon="113.52561547691965">
        <ele>89.94701763769912</ele>
        <time>2023-08-19T12:13:06Z</time>
      </trkpt>
      <trkpt lat="34.80953143602082" lon="113.52569074570265">
        <ele>89.8721054827023</ele>
        <time>2023-08-19T12:13:09Z</time>
      </trkpt>
      <trkpt lat="34.80947873998561" lon="113.52578708536187">
        <ele>89.66794606399172</ele>
        <time>2023-08-19T12:13:12Z</time>
      </trkpt>
      <trkpt lat="34.80944406110825" lon="113.52589747150336">
        <ele>89.50172802203338</ele>
        <time>2023-08-19T12:13:15Z</time>
      </trkpt>
      <trkpt lat="34.80943437646456" lon="113.52601588242206">
        <ele>89.5258513843011</ele>
        <time>2023-08-19T12:13:18Z</time>
      </trkpt>
      <trkpt lat="34.80944465509421" lon="113.52612827000914">
        <ele>89.52745537455448</ele>
        <time>2023-08-19T12:13:21Z</time>
      </trkpt>
      <trkpt lat="34.8094748790077" lon="113.52622761006425">
        <ele>89.63952685922887</ele>
        <time>2023-08-19T12:13:24Z</time>
      </trkpt>
      <trkpt lat="34.80952504830117" lon="113.52631390269939">
        <ele>90.11785581816966</ele>
        <time>2023-08-19T12:13:27Z</time>
      </trkpt>
      <trkpt lat="34.809587153405026" lon="113.5263801246321">
        <ele>90.56411266152023</ele>
        <time>2023-08-19T12:13:30Z</time>
      </trkpt>
      <trkpt lat="34.809749143604876" lon="113.52644232201507">
        <ele>90.12914858902896</ele>
        <time>2023-08-19T12:13:36Z</time>
      </trkpt>
      <trkpt lat="34.810020887605255" lon="113.52645333127298">
        <ele>89.82493464188592</ele>
        <time>2023-08-19T12:13:45Z</time>
      </trkpt>
      <trkpt lat="34.810365619496736" lon="113.52648941925698">
        <ele>91.08578386960004</ele>
        <time>2023-08-19T12:13:57Z</time>
      </trkpt>
      <trkpt lat="34.81052946601406" lon="113.52649642610147">
        <ele>91.41019037767948</ele>
        <time>2023-08-19T12:14:03Z</time>
      </trkpt>
      <trkpt lat="34.81060734846562" lon="113.5264823694337">
        <ele>91.54225601104564</ele>
        <time>2023-08-19T12:14:06Z</time>
      </trkpt>
      <trkpt lat="34.81074796183599" lon="113.52638903277348">
        <ele>91.60613247213699</ele>
        <time>2023-08-19T12:14:12Z</time>
      </trkpt>
      <trkpt lat="34.81084640247595" lon="113.52621140925874">
        <ele>91.42506590310546</ele>
        <time>2023-08-19T12:14:18Z</time>
      </trkpt>
      <trkpt lat="34.81087985606853" lon="113.52601271880796">
        <ele>91.56561126957122</ele>
        <time>2023-08-19T12:14:24Z</time>
      </trkpt>
      <trkpt lat="34.81085439625033" lon="113.52582406823997">
        <ele>92.21271130760178</ele>
        <time>2023-08-19T12:14:30Z</time>
      </trkpt>
      <trkpt lat="34.81080822952793" lon="113.52574078439835">
        <ele>92.75056768985189</ele>
        <time>2023-08-19T12:14:33Z</time>
      </trkpt>
      <trkpt lat="34.810659087405845" lon="113.52562539982539">
        <ele>92.66912320590694</ele>
        <time>2023-08-19T12:14:39Z</time>
      </trkpt>
      <trkpt lat="34.810577085002194" lon="113.52559129007145">
        <ele>92.64610549678738</ele>
        <time>2023-08-19T12:14:42Z</time>
      </trkpt>
      <trkpt lat="34.8102563843204" lon="113.52557727528509">
        <ele>91.09820888245841</ele>
        <time>2023-08-19T12:14:54Z</time>
      </trkpt>
      <trkpt lat="34.80995965069187" lon="113.52556024749738">
        <ele>90.86958272374106</ele>
        <time>2023-08-19T12:15:06Z</time>
      </trkpt>
      <trkpt lat="34.80973388430021" lon="113.52555926794385">
        <ele>90.78063287523682</ele>
        <time>2023-08-19T12:15:15Z</time>
      </trkpt>
      <trkpt lat="34.80965601249914" lon="113.52557733892517">
        <ele>90.38655282994502</ele>
        <time>2023-08-19T12:15:18Z</time>
      </trkpt>
      <trkpt lat="34.809588202830696" lon="113.52562350637265">
        <ele>90.32739081640936</ele>
        <time>2023-08-19T12:15:21Z</time>
      </trkpt>
      <trkpt lat="34.80948168767016" lon="113.52576801895175">
        <ele>90.98680719891398</ele>
        <time>2023-08-19T12:15:27Z</time>
      </trkpt>
      <trkpt lat="34.809434159447584" lon="113.52593159069872">
        <ele>91.50540582344712</ele>
        <time>2023-08-19T12:15:33Z</time>
      </trkpt>
      <trkpt lat="34.809446640106025" lon="113.52612325245492">
        <ele>92.09205483657551</ele>
        <time>2023-08-19T12:15:39Z</time>
      </trkpt>
      <trkpt lat="34.80952398754051" lon="113.52628981968425">
        <ele>91.80608972873272</ele>
        <time>2023-08-19T12:15:45Z</time>
      </trkpt>
      <trkpt lat="34.80965715229726" lon="113.52640821412132">
        <ele>91.52325530690393</ele>
        <time>2023-08-19T12:15:51Z</time>
      </trkpt>
      <trkpt lat="34.80973514280541" lon="113.52643630274083">
        <ele>91.34253450604427</ele>
        <time>2023-08-19T12:15:54Z</time>
      </trkpt>
      <trkpt lat="34.81006285398858" lon="113.5264573406627">
        <ele>91.73976101726703</ele>
        <time>2023-08-19T12:16:06Z</time>
      </trkpt>
      <trkpt lat="34.8103335809704" lon="113.52646132581104">
        <ele>92.86696727555693</ele>
        <time>2023-08-19T12:16:15Z</time>
      </trkpt>
      <trkpt lat="34.81057437011977" lon="113.5264773556359">
        <ele>92.65058615181312</ele>
        <time>2023-08-19T12:16:24Z</time>
      </trkpt>
      <trkpt lat="34.81064924027201" lon="113.52645727852506">
        <ele>92.35640840780172</ele>
        <time>2023-08-19T12:16:27Z</time>
      </trkpt>
      <trkpt lat="34.81078780676632" lon="113.52634487623206">
        <ele>91.46539734495084</ele>
        <time>2023-08-19T12:16:33Z</time>
      </trkpt>
      <trkpt lat="34.81083852422926" lon="113.52625556258403">
        <ele>91.32531301944509</ele>
        <time>2023-08-19T12:16:36Z</time>
      </trkpt>
      <trkpt lat="34.81087222574396" lon="113.52615320542556">
        <ele>91.27713321017397</ele>
        <time>2023-08-19T12:16:39Z</time>
      </trkpt>
      <trkpt lat="34.81088167055213" lon="113.52594147202352">
        <ele>91.09547520806643</ele>
        <time>2023-08-19T12:16:45Z</time>
      </trkpt>
      <trkpt lat="34.81082626766291" lon="113.52576285903788">
        <ele>91.60077301031413</ele>
        <time>2023-08-19T12:16:51Z</time>
      </trkpt>
      <trkpt lat="34.81076412272719" lon="113.5256815837076">
        <ele>91.55369146078446</ele>
        <time>2023-08-19T12:16:54Z</time>
      </trkpt>
      <trkpt lat="34.810690047210805" lon="113.52562238609376">
        <ele>91.57530721734705</ele>
        <time>2023-08-19T12:16:57Z</time>
      </trkpt>
      <trkpt lat="34.81060204589419" lon="113.52558627000413">
        <ele>91.46462076345155</ele>
        <time>2023-08-19T12:17:00Z</time>
      </trkpt>
      <trkpt lat="34.81026732613405" lon="113.5255592113979">
        <ele>90.22647136284614</ele>
        <time>2023-08-19T12:17:12Z</time>
      </trkpt>
      <trkpt lat="34.80992869865641" lon="113.52556627168823">
        <ele>90.78169770043574</ele>
        <time>2023-08-19T12:17:24Z</time>
      </trkpt>
      <trkpt lat="34.80975585093284" lon="113.52555525167477">
        <ele>90.63377267201851</ele>
        <time>2023-08-19T12:17:30Z</time>
      </trkpt>
      <trkpt lat="34.80967698017984" lon="113.5255733227641">
        <ele>90.66777273689362</ele>
        <time>2023-08-19T12:17:33Z</time>
      </trkpt>
      <trkpt lat="34.80960616846706" lon="113.52561748356834">
        <ele>90.61950319988468</ele>
        <time>2023-08-19T12:17:36Z</time>
      </trkpt>
      <trkpt lat="34.809507663091836" lon="113.52576901967767">
        <ele>89.85007766349429</ele>
        <time>2023-08-19T12:17:42Z</time>
      </trkpt>
      <trkpt lat="34.80946323509413" lon="113.52597273004275">
        <ele>90.42769826435372</ele>
        <time>2023-08-19T12:17:48Z</time>
      </trkpt>
      <trkpt lat="34.809457517659446" lon="113.52608010211503">
        <ele>91.05635131388361</ele>
        <time>2023-08-19T12:17:51Z</time>
      </trkpt>
      <trkpt lat="34.809471750676224" lon="113.52617643360153">
        <ele>91.14322172436003</ele>
        <time>2023-08-19T12:17:54Z</time>
      </trkpt>
      <trkpt lat="34.809506920297174" lon="113.52625670716499">
        <ele>91.01438435652541</ele>
        <time>2023-08-19T12:17:57Z</time>
      </trkpt>
      <trkpt lat="34.80963113315753" lon="113.5263901545839">
        <ele>91.35259524100931</ele>
        <time>2023-08-19T12:18:03Z</time>
      </trkpt>
      <trkpt lat="34.80970514586547" lon="113.5264252678607">
        <ele>91.24863451690975</ele>
        <time>2023-08-19T12:18:06Z</time>
      </trkpt>
      <trkpt lat="34.81002977532244" lon="113.5264131919381">
        <ele>91.47151150750965</ele>
        <time>2023-08-19T12:18:18Z</time>
      </trkpt>
      <trkpt lat="34.81036654646859" lon="113.52646132231779">
        <ele>91.79344309951765</ele>
        <time>2023-08-19T12:18:30Z</time>
      </trkpt>
      <trkpt lat="34.81050543455707" lon="113.52647435256502">
        <ele>92.14613793478777</ele>
        <time>2023-08-19T12:18:36Z</time>
      </trkpt>
      <trkpt lat="34.81059730236254" lon="113.52646029440612">
        <ele>92.25437388065822</ele>
        <time>2023-08-19T12:18:39Z</time>
      </trkpt>
      <trkpt lat="34.81067909316685" lon="113.52641211967017">
        <ele>92.97533887077424</ele>
        <time>2023-08-19T12:18:42Z</time>
      </trkpt>
      <trkpt lat="34.81078959608619" lon="113.52626359548871">
        <ele>92.99265132857582</ele>
        <time>2023-08-19T12:18:48Z</time>
      </trkpt>
      <trkpt lat="34.81085810108346" lon="113.52609901960668">
        <ele>93.08695234490487</ele>
        <time>2023-08-19T12:18:54Z</time>
      </trkpt>
      <trkpt lat="34.810843588803706" lon="113.52589431274251">
        <ele>93.87230110325085</ele>
        <time>2023-08-19T12:19:00Z</time>
      </trkpt>
      <trkpt lat="34.81077119053092" lon="113.52571068391354">
        <ele>93.76449154487639</ele>
        <time>2023-08-19T12:19:06Z</time>
      </trkpt>
      <trkpt lat="34.81069909482437" lon="113.52564446176078">
        <ele>93.7355473933689</ele>
        <time>2023-08-19T12:19:09Z</time>
      </trkpt>
      <trkpt lat="34.81060609875666" lon="113.52560834622324">
        <ele>93.4374008281363</ele>
        <time>2023-08-19T12:19:12Z</time>
      </trkpt>
      <trkpt lat="34.81026040866524" lon="113.52558831318728">
        <ele>91.34558446817739</ele>
        <time>2023-08-19T12:19:24Z</time>
      </trkpt>
      <trkpt lat="34.809921734502446" lon="113.52557731075855">
        <ele>91.79403972368569</ele>
        <time>2023-08-19T12:19:36Z</time>
      </trkpt>
      <trkpt lat="34.80975686545142" lon="113.52556127247794">
        <ele>91.89637435160084</ele>
        <time>2023-08-19T12:19:42Z</time>
      </trkpt>
      <trkpt lat="34.80967700352093" lon="113.52558235412262">
        <ele>91.88790521189706</ele>
        <time>2023-08-19T12:19:45Z</time>
      </trkpt>
      <trkpt lat="34.80959621520878" lon="113.52563153338842">
        <ele>91.54997547696742</ele>
        <time>2023-08-19T12:19:48Z</time>
      </trkpt>
      <trkpt lat="34.80952746351518" lon="113.52569977745442">
        <ele>91.42645884643737</ele>
        <time>2023-08-19T12:19:51Z</time>
      </trkpt>
      <trkpt lat="34.809438054449735" lon="113.52589245476274">
        <ele>91.42517459998328</ele>
        <time>2023-08-19T12:19:57Z</time>
      </trkpt>
      <trkpt lat="34.80942834915929" lon="113.52600283792299">
        <ele>91.54188860732667</ele>
        <time>2023-08-19T12:20:00Z</time>
      </trkpt>
      <trkpt lat="34.80946881568546" lon="113.5262005171193">
        <ele>91.83885255141034</ele>
        <time>2023-08-19T12:20:06Z</time>
      </trkpt>
      <trkpt lat="34.8095199839934" lon="113.52628680971638">
        <ele>91.72731204352216</ele>
        <time>2023-08-19T12:20:09Z</time>
      </trkpt>
      <trkpt lat="34.80959309051782" lon="113.52635804784582">
        <ele>91.91187319731193</ele>
        <time>2023-08-19T12:20:12Z</time>
      </trkpt>
      <trkpt lat="34.809673125286814" lon="113.5264041985863">
        <ele>92.21547736748708</ele>
        <time>2023-08-19T12:20:15Z</time>
      </trkpt>
      <trkpt lat="34.81001281109817" lon="113.52642021795793">
        <ele>91.8816235066081</ele>
        <time>2023-08-19T12:20:27Z</time>
      </trkpt>
      <trkpt lat="34.810343557659245" lon="113.5264563074584">
        <ele>92.66299100459686</ele>
        <time>2023-08-19T12:20:39Z</time>
      </trkpt>
      <trkpt lat="34.81051740401309" lon="113.52646732708544">
        <ele>93.12101304363071</ele>
        <time>2023-08-19T12:20:45Z</time>
      </trkpt>
      <trkpt lat="34.81065316922745" lon="113.52643118816096">
        <ele>93.57062746282301</ele>
        <time>2023-08-19T12:20:51Z</time>
      </trkpt>
      <trkpt lat="34.81072795187388" lon="113.52637699335808">
        <ele>93.24913850438145</ele>
        <time>2023-08-19T12:20:54Z</time>
      </trkpt>
      <trkpt lat="34.81079965517594" lon="113.52629068796195">
        <ele>92.96895258813755</ele>
        <time>2023-08-19T12:20:57Z</time>
      </trkpt>
      <trkpt lat="34.81084736276437" lon="113.5261963571587">
        <ele>92.93015378171599</ele>
        <time>2023-08-19T12:21:00Z</time>
      </trkpt>
      <trkpt lat="34.81088481209799" lon="113.52599766619794">
        <ele>93.60298240249175</ele>
        <time>2023-08-19T12:21:06Z</time>
      </trkpt>
      <trkpt lat="34.810855379680234" lon="113.52581804726996">
        <ele>94.10064591154645</ele>
        <time>2023-08-19T12:21:12Z</time>
      </trkpt>
      <trkpt lat="34.81080919481801" lon="113.52572773905449">
        <ele>93.95727942428256</ele>
        <time>2023-08-19T12:21:15Z</time>
      </trkpt>
      <trkpt lat="34.81073710691557" lon="113.52566452737948">
        <ele>93.87310612505787</ele>
        <time>2023-08-19T12:21:18Z</time>
      </trkpt>
      <trkpt lat="34.81056914003961" lon="113.52560935362467">
        <ele>93.50643449162797</ele>
        <time>2023-08-19T12:21:24Z</time>
      </trkpt>
      <trkpt lat="34.81022842915282" lon="113.52558329915543">
        <ele>93.38161942051501</ele>
        <time>2023-08-19T12:21:36Z</time>
      </trkpt>
      <trkpt lat="34.80990667495928" lon="113.52554821129004">
        <ele>91.08262216661038</ele>
        <time>2023-08-19T12:21:48Z</time>
      </trkpt>
      <trkpt lat="34.80974086142081" lon="113.52555324629323">
        <ele>90.51961719885252</ele>
        <time>2023-08-19T12:21:54Z</time>
      </trkpt>
      <trkpt lat="34.809654030149495" lon="113.5255833600422">
        <ele>89.96687489565751</ele>
        <time>2023-08-19T12:21:57Z</time>
      </trkpt>
      <trkpt lat="34.809515486415485" lon="113.52570379264792">
        <ele>89.57255116611817</ele>
        <time>2023-08-19T12:22:03Z</time>
      </trkpt>
      <trkpt lat="34.80946674734753" lon="113.52578507967581">
        <ele>90.0779405747699</ele>
        <time>2023-08-19T12:22:06Z</time>
      </trkpt>
      <trkpt lat="34.809418302779854" lon="113.52598076258946">
        <ele>90.5506393809129</ele>
        <time>2023-08-19T12:22:12Z</time>
      </trkpt>
      <trkpt lat="34.80941857647368" lon="113.52608713053188">
        <ele>90.76458146901003</ele>
        <time>2023-08-19T12:22:15Z</time>
      </trkpt>
      <trkpt lat="34.809485996338125" lon="113.52627778214011">
        <ele>90.09812736522883</ele>
        <time>2023-08-19T12:22:21Z</time>
      </trkpt>
      <trkpt lat="34.80961918171657" lon="113.52640420430248">
        <ele>90.41795268116826</ele>
        <time>2023-08-19T12:22:27Z</time>
      </trkpt>
      <trkpt lat="34.80978214254648" lon="113.52645536349003">
        <ele>90.80038825401256</ele>
        <time>2023-08-19T12:22:33Z</time>
      </trkpt>
      <trkpt lat="34.81010986142041" lon="113.52647941177514">
        <ele>91.57351763432554</ele>
        <time>2023-08-19T12:22:45Z</time>
      </trkpt>
      <trkpt lat="34.81044151432928" lon="113.52647937663127">
        <ele>92.16056348637129</ele>
        <time>2023-08-19T12:22:57Z</time>
      </trkpt>
      <trkpt lat="34.81059428492925" lon="113.52645226705249">
        <ele>92.0884784016929</ele>
        <time>2023-08-19T12:23:03Z</time>
      </trkpt>
      <trkpt lat="34.81073389412774" lon="113.52635692349251">
        <ele>91.9097660511534</ele>
        <time>2023-08-19T12:23:09Z</time>
      </trkpt>
      <trkpt lat="34.81083741704375" lon="113.52621341714362">
        <ele>92.03171645367121</ele>
        <time>2023-08-19T12:23:15Z</time>
      </trkpt>
      <trkpt lat="34.8108698613623" lon="113.52601071292302">
        <ele>93.04314017926741</ele>
        <time>2023-08-19T12:23:21Z</time>
      </trkpt>
      <trkpt lat="34.810858604140115" lon="113.52590635285512">
        <ele>93.38069296014442</ele>
        <time>2023-08-19T12:23:24Z</time>
      </trkpt>
      <trkpt lat="34.81078622146193" lon="113.52572874496992">
        <ele>94.23041462472216</ele>
        <time>2023-08-19T12:23:30Z</time>
      </trkpt>
      <trkpt lat="34.81071312683174" lon="113.5256625229571">
        <ele>94.25636754360025</ele>
        <time>2023-08-19T12:23:33Z</time>
      </trkpt>
      <trkpt lat="34.81052317258319" lon="113.52560333759472">
        <ele>94.00635286378903</ele>
        <time>2023-08-19T12:23:39Z</time>
      </trkpt>
      <trkpt lat="34.81024641552171" lon="113.52558530421761">
        <ele>91.95977303068315</ele>
        <time>2023-08-19T12:23:48Z</time>
      </trkpt>
      <trkpt lat="34.80991470810163" lon="113.52556426620141">
        <ele>90.69596315414121</ele>
        <time>2023-08-19T12:24:00Z</time>
      </trkpt>
      <trkpt lat="34.80974984423288" lon="113.52555023488512">
        <ele>90.74867175480313</ele>
        <time>2023-08-19T12:24:06Z</time>
      </trkpt>
      <trkpt lat="34.809602190793576" lon="113.52562450837318">
        <ele>90.2238255928243</ele>
        <time>2023-08-19T12:24:12Z</time>
      </trkpt>
      <trkpt lat="34.80952448737239" lon="113.52570780561742">
        <ele>89.87205817710462</ele>
        <time>2023-08-19T12:24:15Z</time>
      </trkpt>
      <trkpt lat="34.809472772135834" lon="113.52579712077848">
        <ele>89.92755234583628</ele>
        <time>2023-08-19T12:24:18Z</time>
      </trkpt>
      <trkpt lat="34.80944233453151" lon="113.5260028364408">
        <ele>91.12682805778654</ele>
        <time>2023-08-19T12:24:24Z</time>
      </trkpt>
      <trkpt lat="34.8094688105298" lon="113.5261985101866">
        <ele>91.85905285097405</ele>
        <time>2023-08-19T12:24:30Z</time>
      </trkpt>
      <trkpt lat="34.80952100097717" lon="113.5262938338565">
        <ele>91.6069283980508</ele>
        <time>2023-08-19T12:24:33Z</time>
      </trkpt>
      <trkpt lat="34.80965715229726" lon="113.52640821412132">
        <ele>90.89231961159587</ele>
        <time>2023-08-19T12:24:39Z</time>
      </trkpt>
      <trkpt lat="34.809744130828015" lon="113.52643529832868">
        <ele>90.47709116274542</ele>
        <time>2023-08-19T12:24:42Z</time>
      </trkpt>
      <trkpt lat="34.81008380375161" lon="113.5264463003906">
        <ele>91.04433872363843</ele>
        <time>2023-08-19T12:24:54Z</time>
      </trkpt>
      <trkpt lat="34.81024965593346" lon="113.52645631740887">
        <ele>91.56853654940049</ele>
        <time>2023-08-19T12:25:00Z</time>
      </trkpt>
      <trkpt lat="34.81058931329921" lon="113.52646129871175">
        <ele>91.80532908204886</ele>
        <time>2023-08-19T12:25:12Z</time>
      </trkpt>
      <trkpt lat="34.810679121461924" lon="113.52642315773058">
        <ele>91.4186341724999</ele>
        <time>2023-08-19T12:25:15Z</time>
      </trkpt>
      <trkpt lat="34.810754885034825" lon="113.52636193857812">
        <ele>91.19705783385099</ele>
        <time>2023-08-19T12:25:18Z</time>
      </trkpt>
      <trkpt lat="34.810811629747974" lon="113.52628566937244">
        <ele>91.15588354511085</ele>
        <time>2023-08-19T12:25:21Z</time>
      </trkpt>
      <trkpt lat="34.810876089998494" lon="113.52610202810881">
        <ele>91.43330705152735</ele>
        <time>2023-08-19T12:25:27Z</time>
      </trkpt>
      <trkpt lat="34.8108838157268" lon="113.52599866977607">
        <ele>91.48093738571144</ele>
        <time>2023-08-19T12:25:30Z</time>
      </trkpt>
      <trkpt lat="34.81085339212157" lon="113.52582206139125">
        <ele>91.52429819360327</ele>
        <time>2023-08-19T12:25:36Z</time>
      </trkpt>
      <trkpt lat="34.8108162133929" lon="113.52573777311214">
        <ele>91.45920790066921</ele>
        <time>2023-08-19T12:25:39Z</time>
      </trkpt>
      <trkpt lat="34.81076207817925" lon="113.52566352125037">
        <ele>91.65416814908991</ele>
        <time>2023-08-19T12:25:42Z</time>
      </trkpt>
      <trkpt lat="34.81067504475009" lon="113.52561536330012">
        <ele>91.19051022133235</ele>
        <time>2023-08-19T12:25:45Z</time>
      </trkpt>
      <trkpt lat="34.81033032770266" lon="113.52558529532273">
        <ele>90.47351435176937</ele>
        <time>2023-08-19T12:25:57Z</time>
      </trkpt>
      <trkpt lat="34.80999857620483" lon="113.52554719806288">
        <ele>89.45797873038546</ele>
        <time>2023-08-19T12:26:09Z</time>
      </trkpt>
      <trkpt lat="34.80975483900752" lon="113.52555023435566">
        <ele>88.92473303987865</ele>
        <time>2023-08-19T12:26:18Z</time>
      </trkpt>
      <trkpt lat="34.80966898853996" lon="113.52557332361121">
        <ele>89.21047191250669</ele>
        <time>2023-08-19T12:26:21Z</time>
      </trkpt>
      <trkpt lat="34.80959718046419" lon="113.52561848800445">
        <ele>89.28634843539902</ele>
        <time>2023-08-19T12:26:24Z</time>
      </trkpt>
      <trkpt lat="34.80949167722136" lon="113.52576801789296">
        <ele>89.93617302927377</ele>
        <time>2023-08-19T12:26:30Z</time>
      </trkpt>
      <trkpt lat="34.809451962243074" lon="113.52586234901015">
        <ele>90.06552300508278</ele>
        <time>2023-08-19T12:26:33Z</time>
      </trkpt>
      <trkpt lat="34.80943326127248" lon="113.525970726273">
        <ele>90.38590594332385</ele>
        <time>2023-08-19T12:26:36Z</time>
      </trkpt>
      <trkpt lat="34.80943553806527" lon="113.52607910097429">
        <ele>91.2374055414031</ele>
        <time>2023-08-19T12:26:39Z</time>
      </trkpt>
      <trkpt lat="34.80945978384109" lon="113.52618446260715">
        <ele>91.8876794534866</ele>
        <time>2023-08-19T12:26:42Z</time>
      </trkpt>
      <trkpt lat="34.80955808590675" lon="113.52634199615929">
        <ele>91.74224026237223</ele>
        <time>2023-08-19T12:26:48Z</time>
      </trkpt>
      <trkpt lat="34.80970220043724" lon="113.52644533736792">
        <ele>90.61793277110348</ele>
        <time>2023-08-19T12:26:54Z</time>
      </trkpt>
      <trkpt lat="34.810018910265946" lon="113.52646135915546">
        <ele>90.54342653264918</ele>
        <time>2023-08-19T12:27:06Z</time>
      </trkpt>
      <trkpt lat="34.81034460289289" lon="113.52647436960783">
        <ele>90.69919356015048</ele>
        <time>2023-08-19T12:27:18Z</time>
      </trkpt>
      <trkpt lat="34.81059434920616" lon="113.52647735351877">
        <ele>90.08596508008694</ele>
        <time>2023-08-19T12:27:27Z</time>
      </trkpt>
      <trkpt lat="34.810668176687784" lon="113.52644021770864">
        <ele>89.96149428675949</ele>
        <time>2023-08-19T12:27:30Z</time>
      </trkpt>
      <trkpt lat="34.81079666346442" lon="113.52629269520699">
        <ele>90.09275801057464</ele>
        <time>2023-08-19T12:27:36Z</time>
      </trkpt>
      <trkpt lat="34.81084337983706" lon="113.52620137491428">
        <ele>90.51518565684482</ele>
        <time>2023-08-19T12:27:39Z</time>
      </trkpt>
      <trkpt lat="34.810887837370956" lon="113.5260087040734">
        <ele>90.89287894851266</ele>
        <time>2023-08-19T12:27:45Z</time>
      </trkpt>
      <trkpt lat="34.81084840252558" lon="113.52582406887527">
        <ele>91.11626834724535</ele>
        <time>2023-08-19T12:27:51Z</time>
      </trkpt>
      <trkpt lat="34.810813229477404" lon="113.52574279082816">
        <ele>91.73752723452529</ele>
        <time>2023-08-19T12:27:54Z</time>
      </trkpt>
      <trkpt lat="34.810660145975575" lon="113.52564847981995">
        <ele>91.89087215057947</ele>
        <time>2023-08-19T12:28:00Z</time>
      </trkpt>
      <trkpt lat="34.810323270181634" lon="113.52556020895274">
        <ele>91.36703626903412</ele>
        <time>2023-08-19T12:28:12Z</time>
      </trkpt>
      <trkpt lat="34.81025131173236" lon="113.52554717127212">
        <ele>91.00612605192863</ele>
        <time>2023-08-19T12:28:15Z</time>
      </trkpt>
      <trkpt lat="34.80990473411582" lon="113.52557028816786">
        <ele>90.09767061700308</ele>
        <time>2023-08-19T12:28:27Z</time>
      </trkpt>
      <trkpt lat="34.80967401184262" lon="113.52558436140853">
        <ele>89.93678704636889</ele>
        <time>2023-08-19T12:28:36Z</time>
      </trkpt>
      <trkpt lat="34.80954043179781" lon="113.52569275171172">
        <ele>89.34254994647307</ele>
        <time>2023-08-19T12:28:42Z</time>
      </trkpt>
      <trkpt lat="34.80949469220702" lon="113.52577504192638">
        <ele>89.6937685571705</ele>
        <time>2023-08-19T12:28:45Z</time>
      </trkpt>
      <trkpt lat="34.80946697501837" lon="113.52587338565749">
        <ele>90.12578237003176</ele>
        <time>2023-08-19T12:28:48Z</time>
      </trkpt>
      <trkpt lat="34.809460522267315" lon="113.52608311220678">
        <ele>90.36462585172222</ele>
        <time>2023-08-19T12:28:54Z</time>
      </trkpt>
      <trkpt lat="34.80947775472046" lon="113.52618044683422">
        <ele>90.43954190660695</ele>
        <time>2023-08-19T12:28:57Z</time>
      </trkpt>
      <trkpt lat="34.80956605180389" lon="113.52633196068892">
        <ele>90.1856050608085</ele>
        <time>2023-08-19T12:29:03Z</time>
      </trkpt>
      <trkpt lat="34.809619122539395" lon="113.52638112470578">
        <ele>89.99656064523357</ele>
        <time>2023-08-19T12:29:06Z</time>
      </trkpt>
      <trkpt lat="34.80970214128419" lon="113.52642225779881">
        <ele>90.03133564186487</ele>
        <time>2023-08-19T12:29:09Z</time>
      </trkpt>
      <trkpt lat="34.810039834315006" lon="113.52644028429268">
        <ele>90.72435960398232</ele>
        <time>2023-08-19T12:29:21Z</time>
      </trkpt>
      <trkpt lat="34.81038251431269" lon="113.52645529987107">
        <ele>91.08931200994897</ele>
        <time>2023-08-19T12:29:33Z</time>
      </trkpt>
      <trkpt lat="34.810627229849175" lon="113.52644423588607">
        <ele>91.23680396749067</ele>
        <time>2023-08-19T12:29:42Z</time>
      </trkpt>
      <trkpt lat="34.81077576010439" lon="113.52632179786484">
        <ele>90.98334895871123</ele>
        <time>2023-08-19T12:29:48Z</time>
      </trkpt>
      <trkpt lat="34.81085324819472" lon="113.52615421090483">
        <ele>90.91724548477625</ele>
        <time>2023-08-19T12:29:54Z</time>
      </trkpt>
      <trkpt lat="34.81086899150644" lon="113.52606088658672">
        <ele>90.98100975175635</ele>
        <time>2023-08-19T12:29:57Z</time>
      </trkpt>
      <trkpt lat="34.8108667379223" lon="113.52596154308358">
        <ele>91.0569298302026</ele>
        <time>2023-08-19T12:30:00Z</time>
      </trkpt>
      <trkpt lat="34.81080531292417" lon="113.52577189257154">
        <ele>91.0597462436852</ele>
        <time>2023-08-19T12:30:06Z</time>
      </trkpt>
      <trkpt lat="34.810753178272094" lon="113.52569864405123">
        <ele>91.04923563620294</ele>
        <time>2023-08-19T12:30:09Z</time>
      </trkpt>
      <trkpt lat="34.81067711005552" lon="113.525641453643">
        <ele>91.57452931184973</ele>
        <time>2023-08-19T12:30:12Z</time>
      </trkpt>
      <trkpt lat="34.810582129038494" lon="113.52561035573149">
        <ele>91.70540886197006</ele>
        <time>2023-08-19T12:30:15Z</time>
      </trkpt>
      <trkpt lat="34.81030935743758" lon="113.5255883079986">
        <ele>91.32001590712801</ele>
        <time>2023-08-19T12:30:24Z</time>
      </trkpt>
      <trkpt lat="34.80997961681745" lon="113.52555522795522">
        <ele>90.27665254167079</ele>
        <time>2023-08-19T12:30:36Z</time>
      </trkpt>
      <trkpt lat="34.80972885320821" lon="113.52554521968311">
        <ele>89.61909564373266</ele>
        <time>2023-08-19T12:30:45Z</time>
      </trkpt>
      <trkpt lat="34.8096450343678" lon="113.52558135402691">
        <ele>89.24646122329591</ele>
        <time>2023-08-19T12:30:48Z</time>
      </trkpt>
      <trkpt lat="34.809569274526" lon="113.52564357803817">
        <ele>89.06479501456337</ele>
        <time>2023-08-19T12:30:51Z</time>
      </trkpt>
      <trkpt lat="34.80946384623112" lon="113.52582220867207">
        <ele>89.10242722171517</ele>
        <time>2023-08-19T12:30:57Z</time>
      </trkpt>
      <trkpt lat="34.80942841372144" lon="113.52602792471532">
        <ele>89.43685694692537</ele>
        <time>2023-08-19T12:31:03Z</time>
      </trkpt>
      <trkpt lat="34.80943468359948" lon="113.52613529534604">
        <ele>89.78282195294268</ele>
        <time>2023-08-19T12:31:06Z</time>
      </trkpt>
      <trkpt lat="34.8094709038033" lon="113.52623563821108">
        <ele>89.76913900276737</ele>
        <time>2023-08-19T12:31:09Z</time>
      </trkpt>
      <trkpt lat="34.809531062630306" lon="113.5263219297675">
        <ele>89.6779957886879</ele>
        <time>2023-08-19T12:31:12Z</time>
      </trkpt>
      <trkpt lat="34.80960415622583" lon="113.52638815052035">
        <ele>90.04549014111083</ele>
        <time>2023-08-19T12:31:15Z</time>
      </trkpt>
      <trkpt lat="34.809782109117144" lon="113.52644231852189">
        <ele>89.88771095551307</ele>
        <time>2023-08-19T12:31:21Z</time>
      </trkpt>
      <trkpt lat="34.810137775589034" lon="113.52645733272357">
        <ele>89.09454835377555</ele>
        <time>2023-08-19T12:31:33Z</time>
      </trkpt>
      <trkpt lat="34.810489456428556" lon="113.52647636117538">
        <ele>89.05779796379933</ele>
        <time>2023-08-19T12:31:45Z</time>
      </trkpt>
      <trkpt lat="34.810580348420714" lon="113.52647133425053">
        <ele>89.14264748894256</ele>
        <time>2023-08-19T12:31:48Z</time>
      </trkpt>
      <trkpt lat="34.8106731483127" lon="113.52643118604378">
        <ele>89.2042683836467</ele>
        <time>2023-08-19T12:31:51Z</time>
      </trkpt>
      <trkpt lat="34.81075888599894" lon="113.52636394507795">
        <ele>89.50891393632266</ele>
        <time>2023-08-19T12:31:54Z</time>
      </trkpt>
      <trkpt lat="34.81082158837999" lon="113.52627362674494">
        <ele>89.66343317809054</ele>
        <time>2023-08-19T12:31:57Z</time>
      </trkpt>
      <trkpt lat="34.8108592857583" lon="113.52617126921669">
        <ele>90.00321923080448</ele>
        <time>2023-08-19T12:32:00Z</time>
      </trkpt>
      <trkpt lat="34.810876990883195" lon="113.52606389615089">
        <ele>90.39848946479557</ele>
        <time>2023-08-19T12:32:03Z</time>
      </trkpt>
      <trkpt lat="34.81087370476145" lon="113.52595150760794">
        <ele>90.55851214745077</ele>
        <time>2023-08-19T12:32:06Z</time>
      </trkpt>
      <trkpt lat="34.81084646929177" lon="113.52584915600966">
        <ele>90.7803756200744</ele>
        <time>2023-08-19T12:32:09Z</time>
      </trkpt>
      <trkpt lat="34.810797277281026" lon="113.52575483427547">
        <ele>90.55223333693777</ele>
        <time>2023-08-19T12:32:12Z</time>
      </trkpt>
      <trkpt lat="34.81072216405976" lon="113.5256805846736">
        <ele>90.0297177297671</ele>
        <time>2023-08-19T12:32:15Z</time>
      </trkpt>
      <trkpt lat="34.81063212341711" lon="113.5256284131332">
        <ele>89.48619822492508</ele>
        <time>2023-08-19T12:32:18Z</time>
      </trkpt>
      <trkpt lat="34.81034833740803" lon="113.52559633173996">
        <ele>89.33413623378709</ele>
        <time>2023-08-19T12:32:27Z</time>
      </trkpt>
      <trkpt lat="34.81006257156111" lon="113.5255712749216">
        <ele>89.4166853648082</ele>
        <time>2023-08-19T12:32:36Z</time>
      </trkpt>
      <trkpt lat="34.809780824805706" lon="113.52555524902752">
        <ele>88.4190623704344</ele>
        <time>2023-08-19T12:32:45Z</time>
      </trkpt>
      <trkpt lat="34.809682958347864" lon="113.5255673012218">
        <ele>88.11064756475389</ele>
        <time>2023-08-19T12:32:48Z</time>
      </trkpt>
      <trkpt lat="34.80960316382445" lon="113.52561447343645">
        <ele>87.85282648913562</ele>
        <time>2023-08-19T12:32:51Z</time>
      </trkpt>
      <trkpt lat="34.80947875810258" lon="113.5257941097091">
        <ele>88.31977097690105</ele>
        <time>2023-08-19T12:32:57Z</time>
      </trkpt>
      <trkpt lat="34.80944609779754" lon="113.52591252341482">
        <ele>88.32251320127398</ele>
        <time>2023-08-19T12:33:00Z</time>
      </trkpt>
      <trkpt lat="34.80943443327284" lon="113.52603795879196">
        <ele>88.07347423117608</ele>
        <time>2023-08-19T12:33:03Z</time>
      </trkpt>
      <trkpt lat="34.80945373596219" lon="113.5261633904333">
        <ele>88.84579590061911</ele>
        <time>2023-08-19T12:33:06Z</time>
      </trkpt>
      <trkpt lat="34.80948996639889" lon="113.52626774707444">
        <ele>87.81109227333218</ele>
        <time>2023-08-19T12:33:09Z</time>
      </trkpt>
      <trkpt lat="34.80954713858506" lon="113.52635805271524">
        <ele>87.91459820047021</ele>
        <time>2023-08-19T12:33:12Z</time>
      </trkpt>
      <trkpt lat="34.80963619224922" lon="113.52641524056546">
        <ele>88.52516996953636</ele>
        <time>2023-08-19T12:33:15Z</time>
      </trkpt>
      <trkpt lat="34.80973914891219" lon="113.526440316155">
        <ele>88.53340700920671</ele>
        <time>2023-08-19T12:33:18Z</time>
      </trkpt>
      <trkpt lat="34.810032864776275" lon="113.5264493161666">
        <ele>89.38788897637278</ele>
        <time>2023-08-19T12:33:27Z</time>
      </trkpt>
      <trkpt lat="34.8103885774558" lon="113.52648239261613">
        <ele>89.51904742363025</ele>
        <time>2023-08-19T12:33:39Z</time>
      </trkpt>
      <trkpt lat="34.81056735944353" lon="113.5264703321682">
        <ele>88.565429557548</ele>
        <time>2023-08-19T12:33:45Z</time>
      </trkpt>
      <trkpt lat="34.81064818474363" lon="113.52643520252856">
        <ele>88.37202053291426</ele>
        <time>2023-08-19T12:33:48Z</time>
      </trkpt>
      <trkpt lat="34.81072495758453" lon="113.52637799713689">
        <ele>88.50504766006651</ele>
        <time>2023-08-19T12:33:51Z</time>
      </trkpt>
      <trkpt lat="34.810823405909794" lon="113.5262033839643">
        <ele>88.80972916235073</ele>
        <time>2023-08-19T12:33:57Z</time>
      </trkpt>
      <trkpt lat="34.81085884703978" lon="113.5260006793674">
        <ele>89.44933272737848</ele>
        <time>2023-08-19T12:34:03Z</time>
      </trkpt>
      <trkpt lat="34.8108496032119" lon="113.52590233990824">
        <ele>89.85749286791271</ele>
        <time>2023-08-19T12:34:06Z</time>
      </trkpt>
      <trkpt lat="34.810815374936695" lon="113.52579998890678">
        <ele>90.1688419688849</ele>
        <time>2023-08-19T12:34:09Z</time>
      </trkpt>
      <trkpt lat="34.810761203579176" lon="113.52571168845293">
        <ele>90.17813503313015</ele>
        <time>2023-08-19T12:34:12Z</time>
      </trkpt>
      <trkpt lat="34.81069511196605" lon="113.52564947959605">
        <ele>89.87072914216324</ele>
        <time>2023-08-19T12:34:15Z</time>
      </trkpt>
      <trkpt lat="34.81037229675722" lon="113.52559030829539">
        <ele>89.63839785351658</ele>
        <time>2023-08-19T12:34:27Z</time>
      </trkpt>
      <trkpt lat="34.810062605276016" lon="113.52558432021745">
        <ele>88.47933758332069</ele>
        <time>2023-08-19T12:34:39Z</time>
      </trkpt>
      <trkpt lat="34.80974291120703" lon="113.5255733157754">
        <ele>88.22182875405616</ele>
        <time>2023-08-19T12:34:51Z</time>
      </trkpt>
      <trkpt lat="34.80966705027542" lon="113.5255964039568">
        <ele>88.1014769507562</ele>
        <time>2023-08-19T12:34:54Z</time>
      </trkpt>
      <trkpt lat="34.80959725304273" lon="113.52564658552042">
        <ele>88.21744444774747</ele>
        <time>2023-08-19T12:34:57Z</time>
      </trkpt>
      <trkpt lat="34.809497743425894" lon="113.52579611465349">
        <ele>87.87688698992889</ele>
        <time>2023-08-19T12:35:03Z</time>
      </trkpt>
      <trkpt lat="34.80944627094098" lon="113.52597975615235">
        <ele>88.29649187060791</ele>
        <time>2023-08-19T12:35:09Z</time>
      </trkpt>
      <trkpt lat="34.80947175325463" lon="113.52617743706854">
        <ele>89.0380320726939</ele>
        <time>2023-08-19T12:35:15Z</time>
      </trkpt>
      <trkpt lat="34.80950793213386" lon="113.52626172438222">
        <ele>89.13595891474492</ele>
        <time>2023-08-19T12:35:18Z</time>
      </trkpt>
      <trkpt lat="34.80963710887609" lon="113.52638312972245">
        <ele>89.9069441180417</ele>
        <time>2023-08-19T12:35:24Z</time>
      </trkpt>
      <trkpt lat="34.80979608162715" lon="113.52643729974315">
        <ele>89.37292284894738</ele>
        <time>2023-08-19T12:35:30Z</time>
      </trkpt>
      <trkpt lat="34.81011377239182" lon="113.52644629721493">
        <ele>88.84958355917192</ele>
        <time>2023-08-19T12:35:42Z</time>
      </trkpt>
      <trkpt lat="34.8104324723202" lon="113.52645930841372">
        <ele>88.45544722229783</ele>
        <time>2023-08-19T12:35:54Z</time>
      </trkpt>
      <trkpt lat="34.81058532005309" lon="113.52646230259393">
        <ele>88.75756822335373</ele>
        <time>2023-08-19T12:36:00Z</time>
      </trkpt>
      <trkpt lat="34.81066217010338" lon="113.52643520104654">
        <ele>88.65922174067376</ele>
        <time>2023-08-19T12:36:03Z</time>
      </trkpt>
      <trkpt lat="34.81077174883889" lon="113.52631577751072">
        <ele>88.74847153024974</ele>
        <time>2023-08-19T12:36:10Z</time>
      </trkpt>
      <trkpt lat="34.81085115742701" lon="113.5261180862597">
        <ele>89.2309312326628</ele>
        <time>2023-08-19T12:36:16Z</time>
      </trkpt>
      <trkpt lat="34.81086586554585" lon="113.52601071334654">
        <ele>89.24617496239546</ele>
        <time>2023-08-19T12:36:19Z</time>
      </trkpt>
      <trkpt lat="34.81085960826464" lon="113.52590835969899">
        <ele>89.37313233905948</ele>
        <time>2023-08-19T12:36:22Z</time>
      </trkpt>
      <trkpt lat="34.81083640213921" lon="113.52581905275919">
        <ele>89.20527123220172</ele>
        <time>2023-08-19T12:36:25Z</time>
      </trkpt>
      <trkpt lat="34.810744159188" lon="113.525687606713">
        <ele>89.70901187336298</ele>
        <time>2023-08-19T12:36:31Z</time>
      </trkpt>
      <trkpt lat="34.81060208738284" lon="113.52560232574564">
        <ele>89.60485717457097</ele>
        <time>2023-08-19T12:36:37Z</time>
      </trkpt>
      <trkpt lat="34.810282401223986" lon="113.52559433176118">
        <ele>90.20036564004533</ele>
        <time>2023-08-19T12:36:49Z</time>
      </trkpt>
      <trkpt lat="34.809962707209095" lon="113.52558332732237">
        <ele>90.60249530711633</ele>
        <time>2023-08-19T12:37:01Z</time>
      </trkpt>
      <trkpt lat="34.809790861042984" lon="113.52557331069269">
        <ele>90.26272054162379</ele>
        <time>2023-08-19T12:37:07Z</time>
      </trkpt>
      <trkpt lat="34.80970098622019" lon="113.52558536203361">
        <ele>89.8713876266886</ele>
        <time>2023-08-19T12:37:10Z</time>
      </trkpt>
      <trkpt lat="34.80961715956484" lon="113.52561848588671">
        <ele>89.79952015194189</ele>
        <time>2023-08-19T12:37:13Z</time>
      </trkpt>
      <trkpt lat="34.80954738043975" lon="113.52567569178959">
        <ele>89.34007525615422</ele>
        <time>2023-08-19T12:37:16Z</time>
      </trkpt>
      <trkpt lat="34.80945791458931" lon="113.52584629275343">
        <ele>89.15255487307878</ele>
        <time>2023-08-19T12:37:22Z</time>
      </trkpt>
      <trkpt lat="34.80942940751222" lon="113.52602591766673">
        <ele>89.7949105389708</ele>
        <time>2023-08-19T12:37:28Z</time>
      </trkpt>
      <trkpt lat="34.80944363034145" lon="113.52611823542932">
        <ele>90.13675579058865</ele>
        <time>2023-08-19T12:37:31Z</time>
      </trkpt>
      <trkpt lat="34.80947682021522" lon="113.52620553360366">
        <ele>90.087647277356</ele>
        <time>2023-08-19T12:37:34Z</time>
      </trkpt>
      <trkpt lat="34.80958706590008" lon="113.52634600693801">
        <ele>89.73903479207443</ele>
        <time>2023-08-19T12:37:40Z</time>
      </trkpt>
      <trkpt lat="34.80972114714875" lon="113.52643229038475">
        <ele>89.10767303132715</ele>
        <time>2023-08-19T12:37:46Z</time>
      </trkpt>
      <trkpt lat="34.81000287813334" lon="113.52644229512796">
        <ele>88.77235617028121</ele>
        <time>2023-08-19T12:37:58Z</time>
      </trkpt>
      <trkpt lat="34.81035154415253" lon="113.5264542996937">
        <ele>90.07420847014015</ele>
        <time>2023-08-19T12:38:10Z</time>
      </trkpt>
      <trkpt lat="34.81058830920251" lon="113.52645929190004">
        <ele>91.09298497397863</ele>
        <time>2023-08-19T12:38:19Z</time>
      </trkpt>
      <trkpt lat="34.81066217010338" lon="113.52643520104654">
        <ele>91.04491686056573</ele>
        <time>2023-08-19T12:38:22Z</time>
      </trkpt>
      <trkpt lat="34.81078471979352" lon="113.52630975535587">
        <ele>90.77996255547826</ele>
        <time>2023-08-19T12:38:28Z</time>
      </trkpt>
      <trkpt lat="34.810860181550495" lon="113.52613113039841">
        <ele>90.7808012413236</ele>
        <time>2023-08-19T12:38:34Z</time>
      </trkpt>
      <trkpt lat="34.810875924807874" lon="113.52603780601802">
        <ele>91.04805301389436</ele>
        <time>2023-08-19T12:38:37Z</time>
      </trkpt>
      <trkpt lat="34.810871681011065" lon="113.52594147308231">
        <ele>91.07986263975498</ele>
        <time>2023-08-19T12:38:40Z</time>
      </trkpt>
      <trkpt lat="34.810810330991345" lon="113.52578092334983">
        <ele>91.17600698591973</ele>
        <time>2023-08-19T12:38:46Z</time>
      </trkpt>
      <trkpt lat="34.810761200989056" lon="113.52571068497244">
        <ele>91.59117334802617</ele>
        <time>2023-08-19T12:38:49Z</time>
      </trkpt>
      <trkpt lat="34.810693142564354" lon="113.52566051811107">
        <ele>91.93999041484338</ele>
        <time>2023-08-19T12:38:52Z</time>
      </trkpt>
      <trkpt lat="34.810535193739994" lon="113.52561638160817">
        <ele>91.63945625022869</ele>
        <time>2023-08-19T12:38:58Z</time>
      </trkpt>
      <trkpt lat="34.81021246662521" lon="113.52559132872192">
        <ele>90.81847109673625</ele>
        <time>2023-08-19T12:39:10Z</time>
      </trkpt>
      <trkpt lat="34.80990279066716" lon="113.5255913615479">
        <ele>90.5567174718268</ele>
        <time>2023-08-19T12:39:22Z</time>
      </trkpt>
      <trkpt lat="34.809716956532874" lon="113.52558034291869">
        <ele>90.07820362738528</ele>
        <time>2023-08-19T12:39:28Z</time>
      </trkpt>
      <trkpt lat="34.80963911842752" lon="113.52561145917467">
        <ele>90.28837539526333</ele>
        <time>2023-08-19T12:39:31Z</time>
      </trkpt>
      <trkpt lat="34.809571332041244" lon="113.52566665791392">
        <ele>90.231097586704</ele>
        <time>2023-08-19T12:39:34Z</time>
      </trkpt>
      <trkpt lat="34.809492826278984" lon="113.52582621951045">
        <ele>90.8171101288776</ele>
        <time>2023-08-19T12:39:40Z</time>
      </trkpt>
      <trkpt lat="34.809460121942884" lon="113.5259275740493">
        <ele>90.98084870843022</ele>
        <time>2023-08-19T12:39:43Z</time>
      </trkpt>
      <trkpt lat="34.80944541919762" lon="113.52603695415633">
        <ele>90.79792360990693</ele>
        <time>2023-08-19T12:39:46Z</time>
      </trkpt>
      <trkpt lat="34.80950085441793" lon="113.52622861077738">
        <ele>90.77502796369123</ele>
        <time>2023-08-19T12:39:52Z</time>
      </trkpt>
      <trkpt lat="34.80961910709965" lon="113.52637510393886">
        <ele>90.58810259796493</ele>
        <time>2023-08-19T12:39:58Z</time>
      </trkpt>
      <trkpt lat="34.80968915486961" lon="113.52642225917492">
        <ele>90.78545495747672</ele>
        <time>2023-08-19T12:40:01Z</time>
      </trkpt>
      <trkpt lat="34.8097681237484" lon="113.52644232000384">
        <ele>90.41401259093242</ele>
        <time>2023-08-19T12:40:04Z</time>
      </trkpt>
      <trkpt lat="34.810098752067574" lon="113.52643225037143">
        <ele>91.02442417085304</ele>
        <time>2023-08-19T12:40:16Z</time>
      </trkpt>
      <trkpt lat="34.810440474240295" lon="113.52646332140186">
        <ele>90.52027589424478</ele>
        <time>2023-08-19T12:40:28Z</time>
      </trkpt>
      <trkpt lat="34.81060430789833" lon="113.52646531095867">
        <ele>90.66224094370895</ele>
        <time>2023-08-19T12:40:34Z</time>
      </trkpt>
      <trkpt lat="34.810685135763705" lon="113.52643118477347">
        <ele>90.73393260824983</ele>
        <time>2023-08-19T12:40:37Z</time>
      </trkpt>
      <trkpt lat="34.810752907715205" lon="113.52636996648224">
        <ele>90.66018303876828</ele>
        <time>2023-08-19T12:40:40Z</time>
      </trkpt>
      <trkpt lat="34.81085234206712" lon="113.52619033582984">
        <ele>90.27615469438915</ele>
        <time>2023-08-19T12:40:46Z</time>
      </trkpt>
      <trkpt lat="34.81087405854434" lon="113.526088983218">
        <ele>90.4870985790815</ele>
        <time>2023-08-19T12:40:49Z</time>
      </trkpt>
      <trkpt lat="34.810837421791895" lon="113.52582708047166">
        <ele>91.33579983282098</ele>
        <time>2023-08-19T12:40:58Z</time>
      </trkpt>
      <trkpt lat="34.81079827364614" lon="113.52575383069032">
        <ele>91.31533474857196</ele>
        <time>2023-08-19T12:41:01Z</time>
      </trkpt>
      <trkpt lat="34.81067112151368" lon="113.5256434612433">
        <ele>91.03297052364358</ele>
        <time>2023-08-19T12:41:07Z</time>
      </trkpt>
      <trkpt lat="34.810600089474235" lon="113.52560232595742">
        <ele>91.21417265901198</ele>
        <time>2023-08-19T12:41:10Z</time>
      </trkpt>
      <trkpt lat="34.810284347267235" lon="113.52557426186702">
        <ele>90.68673378073295</ele>
        <time>2023-08-19T12:41:22Z</time>
      </trkpt>
      <trkpt lat="34.80996867240972" lon="113.52557228835981">
        <ele>90.4408444389496</ele>
        <time>2023-08-19T12:41:34Z</time>
      </trkpt>
      <trkpt lat="34.809736878571094" lon="113.52555826414135">
        <ele>90.42867070446587</ele>
        <time>2023-08-19T12:41:43Z</time>
      </trkpt>
      <trkpt lat="34.80959620484011" lon="113.52562751945722">
        <ele>90.60359240547022</ele>
        <time>2023-08-19T12:41:49Z</time>
      </trkpt>
      <trkpt lat="34.80953341579592" lon="113.52568372112287">
        <ele>90.40039357905462</ele>
        <time>2023-08-19T12:41:52Z</time>
      </trkpt>
      <trkpt lat="34.80948367263657" lon="113.52576300134551">
        <ele>90.5204895283136</ele>
        <time>2023-08-19T12:41:55Z</time>
      </trkpt>
      <trkpt lat="34.80943422147063" lon="113.52595567406911">
        <ele>91.48131250354676</ele>
        <time>2023-08-19T12:42:01Z</time>
      </trkpt>
      <trkpt lat="34.80943049166685" lon="113.52605903210085">
        <ele>91.77619799562339</ele>
        <time>2023-08-19T12:42:04Z</time>
      </trkpt>
      <trkpt lat="34.80944672006642" lon="113.52615435996654">
        <ele>92.01485477902088</ele>
        <time>2023-08-19T12:42:07Z</time>
      </trkpt>
      <trkpt lat="34.80953102400661" lon="113.52630687782236">
        <ele>91.88940078097698</ele>
        <time>2023-08-19T12:42:13Z</time>
      </trkpt>
      <trkpt lat="34.80964517255471" lon="113.52641122577228">
        <ele>92.43904438417088</ele>
        <time>2023-08-19T12:42:19Z</time>
      </trkpt>
      <trkpt lat="34.80972315277427" lon="113.52643530055163">
        <ele>92.29745850207291</ele>
        <time>2023-08-19T12:42:22Z</time>
      </trkpt>
      <trkpt lat="34.810070765904506" lon="113.52642623257736">
        <ele>91.75371849899443</ele>
        <time>2023-08-19T12:42:34Z</time>
      </trkpt>
      <trkpt lat="34.810373564860306" lon="113.52647135616277">
        <ele>90.78799147268094</ele>
        <time>2023-08-19T12:42:46Z</time>
      </trkpt>
      <trkpt lat="34.810586290723315" lon="113.52645126444031">
        <ele>90.58516731726661</ele>
        <time>2023-08-19T12:42:55Z</time>
      </trkpt>
      <trkpt lat="34.81073394302584" lon="113.52637598926167">
        <ele>90.02438029007085</ele>
        <time>2023-08-19T12:43:01Z</time>
      </trkpt>
      <trkpt lat="34.81083548871795" lon="113.52624051092673">
        <ele>90.02164661240913</ele>
        <time>2023-08-19T12:43:07Z</time>
      </trkpt>
      <trkpt lat="34.81086004221746" lon="113.52607694306275">
        <ele>91.02999877370121</ele>
        <time>2023-08-19T12:43:13Z</time>
      </trkpt>
      <trkpt lat="34.810860775201824" lon="113.52597358539641">
        <ele>91.19782123545207</ele>
        <time>2023-08-19T12:43:16Z</time>
      </trkpt>
      <trkpt lat="34.810840511777805" lon="113.52586320531374">
        <ele>90.87869866771727</ele>
        <time>2023-08-19T12:43:19Z</time>
      </trkpt>
      <trkpt lat="34.81079230581043" lon="113.52576386611703">
        <ele>90.38719674442612</ele>
        <time>2023-08-19T12:43:22Z</time>
      </trkpt>
      <trkpt lat="34.81072420341917" lon="113.52569664016023">
        <ele>89.8901463248384</ele>
        <time>2023-08-19T12:43:25Z</time>
      </trkpt>
      <trkpt lat="34.81065117093684" lon="113.52565450166622">
        <ele>89.91251601344548</ele>
        <time>2023-08-19T12:43:28Z</time>
      </trkpt>
      <trkpt lat="34.81042228855978" lon="113.52560736222384">
        <ele>90.21022981359162</ele>
        <time>2023-08-19T12:43:37Z</time>
      </trkpt>
      <trkpt lat="34.810113562337726" lon="113.52558832875324">
        <ele>90.1646986390521</ele>
        <time>2023-08-19T12:43:49Z</time>
      </trkpt>
      <trkpt lat="34.80981383441187" lon="113.52557230477281">
        <ele>89.69359746498769</ele>
        <time>2023-08-19T12:44:01Z</time>
      </trkpt>
      <trkpt lat="34.80973091856059" lon="113.5255713100772">
        <ele>89.4354311801575</ele>
        <time>2023-08-19T12:44:04Z</time>
      </trkpt>
      <trkpt lat="34.80965406645348" lon="113.52559740881709">
        <ele>89.42289079702297</ele>
        <time>2023-08-19T12:44:07Z</time>
      </trkpt>
      <trkpt lat="34.809536511093945" lon="113.52572185307179">
        <ele>89.54420326206177</ele>
        <time>2023-08-19T12:44:13Z</time>
      </trkpt>
      <trkpt lat="34.80946605104838" lon="113.52590248654924">
        <ele>90.19426440929129</ele>
        <time>2023-08-19T12:44:19Z</time>
      </trkpt>
      <trkpt lat="34.80946949737843" lon="113.52607709043502">
        <ele>91.24725669522151</ele>
        <time>2023-08-19T12:44:25Z</time>
      </trkpt>
      <trkpt lat="34.80953694304837" lon="113.52627777674125">
        <ele>91.41240232469225</ele>
        <time>2023-08-19T12:44:31Z</time>
      </trkpt>
      <trkpt lat="34.8095870916399" lon="113.52635604155743">
        <ele>91.08040668970999</ele>
        <time>2023-08-19T12:44:34Z</time>
      </trkpt>
      <trkpt lat="34.80972113428888" lon="113.52642727308651">
        <ele>91.08930068617883</ele>
        <time>2023-08-19T12:44:40Z</time>
      </trkpt>
      <trkpt lat="34.81003082829183" lon="113.52643426448876">
        <ele>90.80440260367644</ele>
        <time>2023-08-19T12:44:52Z</time>
      </trkpt>
      <trkpt lat="34.81034257413205" lon="113.52646232831707">
        <ele>89.91426849907326</ele>
        <time>2023-08-19T12:45:04Z</time>
      </trkpt>
      <trkpt lat="34.810587305105706" lon="113.52645728508821">
        <ele>90.45454201982733</ele>
        <time>2023-08-19T12:45:13Z</time>
      </trkpt>
      <trkpt lat="34.81067013858994" lon="113.52642616906279">
        <ele>90.24992285514958</ele>
        <time>2023-08-19T12:45:16Z</time>
      </trkpt>
      <trkpt lat="34.81073891463577" lon="113.52636695757988">
        <ele>90.48150334888479</ele>
        <time>2023-08-19T12:45:19Z</time>
      </trkpt>
      <trkpt lat="34.81083938144273" lon="113.5262003718714">
        <ele>90.3319506830547</ele>
        <time>2023-08-19T12:45:25Z</time>
      </trkpt>
      <trkpt lat="34.81087089130577" lon="113.52602275447765">
        <ele>90.56880314398755</ele>
        <time>2023-08-19T12:45:31Z</time>
      </trkpt>
      <trkpt lat="34.810839437810074" lon="113.52583410459943">
        <ele>90.19474910413625</ele>
        <time>2023-08-19T12:45:37Z</time>
      </trkpt>
      <trkpt lat="34.81079425193769" lon="113.5257437963196">
        <ele>90.62508197013865</ele>
        <time>2023-08-19T12:45:40Z</time>
      </trkpt>
      <trkpt lat="34.81073412560021" lon="113.52567054858768">
        <ele>90.52625128052468</ele>
        <time>2023-08-19T12:45:43Z</time>
      </trkpt>
      <trkpt lat="34.81057110942743" lon="113.52559831509362">
        <ele>91.29565696346629</ele>
        <time>2023-08-19T12:45:49Z</time>
      </trkpt>
      <trkpt lat="34.81025545278751" lon="113.52560336597355">
        <ele>91.58428054844654</ele>
        <time>2023-08-19T12:46:01Z</time>
      </trkpt>
      <trkpt lat="34.809925722541145" lon="113.52557429988194">
        <ele>90.84941644800091</ele>
        <time>2023-08-19T12:46:13Z</time>
      </trkpt>
      <trkpt lat="34.80977684973742" lon="113.52556327732958">
        <ele>89.81953971370346</ele>
        <time>2023-08-19T12:46:19Z</time>
      </trkpt>
      <trkpt lat="34.80969898053035" lon="113.52558235179306">
        <ele>88.94040278273084</ele>
        <time>2023-08-19T12:46:22Z</time>
      </trkpt>
      <trkpt lat="34.80956437822157" lon="113.5256817108779">
        <ele>87.99818737576683</ele>
        <time>2023-08-19T12:46:28Z</time>
      </trkpt>
      <trkpt lat="34.809501620171766" lon="113.52574995421061">
        <ele>87.72280442546811</ele>
        <time>2023-08-19T12:46:31Z</time>
      </trkpt>
      <trkpt lat="34.80942914657898" lon="113.52592456690856">
        <ele>87.08835068577558</ele>
        <time>2023-08-19T12:46:37Z</time>
      </trkpt>
      <trkpt lat="34.809414415437914" lon="113.52602290884049">
        <ele>86.97599225572866</ele>
        <time>2023-08-19T12:46:40Z</time>
      </trkpt>
      <trkpt lat="34.80945581380137" lon="113.52619449769705">
        <ele>88.2846933372534</ele>
        <time>2023-08-19T12:46:46Z</time>
      </trkpt>
      <trkpt lat="34.80949696681289" lon="113.5262707567264">
        <ele>88.5044096755306</ele>
        <time>2023-08-19T12:46:49Z</time>
      </trkpt>
      <trkpt lat="34.80956007351984" lon="113.52633798209853">
        <ele>89.063987941108</ele>
        <time>2023-08-19T12:46:52Z</time>
      </trkpt>
      <trkpt lat="34.809706142248324" lon="113.52642426429506">
        <ele>90.05639024125131</ele>
        <time>2023-08-19T12:46:58Z</time>
      </trkpt>
      <trkpt lat="34.80978112044865" lon="113.52644633246463">
        <ele>89.86358642574737</ele>
        <time>2023-08-19T12:47:01Z</time>
      </trkpt>
      <trkpt lat="34.809992847436135" lon="113.52642624083414">
        <ele>89.96749039088951</ele>
        <time>2023-08-19T12:47:10Z</time>
      </trkpt>
      <trkpt lat="34.81030755415294" lon="113.52644025592322">
        <ele>89.75034397227245</ele>
        <time>2023-08-19T12:47:22Z</time>
      </trkpt>
      <trkpt lat="34.81059132406335" lon="113.52646631579344">
        <ele>89.16321475886059</ele>
        <time>2023-08-19T12:47:34Z</time>
      </trkpt>
      <trkpt lat="34.8107090180592" lon="113.52639505766676">
        <ele>89.02691257794147</ele>
        <time>2023-08-19T12:47:40Z</time>
      </trkpt>
      <trkpt lat="34.81080558965742" lon="113.52626760765278">
        <ele>89.45088110237644</ele>
        <time>2023-08-19T12:47:46Z</time>
      </trkpt>
      <trkpt lat="34.810862135602605" lon="113.52611407121978">
        <ele>89.3827347709713</ele>
        <time>2023-08-19T12:47:52Z</time>
      </trkpt>
      <trkpt lat="34.81086770845267" lon="113.52595050476961">
        <ele>89.90067087839448</ele>
        <time>2023-08-19T12:47:58Z</time>
      </trkpt>
      <trkpt lat="34.8108303385449" lon="113.52579195949393">
        <ele>90.26789666175546</ele>
        <time>2023-08-19T12:48:04Z</time>
      </trkpt>
      <trkpt lat="34.81071314756164" lon="113.52567055081137">
        <ele>89.92338261732748</ele>
        <time>2023-08-19T12:48:10Z</time>
      </trkpt>
      <trkpt lat="34.81056614058394" lon="113.52560835045891">
        <ele>90.04161228790461</ele>
        <time>2023-08-19T12:48:16Z</time>
      </trkpt>
      <trkpt lat="34.81025341339013" lon="113.52558731044451">
        <ele>89.86922334986288</ele>
        <time>2023-08-19T12:48:28Z</time>
      </trkpt>
      <trkpt lat="34.80995665642143" lon="113.52556125129982">
        <ele>89.18684030110758</ele>
        <time>2023-08-19T12:48:40Z</time>
      </trkpt>
      <trkpt lat="34.80963315321472" lon="113.52562249812475">
        <ele>88.09919166134141</ele>
        <time>2023-08-19T12:48:52Z</time>
      </trkpt>
      <trkpt lat="34.80950761131324" lon="113.52574895009596">
        <ele>87.36189840983722</ele>
        <time>2023-08-19T12:48:58Z</time>
      </trkpt>
      <trkpt lat="34.809440114406726" lon="113.52591653794849">
        <ele>87.21960466613815</ele>
        <time>2023-08-19T12:49:04Z</time>
      </trkpt>
      <trkpt lat="34.809422582616854" lon="113.52609114398665">
        <ele>86.49520619710101</ele>
        <time>2023-08-19T12:49:10Z</time>
      </trkpt>
      <trkpt lat="34.80948393660029" lon="113.5262536992056">
        <ele>86.24721752947667</ele>
        <time>2023-08-19T12:49:16Z</time>
      </trkpt>
      <trkpt lat="34.8095410727781" lon="113.5263299564103">
        <ele>86.44879109423289</ele>
        <time>2023-08-19T12:49:19Z</time>
      </trkpt>
      <trkpt lat="34.80967317158994" lon="113.5264222608686">
        <ele>86.51633294979779</ele>
        <time>2023-08-19T12:49:25Z</time>
      </trkpt>
      <trkpt lat="34.8100198526488" lon="113.52643928295042">
        <ele>88.52818912229586</ele>
        <time>2023-08-19T12:49:37Z</time>
      </trkpt>
      <trkpt lat="34.81034654423734" lon="113.52645229330503">
        <ele>88.62337257156877</ele>
        <time>2023-08-19T12:49:49Z</time>
      </trkpt>
      <trkpt lat="34.81052241678138" lon="113.52647435076547">
        <ele>88.84870013670539</ele>
        <time>2023-08-19T12:49:55Z</time>
      </trkpt>
      <trkpt lat="34.8106132702038" lon="113.52645427195917">
        <ele>89.00352789849582</ele>
        <time>2023-08-19T12:49:58Z</time>
      </trkpt>
      <trkpt lat="34.8106870719384" lon="113.52640710152194">
        <ele>89.47356372309027</ele>
        <time>2023-08-19T12:50:01Z</time>
      </trkpt>
      <trkpt lat="34.810833227845286" lon="113.52613815753497">
        <ele>89.2539863550836</ele>
        <time>2023-08-19T12:50:10Z</time>
      </trkpt>
      <trkpt lat="34.81085396589012" lon="113.52604483264425">
        <ele>88.95048402326327</ele>
        <time>2023-08-19T12:50:13Z</time>
      </trkpt>
      <trkpt lat="34.81085071072749" lon="113.52594448572731">
        <ele>88.81163414034893</ele>
        <time>2023-08-19T12:50:16Z</time>
      </trkpt>
      <trkpt lat="34.81082647468862" lon="113.52584313726754">
        <ele>89.11470787724245</ele>
        <time>2023-08-19T12:50:19Z</time>
      </trkpt>
      <trkpt lat="34.81078430123274" lon="113.52575884956879">
        <ele>89.27762556038476</ele>
        <time>2023-08-19T12:50:22Z</time>
      </trkpt>
      <trkpt lat="34.810717164106826" lon="113.52567857824023">
        <ele>89.88351558784473</ele>
        <time>2023-08-19T12:50:25Z</time>
      </trkpt>
      <trkpt lat="34.81055917901407" lon="113.5256203929994">
        <ele>90.54446035021819</ele>
        <time>2023-08-19T12:50:31Z</time>
      </trkpt>
      <trkpt lat="34.81022148055352" lon="113.52560035912299">
        <ele>89.96064234148609</ele>
        <time>2023-08-19T12:50:43Z</time>
      </trkpt>
      <trkpt lat="34.80994070945658" lon="113.52557530177796">
        <ele>88.85517827591347</ele>
        <time>2023-08-19T12:50:52Z</time>
      </trkpt>
      <trkpt lat="34.80976087942756" lon="113.52556829644696">
        <ele>88.66653919321547</ele>
        <time>2023-08-19T12:50:58Z</time>
      </trkpt>
      <trkpt lat="34.80967303104007" lon="113.52559138590237">
        <ele>88.38726810763669</ele>
        <time>2023-08-19T12:51:01Z</time>
      </trkpt>
      <trkpt lat="34.80960123072009" lon="113.52563956072">
        <ele>88.11386734570264</ele>
        <time>2023-08-19T12:51:04Z</time>
      </trkpt>
      <trkpt lat="34.80953749450943" lon="113.52571583208446">
        <ele>88.08805425791</ele>
        <time>2023-08-19T12:51:07Z</time>
      </trkpt>
      <trkpt lat="34.809491760047" lon="113.5258001292006">
        <ele>88.1749465110993</ele>
        <time>2023-08-19T12:51:10Z</time>
      </trkpt>
      <trkpt lat="34.8094670448328" lon="113.52590047949339">
        <ele>88.45095693602217</ele>
        <time>2023-08-19T12:51:13Z</time>
      </trkpt>
      <trkpt lat="34.809458351388166" lon="113.52601587988117">
        <ele>88.98369324672161</ele>
        <time>2023-08-19T12:51:16Z</time>
      </trkpt>
      <trkpt lat="34.80947060729002" lon="113.5261202395083">
        <ele>89.63539491727212</ele>
        <time>2023-08-19T12:51:19Z</time>
      </trkpt>
      <trkpt lat="34.809535946669115" lon="113.52627878031117">
        <ele>89.60019262168943</ele>
        <time>2023-08-19T12:51:25Z</time>
      </trkpt>
      <trkpt lat="34.809602081113184" lon="113.52635804689311">
        <ele>89.40854316735556</ele>
        <time>2023-08-19T12:51:28Z</time>
      </trkpt>
      <trkpt lat="34.80976409192307" lon="113.52642827199448">
        <ele>88.19811774318397</ele>
        <time>2023-08-19T12:51:34Z</time>
      </trkpt>
      <trkpt lat="34.81005180376899" lon="113.52643325880625">
        <ele>87.95506910647211</ele>
        <time>2023-08-19T12:51:46Z</time>
      </trkpt>
      <trkpt lat="34.810358536833945" lon="113.5264542989527">
        <ele>88.77078315358234</ele>
        <time>2023-08-19T12:51:58Z</time>
      </trkpt>
      <trkpt lat="34.810580317567954" lon="113.52645929274689">
        <ele>89.13439633087182</ele>
        <time>2023-08-19T12:52:07Z</time>
      </trkpt>
      <trkpt lat="34.81065617637779" lon="113.52643520168169">
        <ele>89.07752058705752</ele>
        <time>2023-08-19T12:52:10Z</time>
      </trkpt>
      <trkpt lat="34.81077677965552" lon="113.52632982546075">
        <ele>89.12082169774226</ele>
        <time>2023-08-19T12:52:16Z</time>
      </trkpt>
      <trkpt lat="34.81085233175469" lon="113.52618632196291">
        <ele>89.23119677303612</ele>
        <time>2023-08-19T12:52:22Z</time>
      </trkpt>
      <trkpt lat="34.81087969590199" lon="113.52595050349906">
        <ele>88.86765145504965</ele>
        <time>2023-08-19T12:52:31Z</time>
      </trkpt>
      <trkpt lat="34.81086451771069" lon="113.52587524448415">
        <ele>88.74869232681134</ele>
        <time>2023-08-19T12:52:34Z</time>
      </trkpt>
      <trkpt lat="34.8107792417308" lon="113.52573376311078">
        <ele>88.74959215354721</ele>
        <time>2023-08-19T12:52:40Z</time>
      </trkpt>
      <trkpt lat="34.810651147611985" lon="113.52564547032594">
        <ele>89.03155668108097</ele>
        <time>2023-08-19T12:52:46Z</time>
      </trkpt>
      <trkpt lat="34.810577144637236" lon="113.52561437019426">
        <ele>89.1902862194351</ele>
        <time>2023-08-19T12:52:49Z</time>
      </trkpt>
      <trkpt lat="34.81028338461983" lon="113.52558831075179">
        <ele>89.62291860525339</ele>
        <time>2023-08-19T12:53:01Z</time>
      </trkpt>
      <trkpt lat="34.80995772540149" lon="113.52558834527213">
        <ele>89.16211526553604</ele>
        <time>2023-08-19T12:53:16Z</time>
      </trkpt>
      <trkpt lat="34.80974190965851" lon="113.52557231239686">
        <ele>88.5296851795122</ele>
        <time>2023-08-19T12:53:25Z</time>
      </trkpt>
      <trkpt lat="34.809611217678494" lon="113.5256385561786">
        <ele>88.64101487539705</ele>
        <time>2023-08-19T12:53:31Z</time>
      </trkpt>
      <trkpt lat="34.80951664074404" lon="113.5257640013304">
        <ele>88.28434541931877</ele>
        <time>2023-08-19T12:53:37Z</time>
      </trkpt>
      <trkpt lat="34.809458111108796" lon="113.52592255688953">
        <ele>88.7763702742028</ele>
        <time>2023-08-19T12:53:43Z</time>
      </trkpt>
      <trkpt lat="34.809463563002254" lon="113.52610017087042">
        <ele>89.52331707133045</ele>
        <time>2023-08-19T12:53:49Z</time>
      </trkpt>
      <trkpt lat="34.8095189438252" lon="113.52627075439749">
        <ele>90.18027065085246</ele>
        <time>2023-08-19T12:53:55Z</time>
      </trkpt>
      <trkpt lat="34.80956105702857" lon="113.5263319612182">
        <ele>90.48250411245205</ele>
        <time>2023-08-19T12:53:58Z</time>
      </trkpt>
      <trkpt lat="34.80973712271201" lon="113.52642927831224">
        <ele>89.81073435551194</ele>
        <time>2023-08-19T12:54:07Z</time>
      </trkpt>
      <trkpt lat="34.81004283117915" lon="113.5264402839751">
        <ele>90.02730039866233</ele>
        <time>2023-08-19T12:54:22Z</time>
      </trkpt>
      <trkpt lat="34.810377501540486" lon="113.5264482761872">
        <ele>90.98271001745483</ele>
        <time>2023-08-19T12:54:37Z</time>
      </trkpt>
      <trkpt lat="34.810540369679124" lon="113.5264633108162">
        <ele>90.18391639960119</ele>
        <time>2023-08-19T12:54:43Z</time>
      </trkpt>
      <trkpt lat="34.81072794930055" lon="113.52637598989683">
        <ele>89.43881145595118</ele>
        <time>2023-08-19T12:54:52Z</time>
      </trkpt>
      <trkpt lat="34.81083941495202" lon="113.52621341693188">
        <ele>88.73015455767273</ele>
        <time>2023-08-19T12:55:01Z</time>
      </trkpt>
      <trkpt lat="34.81088287359041" lon="113.526020746264">
        <ele>88.67402082400407</ele>
        <time>2023-08-19T12:55:10Z</time>
      </trkpt>
      <trkpt lat="34.81086456942581" lon="113.52589531399423">
        <ele>88.67548819671713</ele>
        <time>2023-08-19T12:55:16Z</time>
      </trkpt>
      <trkpt lat="34.81080431914716" lon="113.5257738996349">
        <ele>89.06030983531426</ele>
        <time>2023-08-19T12:55:22Z</time>
      </trkpt>
      <trkpt lat="34.810709169882074" lon="113.5256775756059">
        <ele>89.37836574737757</ele>
        <time>2023-08-19T12:55:28Z</time>
      </trkpt>
      <trkpt lat="34.81052818291145" lon="113.52560935796623">
        <ele>90.22414453817493</ele>
        <time>2023-08-19T12:55:37Z</time>
      </trkpt>
      <trkpt lat="34.81022843952589" lon="113.52558731309179">
        <ele>89.98336645882054</ele>
        <time>2023-08-19T12:55:52Z</time>
      </trkpt>
      <trkpt lat="34.809937725559486" lon="113.52558031951708">
        <ele>89.33457549758008</ele>
        <time>2023-08-19T12:56:07Z</time>
      </trkpt>
      <trkpt lat="34.809706032855345" lon="113.52560543117976">
        <ele>89.50077353852002</ele>
        <time>2023-08-19T12:56:19Z</time>
      </trkpt>
      <trkpt lat="34.809588350552026" lon="113.52568070485536">
        <ele>89.32481505859552</ele>
        <time>2023-08-19T12:56:25Z</time>
      </trkpt>
      <trkpt lat="34.80950272784925" lon="113.52579210021179">
        <ele>89.3135218296653</ele>
        <time>2023-08-19T12:56:31Z</time>
      </trkpt>
      <trkpt lat="34.80945312925688" lon="113.52592757479042">
        <ele>88.36013008273031</ele>
        <time>2023-08-19T12:56:37Z</time>
      </trkpt>
      <trkpt lat="34.80945150586199" lon="113.5260730784608">
        <ele>88.56545186927677</ele>
        <time>2023-08-19T12:56:43Z</time>
      </trkpt>
      <trkpt lat="34.809495802940184" lon="113.52620653505844">
        <ele>88.84633120975944</ele>
        <time>2023-08-19T12:56:49Z</time>
      </trkpt>
      <trkpt lat="34.80957906911141" lon="113.52634400086063">
        <ele>88.96952593388356</ele>
        <time>2023-08-19T12:56:55Z</time>
      </trkpt>
      <trkpt lat="34.80970014594642" lon="113.52642326147037">
        <ele>88.45897193467992</ele>
        <time>2023-08-19T12:57:01Z</time>
      </trkpt>
      <trkpt lat="34.8100148398724" lon="113.52643225926333">
        <ele>87.67537654343711</ele>
        <time>2023-08-19T12:57:16Z</time>
      </trkpt>
      <trkpt lat="34.81031157054384" lon="113.52644828317374">
        <ele>88.3880844802336</ele>
        <time>2023-08-19T12:57:31Z</time>
      </trkpt>
      <trkpt lat="34.8105433742554" lon="113.52646632087456">
        <ele>88.07030797870239</ele>
        <time>2023-08-19T12:57:43Z</time>
      </trkpt>
      <trkpt lat="34.81070203567079" lon="113.52639907225033">
        <ele>88.78630598017796</ele>
        <time>2023-08-19T12:57:52Z</time>
      </trkpt>
      <trkpt lat="34.81081959047169" lon="113.52627362695667">
        <ele>88.76064484389072</ele>
        <time>2023-08-19T12:57:58Z</time>
      </trkpt>
      <trkpt lat="34.8108523652686" lon="113.52619936702871">
        <ele>88.89851353142996</ele>
        <time>2023-08-19T12:58:01Z</time>
      </trkpt>
      <trkpt lat="34.81086614173882" lon="113.52611808467161">
        <ele>89.26145353817995</ele>
        <time>2023-08-19T12:58:04Z</time>
      </trkpt>
      <trkpt lat="34.810830545512204" lon="113.52587223765663">
        <ele>88.72455952146612</ele>
        <time>2023-08-19T12:58:13Z</time>
      </trkpt>
      <trkpt lat="34.81075526424076" lon="113.52573276217221">
        <ele>88.67314540380545</ele>
        <time>2023-08-19T12:58:19Z</time>
      </trkpt>
      <trkpt lat="34.810643166344654" lon="113.52564948510236">
        <ele>88.05494673153726</ele>
        <time>2023-08-19T12:58:25Z</time>
      </trkpt>
      <trkpt lat="34.81032736973532" lon="113.52560034789856">
        <ele>88.382954246974</ele>
        <time>2023-08-19T12:58:40Z</time>
      </trkpt>
      <trkpt lat="34.81003058685442" lon="113.52556425391806">
        <ele>88.3891799586047</ele>
        <time>2023-08-19T12:58:55Z</time>
      </trkpt>
      <trkpt lat="34.80978485434543" lon="113.52556829390561">
        <ele>88.46632826238051</ele>
        <time>2023-08-19T12:59:07Z</time>
      </trkpt>
      <trkpt lat="34.809650127672704" lon="113.52561948587552">
        <ele>88.1111149531098</ele>
        <time>2023-08-19T12:59:13Z</time>
      </trkpt>
      <trkpt lat="34.809545486150064" lon="113.52571583123739">
        <ele>88.02587146856754</ele>
        <time>2023-08-19T12:59:19Z</time>
      </trkpt>
      <trkpt lat="34.80947991229537" lon="113.5258543182358">
        <ele>89.07320574812289</ele>
        <time>2023-08-19T12:59:25Z</time>
      </trkpt>
      <trkpt lat="34.80945634573035" lon="113.52601286967773">
        <ele>88.99149191460835</ele>
        <time>2023-08-19T12:59:31Z</time>
      </trkpt>
      <trkpt lat="34.80948070001449" lon="113.52616037717262">
        <ele>89.02423778627735</ele>
        <time>2023-08-19T12:59:37Z</time>
      </trkpt>
      <trkpt lat="34.80950883317301" lon="113.52622359260258">
        <ele>88.94155543239513</ele>
        <time>2023-08-19T12:59:40Z</time>
      </trkpt>
      <trkpt lat="34.80963209866159" lon="113.52637710948515">
        <ele>89.14280469306114</ele>
        <time>2023-08-19T12:59:49Z</time>
      </trkpt>
      <trkpt lat="34.80968514104392" lon="113.52641523537856">
        <ele>89.24262235014051</ele>
        <time>2023-08-19T12:59:52Z</time>
      </trkpt>
      <trkpt lat="34.809996871546275" lon="113.52643727846628">
        <ele>89.31339268683094</ele>
        <time>2023-08-19T13:00:07Z</time>
      </trkpt>
      <trkpt lat="34.810303581479154" lon="113.52644928747969">
        <ele>89.241585009307</ele>
        <time>2023-08-19T13:00:22Z</time>
      </trkpt>
      <trkpt lat="34.81052738070136" lon="113.52646230873363">
        <ele>89.40778499912139</ele>
        <time>2023-08-19T13:00:34Z</time>
      </trkpt>
      <trkpt lat="34.81065915266511" lon="113.526427173687">
        <ele>88.5339861536599</ele>
        <time>2023-08-19T13:00:40Z</time>
      </trkpt>
      <trkpt lat="34.8107209926453" lon="113.52639003909258">
        <ele>87.96021730705958</ele>
        <time>2023-08-19T13:00:43Z</time>
      </trkpt>
      <trkpt lat="34.81086620364878" lon="113.52614216791375">
        <ele>87.44651099394738</ele>
        <time>2023-08-19T13:00:55Z</time>
      </trkpt>
      <trkpt lat="34.810882834852386" lon="113.52600569418685">
        <ele>87.15913513836938</ele>
        <time>2023-08-19T13:01:01Z</time>
      </trkpt>
      <trkpt lat="34.81087564322891" lon="113.52592842749587">
        <ele>87.23799620443813</ele>
        <time>2023-08-19T13:01:04Z</time>
      </trkpt>
      <trkpt lat="34.810757262149146" lon="113.52573276196044">
        <ele>87.52435904479222</ele>
        <time>2023-08-19T13:01:13Z</time>
      </trkpt>
      <trkpt lat="34.81061416038458" lon="113.52563543941864">
        <ele>88.52989539896235</ele>
        <time>2023-08-19T13:01:19Z</time>
      </trkpt>
      <trkpt lat="34.81034331411115" lon="113.52558529394614">
        <ele>88.38563740163303</ele>
        <time>2023-08-19T13:01:31Z</time>
      </trkpt>
      <trkpt lat="34.81020551024423" lon="113.52560537823516">
        <ele>87.98671742410353</ele>
        <time>2023-08-19T13:01:37Z</time>
      </trkpt>
      <trkpt lat="34.80998163029063" lon="113.52556124865255">
        <ele>86.94437897352609</ele>
        <time>2023-08-19T13:01:46Z</time>
      </trkpt>
      <trkpt lat="34.80970098362691" lon="113.52558435854954">
        <ele>87.92401260668161</ele>
        <time>2023-08-19T13:01:58Z</time>
      </trkpt>
      <trkpt lat="34.809578329909066" lon="113.52566866413613">
        <ele>89.55434880406554</ele>
        <time>2023-08-19T13:02:04Z</time>
      </trkpt>
      <trkpt lat="34.80949274088621" lon="113.5257931047487">
        <ele>89.36367362828338</ele>
        <time>2023-08-19T13:02:10Z</time>
      </trkpt>
      <trkpt lat="34.80945920568514" lon="113.52595968531574">
        <ele>89.25519955764979</ele>
        <time>2023-08-19T13:02:16Z</time>
      </trkpt>
      <trkpt lat="34.80947268258398" lon="113.52615034334316">
        <ele>89.18297022180667</ele>
        <time>2023-08-19T13:02:22Z</time>
      </trkpt>
      <trkpt lat="34.809504899198515" lon="113.52624767619332">
        <ele>89.03798856859463</ele>
        <time>2023-08-19T13:02:25Z</time>
      </trkpt>
      <trkpt lat="34.809559033372494" lon="113.52632192680348">
        <ele>88.98904753120664</ele>
        <time>2023-08-19T13:02:28Z</time>
      </trkpt>
      <trkpt lat="34.80962711417957" lon="113.52638112385893">
        <ele>88.97060402485005</ele>
        <time>2023-08-19T13:02:31Z</time>
      </trkpt>
      <trkpt lat="34.80979005446244" lon="113.52642425540324">
        <ele>88.88056467333237</ele>
        <time>2023-08-19T13:02:37Z</time>
      </trkpt>
      <trkpt lat="34.81012973252134" lon="113.52643726438745">
        <ele>89.22912944764089</ele>
        <time>2023-08-19T13:02:49Z</time>
      </trkpt>
      <trkpt lat="34.81043348155931" lon="113.52646332214286">
        <ele>90.03976200567531</ele>
        <time>2023-08-19T13:03:01Z</time>
      </trkpt>
      <trkpt lat="34.81058130366586" lon="113.52645427534661">
        <ele>90.0966394414836</ele>
        <time>2023-08-19T13:03:07Z</time>
      </trkpt>
      <trkpt lat="34.81071693249584" lon="113.52636495298573">
        <ele>90.0130315703066</ele>
        <time>2023-08-19T13:03:13Z</time>
      </trkpt>
      <trkpt lat="34.81082446156776" lon="113.5262254601098">
        <ele>89.01275550657117</ele>
        <time>2023-08-19T13:03:19Z</time>
      </trkpt>
      <trkpt lat="34.810874959416516" lon="113.52605085124571">
        <ele>88.7478536072264</ele>
        <time>2023-08-19T13:03:25Z</time>
      </trkpt>
      <trkpt lat="34.81087969073371" lon="113.52594849655176">
        <ele>88.67669508802524</ele>
        <time>2023-08-19T13:03:28Z</time>
      </trkpt>
      <trkpt lat="34.810852506986166" lon="113.52586621447144">
        <ele>88.43477976755754</ele>
        <time>2023-08-19T13:03:31Z</time>
      </trkpt>
      <trkpt lat="34.81076623201941" lon="113.52572473316744">
        <ele>88.33618184055778</ele>
        <time>2023-08-19T13:03:37Z</time>
      </trkpt>
      <trkpt lat="34.810648111869895" lon="113.52563041840463">
        <ele>88.80236190124913</ele>
        <time>2023-08-19T13:03:43Z</time>
      </trkpt>
      <trkpt lat="34.81057713167422" lon="113.52560935277755">
        <ele>88.65031666969621</ele>
        <time>2023-08-19T13:03:46Z</time>
      </trkpt>
      <trkpt lat="34.81026639979936" lon="113.52558730906792">
        <ele>86.817467169319</ele>
        <time>2023-08-19T13:03:58Z</time>
      </trkpt>
      <trkpt lat="34.809997603191" lon="113.525557233019">
        <ele>85.36426029415125</ele>
        <time>2023-08-19T13:04:10Z</time>
      </trkpt>
      <trkpt lat="34.809726912366145" lon="113.52556729656266">
        <ele>85.50925282933403</ele>
        <time>2023-08-19T13:04:22Z</time>
      </trkpt>
      <trkpt lat="34.80966302593103" lon="113.52558536605738">
        <ele>85.30405117447684</ele>
        <time>2023-08-19T13:04:25Z</time>
      </trkpt>
      <trkpt lat="34.809557406262215" lon="113.5256897394686">
        <ele>86.02066835463047</ele>
        <time>2023-08-19T13:04:31Z</time>
      </trkpt>
      <trkpt lat="34.80947091652609" lon="113.52585231223595">
        <ele>85.8368054717595</ele>
        <time>2023-08-19T13:04:37Z</time>
      </trkpt>
      <trkpt lat="34.80944914635947" lon="113.52593259258471">
        <ele>85.62113171135776</ele>
        <time>2023-08-19T13:04:40Z</time>
      </trkpt>
      <trkpt lat="34.80947063824624" lon="113.52613228113009">
        <ele>86.76963577658933</ele>
        <time>2023-08-19T13:04:49Z</time>
      </trkpt>
      <trkpt lat="34.80957304448932" lon="113.52633195994791">
        <ele>87.47590464928561</ele>
        <time>2023-08-19T13:04:58Z</time>
      </trkpt>
      <trkpt lat="34.80974509634695" lon="113.52642225324705">
        <ele>87.9666713444043</ele>
        <time>2023-08-19T13:05:07Z</time>
      </trkpt>
      <trkpt lat="34.81003283906025" lon="113.5264392815743">
        <ele>89.37649683282477</ele>
        <time>2023-08-19T13:05:28Z</time>
      </trkpt>
      <trkpt lat="34.81033456449744" lon="113.5264553049522">
        <ele>89.16958337663382</ele>
        <time>2023-08-19T13:05:43Z</time>
      </trkpt>
      <trkpt lat="34.81058535347576" lon="113.52647534755486">
        <ele>89.90913598377323</ele>
        <time>2023-08-19T13:06:04Z</time>
      </trkpt>
      <trkpt lat="34.81069508415192" lon="113.52641512835687">
        <ele>89.41137043499155</ele>
        <time>2023-08-19T13:06:16Z</time>
      </trkpt>
      <trkpt lat="34.810827564072625" lon="113.52626660185929">
        <ele>89.65330028746001</ele>
        <time>2023-08-19T13:06:25Z</time>
      </trkpt>
      <trkpt lat="34.81087913330197" lon="113.52612009023275">
        <ele>89.15304142110887</ele>
        <time>2023-08-19T13:06:31Z</time>
      </trkpt>
      <trkpt lat="34.81086656474852" lon="113.52589431030724">
        <ele>88.74595659638626</ele>
        <time>2023-08-19T13:06:40Z</time>
      </trkpt>
      <trkpt lat="34.810791273199705" lon="113.52575082099357">
        <ele>89.10900110829006</ele>
        <time>2023-08-19T13:06:46Z</time>
      </trkpt>
      <trkpt lat="34.81063216229713" lon="113.52564346537304">
        <ele>88.68205317206605</ele>
        <time>2023-08-19T13:06:55Z</time>
      </trkpt>
      <trkpt lat="34.81056818515697" lon="113.52562641294445">
        <ele>88.5986294519701</ele>
        <time>2023-08-19T13:07:01Z</time>
      </trkpt>
      <trkpt lat="34.81056818515697" lon="113.52562641294445">
        <ele>88.5986294519701</ele>
        <time>2023-08-19T13:07:07Z</time>
      </trkpt>
    </trkseg>
  </trk>
</gpx>