<?xml version="1.0" encoding="UTF-8"?>
<gpx xmlns="http://www.topografix.com/GPX/1/1" xmlns:gpxtpx="http://www.garmin.com/xmlschemas/TrackPointExtension/v1" xmlns:xsi="http://www.w3.org/2001/XMLSchema-instance" xsi:schemaLocation="http://www.topografix.com/GPX/1/1 http://www.topografix.com/GPX/1/1/gpx.xsd" version="1.1" creator="gpx.py -- https://github.com/tkrajina/gpxpy">
  <trk>
    <name>gpx from keep</name>
    <type>Run</type>
    <trkseg>
      <trkpt lat="34.80994410098524" lon="113.52642838793378">
        <ele>90.14733123779297</ele>
        <time>2021-11-22T07:35:27Z</time>
      </trkpt>
      <trkpt lat="34.81024488811826" lon="113.52642645061862">
        <ele>89.97835540771484</ele>
        <time>2021-11-22T07:35:48Z</time>
      </trkpt>
      <trkpt lat="34.81058095957678" lon="113.52644655824065">
        <ele>89.43889617919922</ele>
        <time>2021-11-22T07:36:00Z</time>
      </trkpt>
      <trkpt lat="34.810670122978" lon="113.5264503596731">
        <ele>89.90079498291016</ele>
        <time>2021-11-22T07:36:03Z</time>
      </trkpt>
      <trkpt lat="34.810754060944475" lon="113.52642421901432">
        <ele>90.0174560546875</ele>
        <time>2021-11-22T07:36:06Z</time>
      </trkpt>
      <trkpt lat="34.81083008731588" lon="113.52637739149739">
        <ele>89.54672241210938</ele>
        <time>2021-11-22T07:36:09Z</time>
      </trkpt>
      <trkpt lat="34.81094706418526" lon="113.52623746475129">
        <ele>86.49351501464844</ele>
        <time>2021-11-22T07:36:15Z</time>
      </trkpt>
      <trkpt lat="34.81099096175679" lon="113.52613129902639">
        <ele>90.08158111572266</ele>
        <time>2021-11-22T07:36:18Z</time>
      </trkpt>
      <trkpt lat="34.81099915434152" lon="113.52605045219939">
        <ele>89.63645935058594</ele>
        <time>2021-11-22T07:36:21Z</time>
      </trkpt>
      <trkpt lat="34.810973128061505" lon="113.52583540923497">
        <ele>93.64170837402344</ele>
        <time>2021-11-22T07:36:27Z</time>
      </trkpt>
      <trkpt lat="34.810882947113235" lon="113.52564732075159">
        <ele>93.44876861572266</ele>
        <time>2021-11-22T07:36:33Z</time>
      </trkpt>
      <trkpt lat="34.81075203332538" lon="113.52553137209145">
        <ele>91.98224639892578</ele>
        <time>2021-11-22T07:36:39Z</time>
      </trkpt>
      <trkpt lat="34.81068204984859" lon="113.52550443041508">
        <ele>91.53959655761719</ele>
        <time>2021-11-22T07:36:42Z</time>
      </trkpt>
      <trkpt lat="34.81034920228043" lon="113.52547370559614">
        <ele>90.96869659423828</ele>
        <time>2021-11-22T07:36:54Z</time>
      </trkpt>
      <trkpt lat="34.810070052368964" lon="113.52545958008734">
        <ele>89.65585327148438</ele>
        <time>2021-11-22T07:37:06Z</time>
      </trkpt>
      <trkpt lat="34.809913147807315" lon="113.52545769122548">
        <ele>89.14161682128906</ele>
        <time>2021-11-22T07:37:12Z</time>
      </trkpt>
      <trkpt lat="34.809769108333285" lon="113.52550561604444">
        <ele>89.65303039550781</ele>
        <time>2021-11-22T07:37:18Z</time>
      </trkpt>
      <trkpt lat="34.80964607876323" lon="113.52560934214915">
        <ele>89.50656127929688</ele>
        <time>2021-11-22T07:37:24Z</time>
      </trkpt>
      <trkpt lat="34.80959803978115" lon="113.52568529440798">
        <ele>89.26663970947266</ele>
        <time>2021-11-22T07:37:27Z</time>
      </trkpt>
      <trkpt lat="34.809547078332756" lon="113.52599425880352">
        <ele>88.6575927734375</ele>
        <time>2021-11-22T07:37:36Z</time>
      </trkpt>
      <trkpt lat="34.80958302738147" lon="113.52616928516971">
        <ele>88.55931091308594</ele>
        <time>2021-11-22T07:37:42Z</time>
      </trkpt>
      <trkpt lat="34.80966089644682" lon="113.52631245801997">
        <ele>88.54288482666016</ele>
        <time>2021-11-22T07:37:48Z</time>
      </trkpt>
      <trkpt lat="34.8097871245807" lon="113.52639846190198">
        <ele>89.17533874511719</ele>
        <time>2021-11-22T07:37:54Z</time>
      </trkpt>
      <trkpt lat="34.80991510292442" lon="113.52642730218282">
        <ele>90.03271484375</ele>
        <time>2021-11-22T07:38:00Z</time>
      </trkpt>
      <trkpt lat="34.81023484846183" lon="113.52642127976894">
        <ele>90.359375</ele>
        <time>2021-11-22T07:38:15Z</time>
      </trkpt>
      <trkpt lat="34.81052294325154" lon="113.52643649277253">
        <ele>90.75581359863281</ele>
        <time>2021-11-22T07:38:27Z</time>
      </trkpt>
      <trkpt lat="34.81072589468993" lon="113.52643048273603">
        <ele>90.060791015625</ele>
        <time>2021-11-22T07:38:36Z</time>
      </trkpt>
      <trkpt lat="34.81078923509017" lon="113.52640325542013">
        <ele>89.98701477050781</ele>
        <time>2021-11-22T07:38:39Z</time>
      </trkpt>
      <trkpt lat="34.81084303518985" lon="113.52635425257763">
        <ele>90.43771362304688</ele>
        <time>2021-11-22T07:38:42Z</time>
      </trkpt>
      <trkpt lat="34.810899070147926" lon="113.52633138128287">
        <ele>90.40130615234375</ele>
        <time>2021-11-22T07:38:45Z</time>
      </trkpt>
      <trkpt lat="34.8109729758376" lon="113.5261974474854">
        <ele>90.18778228759766</ele>
        <time>2021-11-22T07:38:51Z</time>
      </trkpt>
      <trkpt lat="34.81101887941505" lon="113.52602840117817">
        <ele>90.0014877319336</ele>
        <time>2021-11-22T07:38:57Z</time>
      </trkpt>
      <trkpt lat="34.81101900428326" lon="113.52586643636887">
        <ele>90.36959838867188</ele>
        <time>2021-11-22T07:39:03Z</time>
      </trkpt>
      <trkpt lat="34.811001184009505" lon="113.52578640831564">
        <ele>90.45770263671875</ele>
        <time>2021-11-22T07:39:06Z</time>
      </trkpt>
      <trkpt lat="34.81089912878529" lon="113.52561737569461">
        <ele>90.20108032226562</ele>
        <time>2021-11-22T07:39:12Z</time>
      </trkpt>
      <trkpt lat="34.81078805092541" lon="113.52552238524392">
        <ele>90.30596160888672</ele>
        <time>2021-11-22T07:39:18Z</time>
      </trkpt>
      <trkpt lat="34.81064920660803" lon="113.5254834734752">
        <ele>90.22293090820312</ele>
        <time>2021-11-22T07:39:24Z</time>
      </trkpt>
      <trkpt lat="34.810505317078096" lon="113.52548457758198">
        <ele>90.58757019042969</ele>
        <time>2021-11-22T07:39:30Z</time>
      </trkpt>
      <trkpt lat="34.81028514305137" lon="113.5254323359229">
        <ele>90.61804962158203</ele>
        <time>2021-11-22T07:39:42Z</time>
      </trkpt>
      <trkpt lat="34.81006130058313" lon="113.52542854865949">
        <ele>90.10905456542969</ele>
        <time>2021-11-22T07:39:54Z</time>
      </trkpt>
      <trkpt lat="34.80998600301158" lon="113.52544243954087">
        <ele>89.9438705444336</ele>
        <time>2021-11-22T07:39:57Z</time>
      </trkpt>
      <trkpt lat="34.8098311685646" lon="113.52550751495798">
        <ele>89.90187072753906</ele>
        <time>2021-11-22T07:40:03Z</time>
      </trkpt>
      <trkpt lat="34.80977425421064" lon="113.52550452664627">
        <ele>89.70570373535156</ele>
        <time>2021-11-22T07:40:06Z</time>
      </trkpt>
      <trkpt lat="34.8097232683742" lon="113.52559354564654">
        <ele>89.40636444091797</ele>
        <time>2021-11-22T07:40:12Z</time>
      </trkpt>
      <trkpt lat="34.80960919720383" lon="113.52570353140933">
        <ele>89.12421417236328</ele>
        <time>2021-11-22T07:40:18Z</time>
      </trkpt>
      <trkpt lat="34.80958505096369" lon="113.52579744685507">
        <ele>89.16142272949219</ele>
        <time>2021-11-22T07:40:21Z</time>
      </trkpt>
      <trkpt lat="34.80958616236878" lon="113.52601848128586">
        <ele>89.5921859741211</ele>
        <time>2021-11-22T07:40:27Z</time>
      </trkpt>
      <trkpt lat="34.80969795417362" lon="113.5262863222251">
        <ele>89.76872253417969</ele>
        <time>2021-11-22T07:40:36Z</time>
      </trkpt>
      <trkpt lat="34.80975690645076" lon="113.526344296033">
        <ele>89.336669921875</ele>
        <time>2021-11-22T07:40:39Z</time>
      </trkpt>
      <trkpt lat="34.81005001449053" lon="113.52641231655637">
        <ele>90.00349426269531</ele>
        <time>2021-11-22T07:40:51Z</time>
      </trkpt>
      <trkpt lat="34.81037901182058" lon="113.52642126449219">
        <ele>91.00537109375</ele>
        <time>2021-11-22T07:41:03Z</time>
      </trkpt>
      <trkpt lat="34.81054808543009" lon="113.52641335260073">
        <ele>91.14443969726562</ele>
        <time>2021-11-22T07:41:09Z</time>
      </trkpt>
      <trkpt lat="34.81063082057721" lon="113.52644655295694">
        <ele>90.99357604980469</ele>
        <time>2021-11-22T07:41:12Z</time>
      </trkpt>
      <trkpt lat="34.810768916200466" lon="113.52640516301632">
        <ele>91.2873306274414</ele>
        <time>2021-11-22T07:41:18Z</time>
      </trkpt>
      <trkpt lat="34.810927978086035" lon="113.52629735236297">
        <ele>91.9571762084961</ele>
        <time>2021-11-22T07:41:24Z</time>
      </trkpt>
      <trkpt lat="34.81099094146331" lon="113.52612340498702">
        <ele>92.75076293945312</ele>
        <time>2021-11-22T07:41:30Z</time>
      </trkpt>
      <trkpt lat="34.81100211045153" lon="113.52593557952609">
        <ele>92.1268310546875</ele>
        <time>2021-11-22T07:41:36Z</time>
      </trkpt>
      <trkpt lat="34.81089309791862" lon="113.52569550118072">
        <ele>93.14252471923828</ele>
        <time>2021-11-22T07:41:45Z</time>
      </trkpt>
      <trkpt lat="34.81081130968808" lon="113.52560949084581">
        <ele>92.71513366699219</ele>
        <time>2021-11-22T07:41:48Z</time>
      </trkpt>
      <trkpt lat="34.81072121437539" lon="113.52555968549675">
        <ele>92.29603576660156</ele>
        <time>2021-11-22T07:41:51Z</time>
      </trkpt>
      <trkpt lat="34.81057234017068" lon="113.52551941376706">
        <ele>91.49732971191406</ele>
        <time>2021-11-22T07:41:57Z</time>
      </trkpt>
      <trkpt lat="34.81025931805435" lon="113.52550556408009">
        <ele>91.78079223632812</ele>
        <time>2021-11-22T07:42:09Z</time>
      </trkpt>
      <trkpt lat="34.80995223849453" lon="113.52548436399839">
        <ele>92.1158676147461</ele>
        <time>2021-11-22T07:42:21Z</time>
      </trkpt>
      <trkpt lat="34.80977832671262" lon="113.52550752055939">
        <ele>91.74575805664062</ele>
        <time>2021-11-22T07:42:27Z</time>
      </trkpt>
      <trkpt lat="34.80964122426135" lon="113.52561832567054">
        <ele>90.76467895507812</ele>
        <time>2021-11-22T07:42:33Z</time>
      </trkpt>
      <trkpt lat="34.80956309354517" lon="113.52579445486234">
        <ele>90.14741516113281</ele>
        <time>2021-11-22T07:42:39Z</time>
      </trkpt>
      <trkpt lat="34.80954005978284" lon="113.5258995305612">
        <ele>89.7790298461914</ele>
        <time>2021-11-22T07:42:42Z</time>
      </trkpt>
      <trkpt lat="34.80955897506755" lon="113.52608925847896">
        <ele>89.71265411376953</ele>
        <time>2021-11-22T07:42:48Z</time>
      </trkpt>
      <trkpt lat="34.80963719019573" lon="113.52626155781296">
        <ele>89.81561279296875</ele>
        <time>2021-11-22T07:42:54Z</time>
      </trkpt>
      <trkpt lat="34.80974698756103" lon="113.52638621687522">
        <ele>89.53738403320312</ele>
        <time>2021-11-22T07:43:00Z</time>
      </trkpt>
      <trkpt lat="34.80991000306661" lon="113.52644635713412">
        <ele>89.83907318115234</ele>
        <time>2021-11-22T07:43:06Z</time>
      </trkpt>
      <trkpt lat="34.810196164059825" lon="113.52644714342813">
        <ele>91.29051971435547</ele>
        <time>2021-11-22T07:43:18Z</time>
      </trkpt>
      <trkpt lat="34.81046604155383" lon="113.52643840424341">
        <ele>90.55001831054688</ele>
        <time>2021-11-22T07:43:30Z</time>
      </trkpt>
      <trkpt lat="34.81064217049946" lon="113.52643430249103">
        <ele>90.44857025146484</ele>
        <time>2021-11-22T07:43:39Z</time>
      </trkpt>
      <trkpt lat="34.81082708345889" lon="113.52636840900496">
        <ele>90.66096496582031</ele>
        <time>2021-11-22T07:43:48Z</time>
      </trkpt>
      <trkpt lat="34.81090597740825" lon="113.52627748357882">
        <ele>91.2684555053711</ele>
        <time>2021-11-22T07:43:54Z</time>
      </trkpt>
      <trkpt lat="34.810955080428585" lon="113.5261933662651">
        <ele>91.25784301757812</ele>
        <time>2021-11-22T07:44:00Z</time>
      </trkpt>
      <trkpt lat="34.81098085277946" lon="113.5260991795038">
        <ele>92.3589096069336</ele>
        <time>2021-11-22T07:44:06Z</time>
      </trkpt>
      <trkpt lat="34.81098085277946" lon="113.5260991795038">
        <ele>92.3589096069336</ele>
        <time>2021-11-22T07:44:12Z</time>
      </trkpt>
    </trkseg>
  </trk>
</gpx>