<?xml version="1.0" encoding="UTF-8"?>
<gpx xmlns="http://www.topografix.com/GPX/1/1" xmlns:gpxtpx="http://www.garmin.com/xmlschemas/TrackPointExtension/v1" xmlns:xsi="http://www.w3.org/2001/XMLSchema-instance" xsi:schemaLocation="http://www.topografix.com/GPX/1/1 http://www.topografix.com/GPX/1/1/gpx.xsd" version="1.1" creator="gpx.py -- https://github.com/tkrajina/gpxpy">
  <trk>
    <name>gpx from keep</name>
    <type>Run</type>
    <trkseg>
      <trkpt lat="34.81104190858398" lon="113.52592142039356">
        <ele>77.8893051147461</ele>
        <time>2021-11-19T14:02:51Z</time>
      </trkpt>
      <trkpt lat="34.81096897825506" lon="113.52569739861924">
        <ele>76.24441528320312</ele>
        <time>2021-11-19T14:02:57Z</time>
      </trkpt>
      <trkpt lat="34.810878164571676" lon="113.52557926817241">
        <ele>75.69970703125</ele>
        <time>2021-11-19T14:03:00Z</time>
      </trkpt>
      <trkpt lat="34.81067411668594" lon="113.52547557664656">
        <ele>77.553466796875</ele>
        <time>2021-11-19T14:03:06Z</time>
      </trkpt>
      <trkpt lat="34.81046506639381" lon="113.52542850585684">
        <ele>78.1777114868164</ele>
        <time>2021-11-19T14:03:12Z</time>
      </trkpt>
      <trkpt lat="34.81010813145935" lon="113.52540948872631">
        <ele>76.5688705444336</ele>
        <time>2021-11-19T14:03:21Z</time>
      </trkpt>
      <trkpt lat="34.80977119311856" lon="113.52547349465509">
        <ele>76.34156036376953</ele>
        <time>2021-11-19T14:03:30Z</time>
      </trkpt>
      <trkpt lat="34.80964510048369" lon="113.5255453722894">
        <ele>76.04881286621094</ele>
        <time>2021-11-19T14:03:33Z</time>
      </trkpt>
      <trkpt lat="34.80958402345151" lon="113.52560934872692">
        <ele>75.94373321533203</ele>
        <time>2021-11-19T14:03:36Z</time>
      </trkpt>
      <trkpt lat="34.809503218737625" lon="113.52579936100473">
        <ele>75.67125701904297</ele>
        <time>2021-11-19T14:03:42Z</time>
      </trkpt>
      <trkpt lat="34.8094811808897" lon="113.52597548333665">
        <ele>76.46582794189453</ele>
        <time>2021-11-19T14:03:45Z</time>
      </trkpt>
      <trkpt lat="34.80949805058589" lon="113.52610750290788">
        <ele>76.92030334472656</ele>
        <time>2021-11-19T14:03:48Z</time>
      </trkpt>
      <trkpt lat="34.80955396948447" lon="113.52625040613275">
        <ele>76.98706817626953</ele>
        <time>2021-11-19T14:03:51Z</time>
      </trkpt>
      <trkpt lat="34.80971585791739" lon="113.52639928607239">
        <ele>77.88587188720703</ele>
        <time>2021-11-19T14:03:57Z</time>
      </trkpt>
      <trkpt lat="34.80978478271715" lon="113.52643629878732">
        <ele>79.02462005615234</ele>
        <time>2021-11-19T14:04:00Z</time>
      </trkpt>
      <trkpt lat="34.81010683217025" lon="113.52648335624521">
        <ele>78.66938781738281</ele>
        <time>2021-11-19T14:04:09Z</time>
      </trkpt>
      <trkpt lat="34.8103669891418" lon="113.52648822837628">
        <ele>79.78185272216797</ele>
        <time>2021-11-19T14:04:18Z</time>
      </trkpt>
      <trkpt lat="34.8105781398457" lon="113.52650943802134">
        <ele>80.14178466796875</ele>
        <time>2021-11-19T14:04:24Z</time>
      </trkpt>
      <trkpt lat="34.81076204014994" lon="113.52647130977068">
        <ele>79.4440689086914</ele>
        <time>2021-11-19T14:04:30Z</time>
      </trkpt>
      <trkpt lat="34.81091899719991" lon="113.52628238192726">
        <ele>79.7956314086914</ele>
        <time>2021-11-19T14:04:36Z</time>
      </trkpt>
      <trkpt lat="34.810996102748256" lon="113.52612830419014">
        <ele>81.93692779541016</ele>
        <time>2021-11-19T14:04:42Z</time>
      </trkpt>
      <trkpt lat="34.81097893412799" lon="113.52598539634646">
        <ele>82.46492767333984</ele>
        <time>2021-11-19T14:04:45Z</time>
      </trkpt>
      <trkpt lat="34.81102226380369" lon="113.5258694303374">
        <ele>82.1183090209961</ele>
        <time>2021-11-19T14:04:48Z</time>
      </trkpt>
      <trkpt lat="34.81101304268732" lon="113.5257613636377">
        <ele>80.59140014648438</ele>
        <time>2021-11-19T14:04:51Z</time>
      </trkpt>
      <trkpt lat="34.81094720397935" lon="113.52566038011764">
        <ele>79.84142303466797</ele>
        <time>2021-11-19T14:04:54Z</time>
      </trkpt>
      <trkpt lat="34.81079293637402" lon="113.52552537906942">
        <ele>78.38034057617188</ele>
        <time>2021-11-19T14:05:00Z</time>
      </trkpt>
      <trkpt lat="34.81059714957102" lon="113.52547259045811">
        <ele>77.23640441894531</ele>
        <time>2021-11-19T14:05:06Z</time>
      </trkpt>
      <trkpt lat="34.810247257452296" lon="113.52545248374994">
        <ele>77.88664245605469</ele>
        <time>2021-11-19T14:05:18Z</time>
      </trkpt>
      <trkpt lat="34.810141204165575" lon="113.52541438507039">
        <ele>77.81097412109375</ele>
        <time>2021-11-19T14:05:21Z</time>
      </trkpt>
      <trkpt lat="34.80987113192966" lon="113.52545252362178">
        <ele>78.15581512451172</ele>
        <time>2021-11-19T14:05:30Z</time>
      </trkpt>
      <trkpt lat="34.8097871269357" lon="113.52545253252678">
        <ele>78.14041137695312</ele>
        <time>2021-11-19T14:05:33Z</time>
      </trkpt>
      <trkpt lat="34.80971619606899" lon="113.52547840032615">
        <ele>77.92853546142578</ele>
        <time>2021-11-19T14:05:36Z</time>
      </trkpt>
      <trkpt lat="34.80956611811732" lon="113.52560145646548">
        <ele>78.06929779052734</ele>
        <time>2021-11-19T14:05:42Z</time>
      </trkpt>
      <trkpt lat="34.80951925373473" lon="113.52571252392545">
        <ele>78.18696594238281</ele>
        <time>2021-11-19T14:05:45Z</time>
      </trkpt>
      <trkpt lat="34.80948420834015" lon="113.52588837586475">
        <ele>77.80879211425781</ele>
        <time>2021-11-19T14:05:48Z</time>
      </trkpt>
      <trkpt lat="34.80948309747187" lon="113.5260884498945">
        <ele>77.36190795898438</ele>
        <time>2021-11-19T14:05:54Z</time>
      </trkpt>
      <trkpt lat="34.80950716237936" lon="113.52617337632903">
        <ele>77.39900207519531</ele>
        <time>2021-11-19T14:05:57Z</time>
      </trkpt>
      <trkpt lat="34.80963307729244" lon="113.52634839225378">
        <ele>77.48624420166016</ele>
        <time>2021-11-19T14:06:03Z</time>
      </trkpt>
      <trkpt lat="34.80971891340491" lon="113.52642841179598">
        <ele>77.37574005126953</ele>
        <time>2021-11-19T14:06:06Z</time>
      </trkpt>
      <trkpt lat="34.80989513731949" lon="113.52646133002476">
        <ele>77.50796508789062</ele>
        <time>2021-11-19T14:06:12Z</time>
      </trkpt>
      <trkpt lat="34.81025614423406" lon="113.52648334042331">
        <ele>78.9541244506836</ele>
        <time>2021-11-19T14:06:24Z</time>
      </trkpt>
      <trkpt lat="34.81054911112424" lon="113.52649637524055">
        <ele>79.96759796142578</ele>
        <time>2021-11-19T14:06:33Z</time>
      </trkpt>
      <trkpt lat="34.81064586485485" lon="113.52650126468481">
        <ele>80.11254119873047</ele>
        <time>2021-11-19T14:06:36Z</time>
      </trkpt>
      <trkpt lat="34.81074197410741" lon="113.52646613999018">
        <ele>79.94205474853516</ele>
        <time>2021-11-19T14:06:39Z</time>
      </trkpt>
      <trkpt lat="34.81096491834613" lon="113.52622548572883">
        <ele>79.43160247802734</ele>
        <time>2021-11-19T14:06:48Z</time>
      </trkpt>
      <trkpt lat="34.811009151245095" lon="113.52614436309442">
        <ele>79.43516540527344</ele>
        <time>2021-11-19T14:06:51Z</time>
      </trkpt>
      <trkpt lat="34.8109890789218" lon="113.52603139863669">
        <ele>79.2825927734375</ele>
        <time>2021-11-19T14:06:54Z</time>
      </trkpt>
      <trkpt lat="34.81101395309337" lon="113.52590427412585">
        <ele>79.49642181396484</ele>
        <time>2021-11-19T14:06:57Z</time>
      </trkpt>
      <trkpt lat="34.81100205873836" lon="113.52581036278268">
        <ele>79.47891998291016</ele>
        <time>2021-11-19T14:07:00Z</time>
      </trkpt>
      <trkpt lat="34.81095405096515" lon="113.52568841721457">
        <ele>79.25430297851562</ele>
        <time>2021-11-19T14:07:03Z</time>
      </trkpt>
      <trkpt lat="34.810865986487855" lon="113.52558553035277">
        <ele>78.97559356689453</ele>
        <time>2021-11-19T14:07:06Z</time>
      </trkpt>
      <trkpt lat="34.81076912148408" lon="113.52553763117794">
        <ele>78.63414764404297</ele>
        <time>2021-11-19T14:07:09Z</time>
      </trkpt>
      <trkpt lat="34.81064603999315" lon="113.52551641161051">
        <ele>78.51209259033203</ele>
        <time>2021-11-19T14:07:12Z</time>
      </trkpt>
      <trkpt lat="34.81057902746391" lon="113.52548565862145">
        <ele>78.48389434814453</ele>
        <time>2021-11-19T14:07:15Z</time>
      </trkpt>
      <trkpt lat="34.8102421714419" lon="113.52547671128963">
        <ele>77.1375732421875</ele>
        <time>2021-11-19T14:07:27Z</time>
      </trkpt>
      <trkpt lat="34.809922079708684" lon="113.52545360707532">
        <ele>76.4099349975586</ele>
        <time>2021-11-19T14:07:36Z</time>
      </trkpt>
      <trkpt lat="34.8097493082063" lon="113.52549854060027">
        <ele>77.0882797241211</ele>
        <time>2021-11-19T14:07:42Z</time>
      </trkpt>
      <trkpt lat="34.80959213257182" lon="113.52560145370798">
        <ele>77.18155670166016</ele>
        <time>2021-11-19T14:07:48Z</time>
      </trkpt>
      <trkpt lat="34.80948313784549" lon="113.52578847469609">
        <ele>77.42093658447266</ele>
        <time>2021-11-19T14:07:54Z</time>
      </trkpt>
      <trkpt lat="34.80948192041388" lon="113.526052246254">
        <ele>76.86048126220703</ele>
        <time>2021-11-19T14:08:00Z</time>
      </trkpt>
      <trkpt lat="34.80956186645609" lon="113.52626537669649">
        <ele>76.82677459716797</ele>
        <time>2021-11-19T14:08:06Z</time>
      </trkpt>
      <trkpt lat="34.80965291287639" lon="113.52636935005124">
        <ele>77.00123596191406</ele>
        <time>2021-11-19T14:08:09Z</time>
      </trkpt>
      <trkpt lat="34.80976087473696" lon="113.5264123471956">
        <ele>79.04459381103516</ele>
        <time>2021-11-19T14:08:12Z</time>
      </trkpt>
      <trkpt lat="34.80989613963748" lon="113.5264294818398">
        <ele>79.71373748779297</ele>
        <time>2021-11-19T14:08:15Z</time>
      </trkpt>
      <trkpt lat="34.81021697399886" lon="113.52642536475278">
        <ele>80.61804962158203</ele>
        <time>2021-11-19T14:08:21Z</time>
      </trkpt>
      <trkpt lat="34.81049095949867" lon="113.52643350189702">
        <ele>81.44835662841797</ele>
        <time>2021-11-19T14:08:27Z</time>
      </trkpt>
      <trkpt lat="34.81066189858331" lon="113.52641334053995">
        <ele>82.5649642944336</ele>
        <time>2021-11-19T14:08:30Z</time>
      </trkpt>
      <trkpt lat="34.81082894683275" lon="113.52635534289675">
        <ele>82.83134460449219</ele>
        <time>2021-11-19T14:08:33Z</time>
      </trkpt>
      <trkpt lat="34.81082894683275" lon="113.52635534289675">
        <ele>82.83134460449219</ele>
        <time>2021-11-19T14:08:36Z</time>
      </trkpt>
    </trkseg>
  </trk>
</gpx>