<?xml version="1.0" encoding="UTF-8"?>
<gpx xmlns="http://www.topografix.com/GPX/1/1" xmlns:gpxtpx="http://www.garmin.com/xmlschemas/TrackPointExtension/v1" xmlns:xsi="http://www.w3.org/2001/XMLSchema-instance" xsi:schemaLocation="http://www.topografix.com/GPX/1/1 http://www.topografix.com/GPX/1/1/gpx.xsd" version="1.1" creator="gpx.py -- https://github.com/tkrajina/gpxpy">
  <trk>
    <name>gpx from keep</name>
    <type>Run</type>
    <trkseg>
      <trkpt lat="34.810923197143055" lon="113.52549351632234">
        <ele>87.6277847290039</ele>
        <time>2021-11-20T13:18:19Z</time>
      </trkpt>
      <trkpt lat="34.81070700357865" lon="113.5255134108038">
        <ele>86.29598999023438</ele>
        <time>2021-11-20T13:18:31Z</time>
      </trkpt>
      <trkpt lat="34.81038817463964" lon="113.52545464652023">
        <ele>83.47169494628906</ele>
        <time>2021-11-20T13:18:52Z</time>
      </trkpt>
      <trkpt lat="34.81008600167307" lon="113.5254446066495">
        <ele>82.89878845214844</ele>
        <time>2021-11-20T13:19:16Z</time>
      </trkpt>
      <trkpt lat="34.80980604649571" lon="113.52543347556563">
        <ele>80.70745849609375</ele>
        <time>2021-11-20T13:19:25Z</time>
      </trkpt>
      <trkpt lat="34.80973504590559" lon="113.52543239423723">
        <ele>80.20783996582031</ele>
        <time>2021-11-20T13:19:28Z</time>
      </trkpt>
      <trkpt lat="34.80971109948048" lon="113.52549854465052">
        <ele>79.98114013671875</ele>
        <time>2021-11-20T13:19:31Z</time>
      </trkpt>
      <trkpt lat="34.80954215594725" lon="113.52566161789923">
        <ele>77.53369140625</ele>
        <time>2021-11-20T13:19:40Z</time>
      </trkpt>
      <trkpt lat="34.80948811291487" lon="113.52593138463402">
        <ele>78.63631439208984</ele>
        <time>2021-11-20T13:20:01Z</time>
      </trkpt>
      <trkpt lat="34.80949506273426" lon="113.52599943629367">
        <ele>78.16564178466797</ele>
        <time>2021-11-20T13:20:07Z</time>
      </trkpt>
      <trkpt lat="34.80955906535693" lon="113.52612437336269">
        <ele>78.48063659667969</ele>
        <time>2021-11-20T13:20:19Z</time>
      </trkpt>
      <trkpt lat="34.809698117538034" lon="113.52624440229496">
        <ele>77.82833862304688</ele>
        <time>2021-11-20T13:20:28Z</time>
      </trkpt>
      <trkpt lat="34.80976517209622" lon="113.52639737540352">
        <ele>78.37409210205078</ele>
        <time>2021-11-20T13:20:34Z</time>
      </trkpt>
      <trkpt lat="34.81007817656889" lon="113.52640441959527">
        <ele>79.94293212890625</ele>
        <time>2021-11-20T13:20:43Z</time>
      </trkpt>
      <trkpt lat="34.81043291734877" lon="113.52641336480502">
        <ele>82.02899932861328</ele>
        <time>2021-11-20T13:20:52Z</time>
      </trkpt>
      <trkpt lat="34.81074701048492" lon="113.52642231431956">
        <ele>84.8270034790039</ele>
        <time>2021-11-20T13:21:01Z</time>
      </trkpt>
      <trkpt lat="34.810849909606404" lon="113.5263931773615">
        <ele>85.15472412109375</ele>
        <time>2021-11-20T13:21:04Z</time>
      </trkpt>
      <trkpt lat="34.81090898338179" lon="113.52628728271601">
        <ele>89.91890716552734</ele>
        <time>2021-11-20T13:21:07Z</time>
      </trkpt>
      <trkpt lat="34.81104023078957" lon="113.5259012770296">
        <ele>100.77100372314453</ele>
        <time>2021-11-20T13:21:19Z</time>
      </trkpt>
      <trkpt lat="34.811075105435144" lon="113.52565927771182">
        <ele>95.76789093017578</ele>
        <time>2021-11-20T13:21:25Z</time>
      </trkpt>
      <trkpt lat="34.81095903667811" lon="113.52552046162673">
        <ele>95.3568344116211</ele>
        <time>2021-11-20T13:21:31Z</time>
      </trkpt>
      <trkpt lat="34.810825041913766" lon="113.52547066080542">
        <ele>92.11469268798828</ele>
        <time>2021-11-20T13:21:34Z</time>
      </trkpt>
      <trkpt lat="34.81050301961401" lon="113.52543449053587">
        <ele>91.99911499023438</ele>
        <time>2021-11-20T13:21:43Z</time>
      </trkpt>
      <trkpt lat="34.81020896561255" lon="113.52542036659186">
        <ele>91.63362884521484</ele>
        <time>2021-11-20T13:21:52Z</time>
      </trkpt>
      <trkpt lat="34.80989099307883" lon="113.52537847934532">
        <ele>89.9822998046875</ele>
        <time>2021-11-20T13:22:04Z</time>
      </trkpt>
      <trkpt lat="34.80973023088922" lon="113.5254566217615">
        <ele>91.08744812011719</ele>
        <time>2021-11-20T13:22:10Z</time>
      </trkpt>
      <trkpt lat="34.80960394752404" lon="113.5255595317174">
        <ele>91.2024154663086</ele>
        <time>2021-11-20T13:22:16Z</time>
      </trkpt>
      <trkpt lat="34.80950214521001" lon="113.52569837073489">
        <ele>92.59138488769531</ele>
        <time>2021-11-20T13:22:22Z</time>
      </trkpt>
      <trkpt lat="34.80953004768385" lon="113.52601032095693">
        <ele>91.99759674072266</ele>
        <time>2021-11-20T13:22:31Z</time>
      </trkpt>
      <trkpt lat="34.8096221518672" lon="113.52620929557392">
        <ele>91.25228881835938</ele>
        <time>2021-11-20T13:22:37Z</time>
      </trkpt>
      <trkpt lat="34.80968692470726" lon="113.5262122829939">
        <ele>90.92289733886719</ele>
        <time>2021-11-20T13:22:40Z</time>
      </trkpt>
      <trkpt lat="34.809741000082695" lon="113.52627052965033">
        <ele>90.89553833007812</ele>
        <time>2021-11-20T13:22:43Z</time>
      </trkpt>
      <trkpt lat="34.80989913456455" lon="113.52632930959473">
        <ele>90.23301696777344</ele>
        <time>2021-11-20T13:22:49Z</time>
      </trkpt>
      <trkpt lat="34.810172064144425" lon="113.52634833513764">
        <ele>89.56300354003906</ele>
        <time>2021-11-20T13:22:58Z</time>
      </trkpt>
      <trkpt lat="34.810518884936805" lon="113.52633332701947">
        <ele>89.32603454589844</ele>
        <time>2021-11-20T13:23:10Z</time>
      </trkpt>
      <trkpt lat="34.810680123031254" lon="113.52633439875933">
        <ele>88.92377471923828</ele>
        <time>2021-11-20T13:23:16Z</time>
      </trkpt>
      <trkpt lat="34.810744026289875" lon="113.52631533751362">
        <ele>89.28501892089844</ele>
        <time>2021-11-20T13:23:19Z</time>
      </trkpt>
      <trkpt lat="34.81082112808138" lon="113.52626524324732">
        <ele>89.29986572265625</ele>
        <time>2021-11-20T13:23:22Z</time>
      </trkpt>
      <trkpt lat="34.81091395341906" lon="113.52611225260198">
        <ele>90.79957580566406</ele>
        <time>2021-11-20T13:23:28Z</time>
      </trkpt>
      <trkpt lat="34.81099310067907" lon="113.52590944832717">
        <ele>94.47894287109375</ele>
        <time>2021-11-20T13:23:34Z</time>
      </trkpt>
      <trkpt lat="34.810972106603025" lon="113.52575456269633">
        <ele>94.22801208496094</ele>
        <time>2021-11-20T13:23:40Z</time>
      </trkpt>
      <trkpt lat="34.81092909235878" lon="113.52567753138804">
        <ele>93.83770751953125</ele>
        <time>2021-11-20T13:23:43Z</time>
      </trkpt>
      <trkpt lat="34.81079416245346" lon="113.52558036592747">
        <ele>93.8580551147461</ele>
        <time>2021-11-20T13:23:49Z</time>
      </trkpt>
      <trkpt lat="34.81070627086639" lon="113.52554444316306">
        <ele>93.60282897949219</ele>
        <time>2021-11-20T13:23:52Z</time>
      </trkpt>
      <trkpt lat="34.810528988408535" lon="113.5255215960671">
        <ele>92.57483673095703</ele>
        <time>2021-11-20T13:23:58Z</time>
      </trkpt>
      <trkpt lat="34.81020001132585" lon="113.52552054208819">
        <ele>91.04386138916016</ele>
        <time>2021-11-20T13:24:10Z</time>
      </trkpt>
      <trkpt lat="34.809883932259865" lon="113.52547729369181">
        <ele>90.91441345214844</ele>
        <time>2021-11-20T13:24:22Z</time>
      </trkpt>
      <trkpt lat="34.809790156354985" lon="113.5254713149375">
        <ele>90.73897552490234</ele>
        <time>2021-11-20T13:24:25Z</time>
      </trkpt>
      <trkpt lat="34.8097213708164" lon="113.5254884716711">
        <ele>90.34757995605469</ele>
        <time>2021-11-20T13:24:28Z</time>
      </trkpt>
      <trkpt lat="34.80966212109068" lon="113.52552549894092">
        <ele>90.68819427490234</ele>
        <time>2021-11-20T13:24:31Z</time>
      </trkpt>
      <trkpt lat="34.80955306207573" lon="113.5256874768695">
        <ele>90.29161834716797</ele>
        <time>2021-11-20T13:24:37Z</time>
      </trkpt>
      <trkpt lat="34.80953697554204" lon="113.52596458904141">
        <ele>89.30094909667969</ele>
        <time>2021-11-20T13:24:46Z</time>
      </trkpt>
      <trkpt lat="34.809594006884254" lon="113.52611838107575">
        <ele>89.16742706298828</ele>
        <time>2021-11-20T13:24:52Z</time>
      </trkpt>
      <trkpt lat="34.80965002754553" lon="113.52619541002593">
        <ele>89.08483123779297</ele>
        <time>2021-11-20T13:24:55Z</time>
      </trkpt>
      <trkpt lat="34.809784937200824" lon="113.52628522417915">
        <ele>88.11075592041016</ele>
        <time>2021-11-20T13:25:01Z</time>
      </trkpt>
      <trkpt lat="34.81008502736945" lon="113.52632847327536">
        <ele>87.25328063964844</ele>
        <time>2021-11-20T13:25:13Z</time>
      </trkpt>
      <trkpt lat="34.81041402191687" lon="113.5263363324056">
        <ele>87.0970458984375</ele>
        <time>2021-11-20T13:25:25Z</time>
      </trkpt>
      <trkpt lat="34.810728048031784" lon="113.5263191501025">
        <ele>87.35002899169922</ele>
        <time>2021-11-20T13:25:37Z</time>
      </trkpt>
      <trkpt lat="34.810830091505956" lon="113.52627340851359">
        <ele>87.3392562866211</ele>
        <time>2021-11-20T13:25:40Z</time>
      </trkpt>
      <trkpt lat="34.810921973566685" lon="113.52617513184587">
        <ele>87.77582550048828</ele>
        <time>2021-11-20T13:25:46Z</time>
      </trkpt>
      <trkpt lat="34.81098710046693" lon="113.52589447740782">
        <ele>90.86880493164062</ele>
        <time>2021-11-20T13:25:58Z</time>
      </trkpt>
      <trkpt lat="34.810989088023" lon="113.52582451911691">
        <ele>92.01399993896484</ele>
        <time>2021-11-20T13:26:01Z</time>
      </trkpt>
      <trkpt lat="34.81094214876767" lon="113.52569658482811">
        <ele>92.3599853515625</ele>
        <time>2021-11-20T13:26:07Z</time>
      </trkpt>
      <trkpt lat="34.81083308136925" lon="113.52554061873988">
        <ele>89.84209442138672</ele>
        <time>2021-11-20T13:26:13Z</time>
      </trkpt>
      <trkpt lat="34.810513152367996" lon="113.5254755937101">
        <ele>88.5817642211914</ele>
        <time>2021-11-20T13:26:22Z</time>
      </trkpt>
      <trkpt lat="34.81017224988119" lon="113.52547372435428">
        <ele>88.59754180908203</ele>
        <time>2021-11-20T13:26:37Z</time>
      </trkpt>
      <trkpt lat="34.810061065527776" lon="113.52544243158373">
        <ele>88.58184814453125</ele>
        <time>2021-11-20T13:26:43Z</time>
      </trkpt>
      <trkpt lat="34.80994320095119" lon="113.52544761613727">
        <ele>88.06302642822266</ele>
        <time>2021-11-20T13:26:49Z</time>
      </trkpt>
    </trkseg>
  </trk>
</gpx>