<?xml version="1.0" encoding="UTF-8"?>
<gpx xmlns="http://www.topografix.com/GPX/1/1" xmlns:gpxtpx="http://www.garmin.com/xmlschemas/TrackPointExtension/v1" xmlns:xsi="http://www.w3.org/2001/XMLSchema-instance" xsi:schemaLocation="http://www.topografix.com/GPX/1/1 http://www.topografix.com/GPX/1/1/gpx.xsd" version="1.1" creator="gpx.py -- https://github.com/tkrajina/gpxpy">
  <trk>
    <name>gpx from keep</name>
    <type>Run</type>
    <trkseg>
      <trkpt lat="35.87334926024057" lon="115.11035960312567">
        <ele>34.63006591796875</ele>
        <time>2021-09-23T09:01:40Z</time>
      </trkpt>
      <trkpt lat="35.87342114695925" lon="115.11001972370374">
        <ele>34.02109909057617</ele>
        <time>2021-09-23T09:01:58Z</time>
      </trkpt>
      <trkpt lat="35.873455031368024" lon="115.10962339098788">
        <ele>33.610836029052734</ele>
        <time>2021-09-23T09:02:16Z</time>
      </trkpt>
      <trkpt lat="35.87346210574165" lon="115.10927240090119">
        <ele>32.79603576660156</ele>
        <time>2021-09-23T09:02:28Z</time>
      </trkpt>
      <trkpt lat="35.873483996717184" lon="115.10916436120763">
        <ele>32.74256896972656</ele>
        <time>2021-09-23T09:02:31Z</time>
      </trkpt>
      <trkpt lat="35.87349865741447" lon="115.10879410530895">
        <ele>30.460195541381836</ele>
        <time>2021-09-23T09:02:43Z</time>
      </trkpt>
      <trkpt lat="35.87352581236358" lon="115.10844529835451">
        <ele>28.157976150512695</ele>
        <time>2021-09-23T09:02:55Z</time>
      </trkpt>
      <trkpt lat="35.87354067641139" lon="115.10836820776052">
        <ele>27.914194107055664</ele>
        <time>2021-09-23T09:02:58Z</time>
      </trkpt>
      <trkpt lat="35.87353354464939" lon="115.10824606110447">
        <ele>28.628314971923828</ele>
        <time>2021-09-23T09:03:01Z</time>
      </trkpt>
      <trkpt lat="35.87356551397681" lon="115.10819909889938">
        <ele>28.764827728271484</ele>
        <time>2021-09-23T09:03:04Z</time>
      </trkpt>
      <trkpt lat="35.873600548946385" lon="115.1078619726159">
        <ele>29.1591739654541</ele>
        <time>2021-09-23T09:03:16Z</time>
      </trkpt>
      <trkpt lat="35.87362235078876" lon="115.10760492481369">
        <ele>28.348403930664062</ele>
        <time>2021-09-23T09:03:25Z</time>
      </trkpt>
      <trkpt lat="35.87361281105953" lon="115.10752892570694">
        <ele>27.855173110961914</ele>
        <time>2021-09-23T09:03:28Z</time>
      </trkpt>
      <trkpt lat="35.87364348111478" lon="115.1071356260391">
        <ele>26.086509704589844</ele>
        <time>2021-09-23T09:03:43Z</time>
      </trkpt>
      <trkpt lat="35.873657340760104" lon="115.10673772158302">
        <ele>29.166202545166016</ele>
        <time>2021-09-23T09:03:55Z</time>
      </trkpt>
      <trkpt lat="35.87367230235214" lon="115.10635855220217">
        <ele>26.81784439086914</ele>
        <time>2021-09-23T09:04:07Z</time>
      </trkpt>
      <trkpt lat="35.873668311553125" lon="115.10602336007581">
        <ele>26.39607048034668</ele>
        <time>2021-09-23T09:04:19Z</time>
      </trkpt>
      <trkpt lat="35.87366511875874" lon="115.10565234802493">
        <ele>26.40478515625</ele>
        <time>2021-09-23T09:04:31Z</time>
      </trkpt>
      <trkpt lat="35.87369581426471" lon="115.10525229937474">
        <ele>29.035165786743164</ele>
        <time>2021-09-23T09:04:43Z</time>
      </trkpt>
      <trkpt lat="35.87370484308441" lon="115.10489405556517">
        <ele>29.809478759765625</ele>
        <time>2021-09-23T09:04:55Z</time>
      </trkpt>
      <trkpt lat="35.873746726491994" lon="115.1046050187929">
        <ele>28.4924259185791</ele>
        <time>2021-09-23T09:05:04Z</time>
      </trkpt>
      <trkpt lat="35.873778824778555" lon="115.10426496675045">
        <ele>27.75144386291504</ele>
        <time>2021-09-23T09:05:16Z</time>
      </trkpt>
      <trkpt lat="35.87379180174295" lon="115.10418490685676">
        <ele>27.852270126342773</ele>
        <time>2021-09-23T09:05:19Z</time>
      </trkpt>
      <trkpt lat="35.873842771819234" lon="115.10415803427769">
        <ele>27.767061233520508</ele>
        <time>2021-09-23T09:05:22Z</time>
      </trkpt>
      <trkpt lat="35.87387162144487" lon="115.10381690464044">
        <ele>27.764751434326172</ele>
        <time>2021-09-23T09:05:34Z</time>
      </trkpt>
      <trkpt lat="35.87386846658195" lon="115.1034567881074">
        <ele>33.01686096191406</ele>
        <time>2021-09-23T09:05:46Z</time>
      </trkpt>
      <trkpt lat="35.87390652853412" lon="115.10307659224966">
        <ele>30.956308364868164</ele>
        <time>2021-09-23T09:06:01Z</time>
      </trkpt>
      <trkpt lat="35.87390824697698" lon="115.10267334171598">
        <ele>30.37116813659668</ele>
        <time>2021-09-23T09:06:16Z</time>
      </trkpt>
      <trkpt lat="35.87393421889533" lon="115.10253033079918">
        <ele>31.078516006469727</ele>
        <time>2021-09-23T09:06:22Z</time>
      </trkpt>
      <trkpt lat="35.873931136233" lon="115.10229723289613">
        <ele>31.872270584106445</ele>
        <time>2021-09-23T09:06:31Z</time>
      </trkpt>
      <trkpt lat="35.87397014372291" lon="115.10219329864032">
        <ele>31.098209381103516</ele>
        <time>2021-09-23T09:06:40Z</time>
      </trkpt>
      <trkpt lat="35.87398029080144" lon="115.10180797439732">
        <ele>32.63245391845703</ele>
        <time>2021-09-23T09:06:58Z</time>
      </trkpt>
      <trkpt lat="35.87401620933356" lon="115.10142889585153">
        <ele>32.13797378540039</ele>
        <time>2021-09-23T09:07:10Z</time>
      </trkpt>
      <trkpt lat="35.87404996953045" lon="115.10106393461373">
        <ele>34.10898971557617</ele>
        <time>2021-09-23T09:07:22Z</time>
      </trkpt>
      <trkpt lat="35.87405886673082" lon="115.10092283663658">
        <ele>33.2812614440918</ele>
        <time>2021-09-23T09:07:28Z</time>
      </trkpt>
      <trkpt lat="35.874051752047244" lon="115.1007467389279">
        <ele>33.00004577636719</ele>
        <time>2021-09-23T09:07:34Z</time>
      </trkpt>
      <trkpt lat="35.87408661179851" lon="115.10039481424913">
        <ele>32.9316291809082</ele>
        <time>2021-09-23T09:07:46Z</time>
      </trkpt>
      <trkpt lat="35.87409470946231" lon="115.10028356753523">
        <ele>31.91401481628418</ele>
        <time>2021-09-23T09:07:49Z</time>
      </trkpt>
      <trkpt lat="35.87419965307205" lon="115.10026456294122">
        <ele>32.23882293701172</ele>
        <time>2021-09-23T09:07:58Z</time>
      </trkpt>
      <trkpt lat="35.87428992198971" lon="115.10015466463713">
        <ele>32.340843200683594</ele>
        <time>2021-09-23T09:08:04Z</time>
      </trkpt>
      <trkpt lat="35.87431078654844" lon="115.10010365262583">
        <ele>32.54639434814453</ele>
        <time>2021-09-23T09:08:07Z</time>
      </trkpt>
      <trkpt lat="35.8742868742179" lon="115.09995849530053">
        <ele>32.31732177734375</ele>
        <time>2021-09-23T09:08:13Z</time>
      </trkpt>
      <trkpt lat="35.874326608619455" lon="115.09954743647114">
        <ele>32.963706970214844</ele>
        <time>2021-09-23T09:08:28Z</time>
      </trkpt>
      <trkpt lat="35.874314626318274" lon="115.09938356106659">
        <ele>32.81514358520508</ele>
        <time>2021-09-23T09:08:34Z</time>
      </trkpt>
      <trkpt lat="35.87435362679626" lon="115.09921344122357">
        <ele>33.61058044433594</ele>
        <time>2021-09-23T09:08:40Z</time>
      </trkpt>
      <trkpt lat="35.87433647982198" lon="115.09899937633985">
        <ele>34.094539642333984</ele>
        <time>2021-09-23T09:08:49Z</time>
      </trkpt>
      <trkpt lat="35.874360321182884" lon="115.09891743753168">
        <ele>34.09178924560547</ele>
        <time>2021-09-23T09:08:52Z</time>
      </trkpt>
      <trkpt lat="35.87444140013927" lon="115.09889436722068">
        <ele>33.62649917602539</ele>
        <time>2021-09-23T09:08:55Z</time>
      </trkpt>
      <trkpt lat="35.87451027031335" lon="115.09885230653157">
        <ele>33.29201889038086</ele>
        <time>2021-09-23T09:08:58Z</time>
      </trkpt>
      <trkpt lat="35.874581226821746" lon="115.098503125419">
        <ele>31.656253814697266</ele>
        <time>2021-09-23T09:09:10Z</time>
      </trkpt>
      <trkpt lat="35.874733035375755" lon="115.09828308132705">
        <ele>29.099531173706055</ele>
        <time>2021-09-23T09:09:19Z</time>
      </trkpt>
      <trkpt lat="35.8748461065875" lon="115.09822582425167">
        <ele>30.24295425415039</ele>
        <time>2021-09-23T09:09:25Z</time>
      </trkpt>
      <trkpt lat="35.87511134950052" lon="115.09830501549254">
        <ele>36.89988708496094</ele>
        <time>2021-09-23T09:09:43Z</time>
      </trkpt>
      <trkpt lat="35.87516125160429" lon="115.09831803257357">
        <ele>39.34629821777344</ele>
        <time>2021-09-23T09:09:46Z</time>
      </trkpt>
      <trkpt lat="35.87521035206396" lon="115.09837717132886">
        <ele>44.39192581176758</ele>
        <time>2021-09-23T09:09:52Z</time>
      </trkpt>
      <trkpt lat="35.87537226175161" lon="115.09841513619477">
        <ele>44.73931121826172</ele>
        <time>2021-09-23T09:10:04Z</time>
      </trkpt>
      <trkpt lat="35.8754381704" lon="115.09845229771233">
        <ele>46.3207893371582</ele>
        <time>2021-09-23T09:10:07Z</time>
      </trkpt>
      <trkpt lat="35.875606313573364" lon="115.0984750689535">
        <ele>50.757568359375</ele>
        <time>2021-09-23T09:10:19Z</time>
      </trkpt>
      <trkpt lat="35.875809149378235" lon="115.09842322758146">
        <ele>51.972877502441406</ele>
        <time>2021-09-23T09:10:31Z</time>
      </trkpt>
      <trkpt lat="35.87604535506313" lon="115.09842320176863">
        <ele>47.976837158203125</ele>
        <time>2021-09-23T09:10:46Z</time>
      </trkpt>
      <trkpt lat="35.87609141849239" lon="115.09827316600072">
        <ele>46.030147552490234</ele>
        <time>2021-09-23T09:10:55Z</time>
      </trkpt>
      <trkpt lat="35.87610924239361" lon="115.09797310610983">
        <ele>42.45296096801758</ele>
        <time>2021-09-23T09:11:10Z</time>
      </trkpt>
      <trkpt lat="35.87606230645864" lon="115.09788900904329">
        <ele>41.71023941040039</ele>
        <time>2021-09-23T09:11:16Z</time>
      </trkpt>
      <trkpt lat="35.87604410184219" lon="115.09774061225438">
        <ele>40.000205993652344</ele>
        <time>2021-09-23T09:11:22Z</time>
      </trkpt>
      <trkpt lat="35.87595025912195" lon="115.09769178952581">
        <ele>39.46983337402344</ele>
        <time>2021-09-23T09:11:25Z</time>
      </trkpt>
      <trkpt lat="35.87562698619163" lon="115.09762373017884">
        <ele>38.92884063720703</ele>
        <time>2021-09-23T09:11:37Z</time>
      </trkpt>
      <trkpt lat="35.87535009883891" lon="115.09760883932557">
        <ele>35.81897735595703</ele>
        <time>2021-09-23T09:11:49Z</time>
      </trkpt>
      <trkpt lat="35.87502113088732" lon="115.09753888185341">
        <ele>35.2673454284668</ele>
        <time>2021-09-23T09:12:04Z</time>
      </trkpt>
      <trkpt lat="35.87482505170505" lon="115.09749576792781">
        <ele>34.94730758666992</ele>
        <time>2021-09-23T09:12:13Z</time>
      </trkpt>
      <trkpt lat="35.87475806962123" lon="115.09750282882035">
        <ele>34.893280029296875</ele>
        <time>2021-09-23T09:12:16Z</time>
      </trkpt>
      <trkpt lat="35.87443615106436" lon="115.0974239183878">
        <ele>33.11859130859375</ele>
        <time>2021-09-23T09:12:31Z</time>
      </trkpt>
      <trkpt lat="35.87437106130822" lon="115.09740357874668">
        <ele>32.61209487915039</ele>
        <time>2021-09-23T09:12:34Z</time>
      </trkpt>
      <trkpt lat="35.874320068920724" lon="115.09736261958712">
        <ele>32.09914016723633</ele>
        <time>2021-09-23T09:12:37Z</time>
      </trkpt>
      <trkpt lat="35.87431293590212" lon="115.09696762721197">
        <ele>31.644739151000977</ele>
        <time>2021-09-23T09:12:52Z</time>
      </trkpt>
      <trkpt lat="35.874354889228144" lon="115.0965425258448">
        <ele>31.576128005981445</ele>
        <time>2021-09-23T09:13:07Z</time>
      </trkpt>
      <trkpt lat="35.874382752371595" lon="115.09614130746132">
        <ele>33.254058837890625</ele>
        <time>2021-09-23T09:13:22Z</time>
      </trkpt>
      <trkpt lat="35.874431504871325" lon="115.09574633443104">
        <ele>33.850704193115234</ele>
        <time>2021-09-23T09:13:37Z</time>
      </trkpt>
      <trkpt lat="35.87443637736608" lon="115.09568529910491">
        <ele>33.79850387573242</ele>
        <time>2021-09-23T09:13:40Z</time>
      </trkpt>
      <trkpt lat="35.874511459429485" lon="115.09541701141784">
        <ele>35.46525955200195</ele>
        <time>2021-09-23T09:13:58Z</time>
      </trkpt>
      <trkpt lat="35.87448948495498" lon="115.09535489505">
        <ele>36.4256591796875</ele>
        <time>2021-09-23T09:14:22Z</time>
      </trkpt>
      <trkpt lat="35.874501389039" lon="115.09513002009518">
        <ele>35.70681381225586</ele>
        <time>2021-09-23T09:14:28Z</time>
      </trkpt>
      <trkpt lat="35.87448727315764" lon="115.09501094005627">
        <ele>35.48406219482422</ele>
        <time>2021-09-23T09:14:31Z</time>
      </trkpt>
      <trkpt lat="35.87441728636699" lon="115.09483110610901">
        <ele>35.346473693847656</ele>
        <time>2021-09-23T09:14:37Z</time>
      </trkpt>
      <trkpt lat="35.87443622534647" lon="115.09437974449496">
        <ele>35.436424255371094</ele>
        <time>2021-09-23T09:14:49Z</time>
      </trkpt>
      <trkpt lat="35.87447307356435" lon="115.0939566007796">
        <ele>34.995174407958984</ele>
        <time>2021-09-23T09:15:01Z</time>
      </trkpt>
      <trkpt lat="35.874489864061715" lon="115.09358066364764">
        <ele>34.3206672668457</ele>
        <time>2021-09-23T09:15:13Z</time>
      </trkpt>
      <trkpt lat="35.87453188254144" lon="115.09323836381412">
        <ele>34.641502380371094</ele>
        <time>2021-09-23T09:15:25Z</time>
      </trkpt>
      <trkpt lat="35.87456387386488" lon="115.09296442016718">
        <ele>34.29758071899414</ele>
        <time>2021-09-23T09:15:34Z</time>
      </trkpt>
      <trkpt lat="35.87456956189521" lon="115.09259121649215">
        <ele>33.91530227661133</ele>
        <time>2021-09-23T09:15:46Z</time>
      </trkpt>
      <trkpt lat="35.87459749310618" lon="115.09233599677871">
        <ele>33.30251693725586</ele>
        <time>2021-09-23T09:15:55Z</time>
      </trkpt>
      <trkpt lat="35.874591529808306" lon="115.09199101301503">
        <ele>33.202632904052734</ele>
        <time>2021-09-23T09:16:07Z</time>
      </trkpt>
      <trkpt lat="35.874612686340406" lon="115.0918008923241">
        <ele>33.27586364746094</ele>
        <time>2021-09-23T09:16:13Z</time>
      </trkpt>
      <trkpt lat="35.874611334952995" lon="115.09163681184774">
        <ele>33.07999038696289</ele>
        <time>2021-09-23T09:16:19Z</time>
      </trkpt>
      <trkpt lat="35.874640361238704" lon="115.09139001246636">
        <ele>33.29718780517578</ele>
        <time>2021-09-23T09:16:28Z</time>
      </trkpt>
      <trkpt lat="35.87463440266899" lon="115.09122458014326">
        <ele>33.61786651611328</ele>
        <time>2021-09-23T09:16:34Z</time>
      </trkpt>
      <trkpt lat="35.87466343134328" lon="115.0910127706912">
        <ele>33.86595916748047</ele>
        <time>2021-09-23T09:16:43Z</time>
      </trkpt>
      <trkpt lat="35.874666984093395" lon="115.09060950438807">
        <ele>34.0080451965332</ele>
        <time>2021-09-23T09:16:58Z</time>
      </trkpt>
      <trkpt lat="35.87469521955483" lon="115.09023444753048">
        <ele>32.79844665527344</ele>
        <time>2021-09-23T09:17:13Z</time>
      </trkpt>
      <trkpt lat="35.8747389143334" lon="115.08990224317226">
        <ele>32.94768524169922</ele>
        <time>2021-09-23T09:17:25Z</time>
      </trkpt>
      <trkpt lat="35.87473079854468" lon="115.08972435026509">
        <ele>32.687931060791016</ele>
        <time>2021-09-23T09:17:31Z</time>
      </trkpt>
      <trkpt lat="35.87478183294546" lon="115.08931622597183">
        <ele>30.81266212463379</ele>
        <time>2021-09-23T09:17:43Z</time>
      </trkpt>
      <trkpt lat="35.87481469832412" lon="115.08895285523445">
        <ele>31.655593872070312</ele>
        <time>2021-09-23T09:17:55Z</time>
      </trkpt>
      <trkpt lat="35.87482885282082" lon="115.08861796573639">
        <ele>31.75517463684082</ele>
        <time>2021-09-23T09:18:07Z</time>
      </trkpt>
      <trkpt lat="35.874859569579286" lon="115.08820173369132">
        <ele>31.748456954956055</ele>
        <time>2021-09-23T09:18:22Z</time>
      </trkpt>
      <trkpt lat="35.874859599049906" lon="115.08804392177605">
        <ele>32.0557746887207</ele>
        <time>2021-09-23T09:18:28Z</time>
      </trkpt>
      <trkpt lat="35.87488755002534" lon="115.08794765955018">
        <ele>31.938261032104492</ele>
        <time>2021-09-23T09:18:31Z</time>
      </trkpt>
      <trkpt lat="35.87488327978362" lon="115.08760736758401">
        <ele>32.35435485839844</ele>
        <time>2021-09-23T09:18:43Z</time>
      </trkpt>
      <trkpt lat="35.87488655223965" lon="115.0875214138892">
        <ele>32.37705993652344</ele>
        <time>2021-09-23T09:18:46Z</time>
      </trkpt>
      <trkpt lat="35.874924544358684" lon="115.08740264838251">
        <ele>32.247127532958984</ele>
        <time>2021-09-23T09:18:52Z</time>
      </trkpt>
      <trkpt lat="35.87494632071318" lon="115.08704446861907">
        <ele>33.039146423339844</ele>
        <time>2021-09-23T09:19:04Z</time>
      </trkpt>
      <trkpt lat="35.87493930656008" lon="115.08689019227809">
        <ele>32.997737884521484</ele>
        <time>2021-09-23T09:19:10Z</time>
      </trkpt>
      <trkpt lat="35.87496598570443" lon="115.08648104956885">
        <ele>32.69242477416992</ele>
        <time>2021-09-23T09:19:25Z</time>
      </trkpt>
      <trkpt lat="35.875002973291224" lon="115.0860870979038">
        <ele>33.10012435913086</ele>
        <time>2021-09-23T09:19:40Z</time>
      </trkpt>
      <trkpt lat="35.87503373320291" lon="115.0856839374637">
        <ele>34.00163650512695</ele>
        <time>2021-09-23T09:19:55Z</time>
      </trkpt>
      <trkpt lat="35.875029760239585" lon="115.08537052810313">
        <ele>34.20167922973633</ele>
        <time>2021-09-23T09:20:07Z</time>
      </trkpt>
      <trkpt lat="35.87507870009075" lon="115.08497551485802">
        <ele>34.34585952758789</ele>
        <time>2021-09-23T09:20:22Z</time>
      </trkpt>
      <trkpt lat="35.875097547032844" lon="115.08457454929643">
        <ele>34.96538162231445</ele>
        <time>2021-09-23T09:20:37Z</time>
      </trkpt>
      <trkpt lat="35.87513238865787" lon="115.08420856223219">
        <ele>35.36557388305664</ele>
        <time>2021-09-23T09:20:52Z</time>
      </trkpt>
      <trkpt lat="35.87515334099919" lon="115.08401526955703">
        <ele>34.42576599121094</ele>
        <time>2021-09-23T09:21:01Z</time>
      </trkpt>
      <trkpt lat="35.87521441836199" lon="115.0838553186898">
        <ele>34.892032623291016</ele>
        <time>2021-09-23T09:21:13Z</time>
      </trkpt>
      <trkpt lat="35.87526625077537" lon="115.08376232917315">
        <ele>34.332122802734375</ele>
        <time>2021-09-23T09:21:19Z</time>
      </trkpt>
      <trkpt lat="35.87546340743998" lon="115.08375634367793">
        <ele>33.57809829711914</ele>
        <time>2021-09-23T09:21:31Z</time>
      </trkpt>
      <trkpt lat="35.8757554427698" lon="115.08384902451695">
        <ele>35.4453125</ele>
        <time>2021-09-23T09:21:55Z</time>
      </trkpt>
      <trkpt lat="35.876072444201405" lon="115.08389832844415">
        <ele>34.46000289916992</ele>
        <time>2021-09-23T09:22:19Z</time>
      </trkpt>
      <trkpt lat="35.87636150745723" lon="115.08396335890231">
        <ele>34.468475341796875</ele>
        <time>2021-09-23T09:22:40Z</time>
      </trkpt>
      <trkpt lat="35.876661418227066" lon="115.0840292016893">
        <ele>34.570648193359375</ele>
        <time>2021-09-23T09:23:01Z</time>
      </trkpt>
      <trkpt lat="35.8769624230769" lon="115.08407037503598">
        <ele>34.526771545410156</ele>
        <time>2021-09-23T09:23:25Z</time>
      </trkpt>
      <trkpt lat="35.87724335321078" lon="115.08413025619927">
        <ele>34.614498138427734</ele>
        <time>2021-09-23T09:23:46Z</time>
      </trkpt>
      <trkpt lat="35.87750963893959" lon="115.08419122354312">
        <ele>34.752296447753906</ele>
        <time>2021-09-23T09:24:04Z</time>
      </trkpt>
      <trkpt lat="35.87780141698093" lon="115.08425137501807">
        <ele>34.58295822143555</ele>
        <time>2021-09-23T09:24:25Z</time>
      </trkpt>
      <trkpt lat="35.878113535517954" lon="115.08430854239876">
        <ele>34.03908157348633</ele>
        <time>2021-09-23T09:24:49Z</time>
      </trkpt>
      <trkpt lat="35.87836544961479" lon="115.08436734312629">
        <ele>33.38963317871094</ele>
        <time>2021-09-23T09:25:07Z</time>
      </trkpt>
      <trkpt lat="35.87861547955435" lon="115.08438656380697">
        <ele>35.0252571105957</ele>
        <time>2021-09-23T09:25:25Z</time>
      </trkpt>
      <trkpt lat="35.87890671044329" lon="115.0844624397705">
        <ele>34.79680252075195</ele>
        <time>2021-09-23T09:25:43Z</time>
      </trkpt>
      <trkpt lat="35.87925354278575" lon="115.08451743522039">
        <ele>36.09235763549805</ele>
        <time>2021-09-23T09:26:10Z</time>
      </trkpt>
      <trkpt lat="35.87954261389753" lon="115.08456674401803">
        <ele>35.690528869628906</ele>
        <time>2021-09-23T09:26:31Z</time>
      </trkpt>
      <trkpt lat="35.8798544573964" lon="115.0846385519484">
        <ele>35.15867233276367</ele>
        <time>2021-09-23T09:26:46Z</time>
      </trkpt>
      <trkpt lat="35.8800686731262" lon="115.08470955751852">
        <ele>35.82334899902344</ele>
        <time>2021-09-23T09:26:55Z</time>
      </trkpt>
      <trkpt lat="35.88012861151333" lon="115.08469355587238">
        <ele>35.863487243652344</ele>
        <time>2021-09-23T09:26:58Z</time>
      </trkpt>
      <trkpt lat="35.880457536399085" lon="115.08477756213792">
        <ele>34.96909713745117</ele>
        <time>2021-09-23T09:27:13Z</time>
      </trkpt>
      <trkpt lat="35.88076883901861" lon="115.08484747322458">
        <ele>35.56541442871094</ele>
        <time>2021-09-23T09:27:28Z</time>
      </trkpt>
      <trkpt lat="35.88107662299179" lon="115.08489759419489">
        <ele>35.239898681640625</ele>
        <time>2021-09-23T09:27:43Z</time>
      </trkpt>
      <trkpt lat="35.88134887830361" lon="115.08495666572013">
        <ele>35.37871551513672</ele>
        <time>2021-09-23T09:27:58Z</time>
      </trkpt>
      <trkpt lat="35.88162167523007" lon="115.08501871956781">
        <ele>35.71202087402344</ele>
        <time>2021-09-23T09:28:10Z</time>
      </trkpt>
      <trkpt lat="35.88192457387306" lon="115.08508266810266">
        <ele>35.82492446899414</ele>
        <time>2021-09-23T09:28:25Z</time>
      </trkpt>
      <trkpt lat="35.88221066565121" lon="115.08512574323902">
        <ele>36.218666076660156</ele>
        <time>2021-09-23T09:28:40Z</time>
      </trkpt>
      <trkpt lat="35.882492681775915" lon="115.08519376109359">
        <ele>36.25288391113281</ele>
        <time>2021-09-23T09:28:55Z</time>
      </trkpt>
      <trkpt lat="35.882680875460736" lon="115.08523278051986">
        <ele>36.36417007446289</ele>
        <time>2021-09-23T09:29:04Z</time>
      </trkpt>
      <trkpt lat="35.88286582819299" lon="115.08522977808731">
        <ele>36.35451126098633</ele>
        <time>2021-09-23T09:29:13Z</time>
      </trkpt>
      <trkpt lat="35.883008731324004" lon="115.08527476700147">
        <ele>36.59877395629883</ele>
        <time>2021-09-23T09:29:19Z</time>
      </trkpt>
      <trkpt lat="35.883135649093916" lon="115.08527258423851">
        <ele>36.79075622558594</ele>
        <time>2021-09-23T09:29:25Z</time>
      </trkpt>
      <trkpt lat="35.88341196763584" lon="115.08535090556097">
        <ele>37.470909118652344</ele>
        <time>2021-09-23T09:29:37Z</time>
      </trkpt>
      <trkpt lat="35.88367879683502" lon="115.08542272151769">
        <ele>36.045108795166016</ele>
        <time>2021-09-23T09:29:49Z</time>
      </trkpt>
      <trkpt lat="35.883995802006844" lon="115.08547663867901">
        <ele>35.67811965942383</ele>
        <time>2021-09-23T09:30:04Z</time>
      </trkpt>
      <trkpt lat="35.88426779293989" lon="115.08551998740671">
        <ele>36.739036560058594</ele>
        <time>2021-09-23T09:30:19Z</time>
      </trkpt>
      <trkpt lat="35.8845837124832" lon="115.0855779717224">
        <ele>36.96880340576172</ele>
        <time>2021-09-23T09:30:34Z</time>
      </trkpt>
      <trkpt lat="35.884882811971195" lon="115.08565764746326">
        <ele>36.983558654785156</ele>
        <time>2021-09-23T09:30:49Z</time>
      </trkpt>
      <trkpt lat="35.885188698100116" lon="115.08571509107814">
        <ele>38.623287200927734</ele>
        <time>2021-09-23T09:31:07Z</time>
      </trkpt>
      <trkpt lat="35.88549810604655" lon="115.0857858193457">
        <ele>37.79494094848633</ele>
        <time>2021-09-23T09:31:25Z</time>
      </trkpt>
      <trkpt lat="35.88577986141941" lon="115.08582672766235">
        <ele>36.698856353759766</ele>
        <time>2021-09-23T09:31:37Z</time>
      </trkpt>
      <trkpt lat="35.8860846708727" lon="115.08585814432502">
        <ele>37.04051208496094</ele>
        <time>2021-09-23T09:31:46Z</time>
      </trkpt>
      <trkpt lat="35.8863740138695" lon="115.0859199283271">
        <ele>37.73489761352539</ele>
        <time>2021-09-23T09:31:55Z</time>
      </trkpt>
      <trkpt lat="35.88660694226282" lon="115.08600693311821">
        <ele>36.390628814697266</ele>
        <time>2021-09-23T09:32:04Z</time>
      </trkpt>
      <trkpt lat="35.88689819022983" lon="115.08604675640105">
        <ele>35.56431198120117</ele>
        <time>2021-09-23T09:32:16Z</time>
      </trkpt>
      <trkpt lat="35.88703404178228" lon="115.0861012374616">
        <ele>35.3105354309082</ele>
        <time>2021-09-23T09:32:22Z</time>
      </trkpt>
      <trkpt lat="35.88713489442202" lon="115.08621211662766">
        <ele>34.582862854003906</ele>
        <time>2021-09-23T09:32:28Z</time>
      </trkpt>
      <trkpt lat="35.88718203974005" lon="115.08636828071415">
        <ele>33.046749114990234</ele>
        <time>2021-09-23T09:32:37Z</time>
      </trkpt>
      <trkpt lat="35.88717226056586" lon="115.0864300991449">
        <ele>32.43874740600586</ele>
        <time>2021-09-23T09:32:40Z</time>
      </trkpt>
      <trkpt lat="35.887099261137095" lon="115.08662016971783">
        <ele>31.113906860351562</ele>
        <time>2021-09-23T09:32:49Z</time>
      </trkpt>
      <trkpt lat="35.88690203495562" lon="115.08690433992038">
        <ele>30.75692367553711</ele>
        <time>2021-09-23T09:33:04Z</time>
      </trkpt>
      <trkpt lat="35.8867102378353" lon="115.08718146432254">
        <ele>29.268301010131836</ele>
        <time>2021-09-23T09:33:19Z</time>
      </trkpt>
      <trkpt lat="35.886691242193244" lon="115.08723542343085">
        <ele>29.28352928161621</ele>
        <time>2021-09-23T09:33:22Z</time>
      </trkpt>
      <trkpt lat="35.8864923935403" lon="115.08753451644202">
        <ele>28.51148796081543</ele>
        <time>2021-09-23T09:33:37Z</time>
      </trkpt>
      <trkpt lat="35.88633341494045" lon="115.08782872930966">
        <ele>27.43178367614746</ele>
        <time>2021-09-23T09:33:55Z</time>
      </trkpt>
      <trkpt lat="35.88620264300308" lon="115.08812863809298">
        <ele>28.026498794555664</ele>
        <time>2021-09-23T09:34:10Z</time>
      </trkpt>
      <trkpt lat="35.88607946509859" lon="115.08844780328255">
        <ele>31.24088478088379</ele>
        <time>2021-09-23T09:34:31Z</time>
      </trkpt>
      <trkpt lat="35.88601651901187" lon="115.08862487805708">
        <ele>31.44110107421875</ele>
        <time>2021-09-23T09:34:43Z</time>
      </trkpt>
      <trkpt lat="35.885960640031996" lon="115.08870894456274">
        <ele>32.20688247680664</ele>
        <time>2021-09-23T09:34:49Z</time>
      </trkpt>
      <trkpt lat="35.885867830896615" lon="115.08911705987896">
        <ele>30.489850997924805</ele>
        <time>2021-09-23T09:35:13Z</time>
      </trkpt>
      <trkpt lat="35.88581681437561" lon="115.08935488243746">
        <ele>30.010345458984375</ele>
        <time>2021-09-23T09:35:25Z</time>
      </trkpt>
      <trkpt lat="35.88580700555865" lon="115.08972612280844">
        <ele>31.703508377075195</ele>
        <time>2021-09-23T09:35:49Z</time>
      </trkpt>
      <trkpt lat="35.8857831337972" lon="115.08978714063156">
        <ele>31.627851486206055</ele>
        <time>2021-09-23T09:35:55Z</time>
      </trkpt>
      <trkpt lat="35.88574106220935" lon="115.0901394103675">
        <ele>33.320640563964844</ele>
        <time>2021-09-23T09:36:16Z</time>
      </trkpt>
      <trkpt lat="35.885685165150974" lon="115.09049440027148">
        <ele>31.980152130126953</ele>
        <time>2021-09-23T09:36:37Z</time>
      </trkpt>
      <trkpt lat="35.8856672495007" lon="115.09071677906988">
        <ele>32.76737976074219</ele>
        <time>2021-09-23T09:36:49Z</time>
      </trkpt>
      <trkpt lat="35.88567727414105" lon="115.09085373090221">
        <ele>31.484634399414062</ele>
        <time>2021-09-23T09:36:58Z</time>
      </trkpt>
      <trkpt lat="35.88559210819456" lon="115.09104954398964">
        <ele>31.045888900756836</ele>
        <time>2021-09-23T09:37:07Z</time>
      </trkpt>
      <trkpt lat="35.885574468382785" lon="115.09128874393858">
        <ele>31.93927764892578</ele>
        <time>2021-09-23T09:37:22Z</time>
      </trkpt>
      <trkpt lat="35.88558340926951" lon="115.09148780581116">
        <ele>31.979455947875977</ele>
        <time>2021-09-23T09:37:34Z</time>
      </trkpt>
      <trkpt lat="35.88548739792909" lon="115.09180485680332">
        <ele>31.109760284423828</ele>
        <time>2021-09-23T09:37:52Z</time>
      </trkpt>
      <trkpt lat="35.88545647614205" lon="115.09219920214521">
        <ele>33.7921028137207</ele>
        <time>2021-09-23T09:38:16Z</time>
      </trkpt>
      <trkpt lat="35.885425831239395" lon="115.09243814718107">
        <ele>33.773475646972656</ele>
        <time>2021-09-23T09:38:31Z</time>
      </trkpt>
      <trkpt lat="35.88543288512013" lon="115.09272726725591">
        <ele>33.043556213378906</ele>
        <time>2021-09-23T09:38:43Z</time>
      </trkpt>
      <trkpt lat="35.885371874994796" lon="115.09305735454312">
        <ele>32.650997161865234</ele>
        <time>2021-09-23T09:39:01Z</time>
      </trkpt>
      <trkpt lat="35.88534475935592" lon="115.09316123783007">
        <ele>32.87380599975586</ele>
        <time>2021-09-23T09:39:04Z</time>
      </trkpt>
      <trkpt lat="35.88534394990798" lon="115.09327054342765">
        <ele>33.062103271484375</ele>
        <time>2021-09-23T09:39:07Z</time>
      </trkpt>
      <trkpt lat="35.88529406852201" lon="115.09363861210026">
        <ele>32.164546966552734</ele>
        <time>2021-09-23T09:39:16Z</time>
      </trkpt>
      <trkpt lat="35.88523903471618" lon="115.09392585894253">
        <ele>29.846071243286133</ele>
        <time>2021-09-23T09:39:25Z</time>
      </trkpt>
      <trkpt lat="35.88522820448464" lon="115.09416184031579">
        <ele>28.179298400878906</ele>
        <time>2021-09-23T09:39:34Z</time>
      </trkpt>
      <trkpt lat="35.88519322617094" lon="115.09422775638004">
        <ele>31.026338577270508</ele>
        <time>2021-09-23T09:39:37Z</time>
      </trkpt>
      <trkpt lat="35.885147155987056" lon="115.09458797726859">
        <ele>31.98113250732422</ele>
        <time>2021-09-23T09:39:52Z</time>
      </trkpt>
      <trkpt lat="35.8850913268423" lon="115.09493301589264">
        <ele>30.177690505981445</ele>
        <time>2021-09-23T09:40:10Z</time>
      </trkpt>
      <trkpt lat="35.88508023348695" lon="115.09515083571296">
        <ele>29.930500030517578</ele>
        <time>2021-09-23T09:40:19Z</time>
      </trkpt>
      <trkpt lat="35.885019257553985" lon="115.09547716812914">
        <ele>30.441797256469727</ele>
        <time>2021-09-23T09:40:31Z</time>
      </trkpt>
      <trkpt lat="35.88500167473164" lon="115.09579020937754">
        <ele>29.471885681152344</ele>
        <time>2021-09-23T09:40:46Z</time>
      </trkpt>
      <trkpt lat="35.884922819673854" lon="115.09618030373412">
        <ele>28.724834442138672</ele>
        <time>2021-09-23T09:41:01Z</time>
      </trkpt>
      <trkpt lat="35.88485776972576" lon="115.09639054815187">
        <ele>26.88581657409668</ele>
        <time>2021-09-23T09:41:13Z</time>
      </trkpt>
      <trkpt lat="35.88486786738258" lon="115.09673941048963">
        <ele>27.442001342773438</ele>
        <time>2021-09-23T09:41:22Z</time>
      </trkpt>
      <trkpt lat="35.884844877895105" lon="115.09705355835668">
        <ele>27.69146728515625</ele>
        <time>2021-09-23T09:41:31Z</time>
      </trkpt>
      <trkpt lat="35.8848269954826" lon="115.09713250439076">
        <ele>27.93832778930664</ele>
        <time>2021-09-23T09:41:34Z</time>
      </trkpt>
      <trkpt lat="35.88458700087973" lon="115.09717647901947">
        <ele>29.362171173095703</ele>
        <time>2021-09-23T09:41:49Z</time>
      </trkpt>
      <trkpt lat="35.88429790567023" lon="115.09714748297017">
        <ele>28.325700759887695</ele>
        <time>2021-09-23T09:42:01Z</time>
      </trkpt>
      <trkpt lat="35.88422089171682" lon="115.09716756658392">
        <ele>29.0963077545166</ele>
        <time>2021-09-23T09:42:04Z</time>
      </trkpt>
      <trkpt lat="35.88390603517294" lon="115.09714671195002">
        <ele>27.940044403076172</ele>
        <time>2021-09-23T09:42:19Z</time>
      </trkpt>
      <trkpt lat="35.883584943796315" lon="115.09713779460623">
        <ele>26.518508911132812</ele>
        <time>2021-09-23T09:42:34Z</time>
      </trkpt>
      <trkpt lat="35.88330181685248" lon="115.0971177503932">
        <ele>28.808502197265625</ele>
        <time>2021-09-23T09:42:46Z</time>
      </trkpt>
      <trkpt lat="35.8831838475825" lon="115.09711070985826">
        <ele>27.979780197143555</ele>
        <time>2021-09-23T09:42:52Z</time>
      </trkpt>
      <trkpt lat="35.8831198503427" lon="115.09712862172167">
        <ele>27.443634033203125</ele>
        <time>2021-09-23T09:42:55Z</time>
      </trkpt>
      <trkpt lat="35.883068050523434" lon="115.09711669080383">
        <ele>27.481895446777344</ele>
        <time>2021-09-23T09:42:58Z</time>
      </trkpt>
      <trkpt lat="35.88295497120989" lon="115.09715088521024">
        <ele>27.316007614135742</ele>
        <time>2021-09-23T09:43:04Z</time>
      </trkpt>
      <trkpt lat="35.88282587878287" lon="115.0971226855656">
        <ele>27.901615142822266</ele>
        <time>2021-09-23T09:43:10Z</time>
      </trkpt>
      <trkpt lat="35.882463844070315" lon="115.09714361416721">
        <ele>29.902788162231445</ele>
        <time>2021-09-23T09:43:28Z</time>
      </trkpt>
      <trkpt lat="35.88217096110156" lon="115.09715558277946">
        <ele>28.604368209838867</ele>
        <time>2021-09-23T09:43:40Z</time>
      </trkpt>
      <trkpt lat="35.881885935903995" lon="115.09713472489523">
        <ele>27.822601318359375</ele>
        <time>2021-09-23T09:43:52Z</time>
      </trkpt>
      <trkpt lat="35.88164185942359" lon="115.09710870812829">
        <ele>28.666873931884766</ele>
        <time>2021-09-23T09:44:10Z</time>
      </trkpt>
      <trkpt lat="35.88156291551367" lon="115.09697253181668">
        <ele>30.4063777923584</ele>
        <time>2021-09-23T09:44:25Z</time>
      </trkpt>
      <trkpt lat="35.88127679713623" lon="115.09690772638065">
        <ele>30.602548599243164</ele>
        <time>2021-09-23T09:44:46Z</time>
      </trkpt>
      <trkpt lat="35.8809489256391" lon="115.0968936555159">
        <ele>31.457738876342773</ele>
        <time>2021-09-23T09:45:10Z</time>
      </trkpt>
      <trkpt lat="35.88064383162967" lon="115.09686656061874">
        <ele>30.91507339477539</ele>
        <time>2021-09-23T09:45:34Z</time>
      </trkpt>
      <trkpt lat="35.88031189049484" lon="115.09684245279513">
        <ele>28.731172561645508</ele>
        <time>2021-09-23T09:46:01Z</time>
      </trkpt>
      <trkpt lat="35.88003201080579" lon="115.09678144505432">
        <ele>29.914325714111328</ele>
        <time>2021-09-23T09:46:25Z</time>
      </trkpt>
      <trkpt lat="35.87974183218627" lon="115.09675244972169">
        <ele>30.119644165039062</ele>
        <time>2021-09-23T09:46:46Z</time>
      </trkpt>
      <trkpt lat="35.879471719648265" lon="115.09671260103467">
        <ele>30.489002227783203</ele>
        <time>2021-09-23T09:47:07Z</time>
      </trkpt>
      <trkpt lat="35.87931388458452" lon="115.09669851172804">
        <ele>30.09611701965332</ele>
        <time>2021-09-23T09:47:16Z</time>
      </trkpt>
      <trkpt lat="35.879306844431966" lon="115.09675548135188">
        <ele>30.374141693115234</ele>
        <time>2021-09-23T09:47:22Z</time>
      </trkpt>
      <trkpt lat="35.879234984919975" lon="115.09678560138371">
        <ele>30.2238712310791</ele>
        <time>2021-09-23T09:47:31Z</time>
      </trkpt>
      <trkpt lat="35.87895891115563" lon="115.09677152494558">
        <ele>31.283462524414062</ele>
        <time>2021-09-23T09:47:52Z</time>
      </trkpt>
      <trkpt lat="35.87865083486127" lon="115.09674578694903">
        <ele>31.868513107299805</ele>
        <time>2021-09-23T09:48:13Z</time>
      </trkpt>
      <trkpt lat="35.87834682563027" lon="115.09671543678041">
        <ele>28.80596351623535</ele>
        <time>2021-09-23T09:48:34Z</time>
      </trkpt>
      <trkpt lat="35.878044993421184" lon="115.09672442201327">
        <ele>28.37211799621582</ele>
        <time>2021-09-23T09:48:58Z</time>
      </trkpt>
      <trkpt lat="35.877991063024275" lon="115.09691242603118">
        <ele>29.88338851928711</ele>
        <time>2021-09-23T09:49:10Z</time>
      </trkpt>
      <trkpt lat="35.87785276376635" lon="115.09694960694058">
        <ele>28.891979217529297</ele>
        <time>2021-09-23T09:49:19Z</time>
      </trkpt>
      <trkpt lat="35.87777981241202" lon="115.09694256154536">
        <ele>28.869590759277344</ele>
        <time>2021-09-23T09:49:25Z</time>
      </trkpt>
      <trkpt lat="35.87750885328783" lon="115.09673153389485">
        <ele>30.27930450439453</ele>
        <time>2021-09-23T09:49:49Z</time>
      </trkpt>
      <trkpt lat="35.877364854006366" lon="115.09674348597017">
        <ele>31.190654754638672</ele>
        <time>2021-09-23T09:50:01Z</time>
      </trkpt>
      <trkpt lat="35.877178030823" lon="115.09687968968313">
        <ele>31.64599609375</ele>
        <time>2021-09-23T09:50:16Z</time>
      </trkpt>
      <trkpt lat="35.87696709786641" lon="115.09713960308852">
        <ele>31.758831024169922</ele>
        <time>2021-09-23T09:50:34Z</time>
      </trkpt>
      <trkpt lat="35.876918020495275" lon="115.09717758855062">
        <ele>30.854936599731445</ele>
        <time>2021-09-23T09:50:40Z</time>
      </trkpt>
      <trkpt lat="35.87686975005308" lon="115.09718356213399">
        <ele>30.905054092407227</ele>
        <time>2021-09-23T09:50:43Z</time>
      </trkpt>
      <trkpt lat="35.876824739967475" lon="115.09721856307905">
        <ele>31.071664810180664</ele>
        <time>2021-09-23T09:50:46Z</time>
      </trkpt>
      <trkpt lat="35.8767577537212" lon="115.09720663376338">
        <ele>31.920185089111328</ele>
        <time>2021-09-23T09:50:52Z</time>
      </trkpt>
      <trkpt lat="35.876700795206254" lon="115.09716459053354">
        <ele>31.29334831237793</ele>
        <time>2021-09-23T09:50:58Z</time>
      </trkpt>
      <trkpt lat="35.876608837005975" lon="115.09704252204821">
        <ele>31.54559326171875</ele>
        <time>2021-09-23T09:51:10Z</time>
      </trkpt>
      <trkpt lat="35.876570826228054" lon="115.09681871759135">
        <ele>33.14842987060547</ele>
        <time>2021-09-23T09:51:19Z</time>
      </trkpt>
      <trkpt lat="35.876524714427504" lon="115.09676853560724">
        <ele>33.32468032836914</ele>
        <time>2021-09-23T09:51:28Z</time>
      </trkpt>
      <trkpt lat="35.87637284812903" lon="115.09676665323789">
        <ele>32.34915542602539</ele>
        <time>2021-09-23T09:51:37Z</time>
      </trkpt>
      <trkpt lat="35.87628282218064" lon="115.09681278087194">
        <ele>32.1805534362793</ele>
        <time>2021-09-23T09:51:43Z</time>
      </trkpt>
      <trkpt lat="35.876244865170044" lon="115.09686161574936">
        <ele>31.35837745666504</ele>
        <time>2021-09-23T09:51:49Z</time>
      </trkpt>
      <trkpt lat="35.87615489180729" lon="115.0971665491975">
        <ele>31.33085823059082</ele>
        <time>2021-09-23T09:52:07Z</time>
      </trkpt>
      <trkpt lat="35.876145982647635" lon="115.09735563782247">
        <ele>32.80668258666992</ele>
        <time>2021-09-23T09:52:25Z</time>
      </trkpt>
      <trkpt lat="35.87609013404225" lon="115.09743079118947">
        <ele>31.435880661010742</ele>
        <time>2021-09-23T09:52:31Z</time>
      </trkpt>
      <trkpt lat="35.8760212623451" lon="115.09747773199486">
        <ele>31.11638069152832</ele>
        <time>2021-09-23T09:52:37Z</time>
      </trkpt>
      <trkpt lat="35.87630115818639" lon="115.09760575117198">
        <ele>32.41835403442383</ele>
        <time>2021-09-23T09:52:52Z</time>
      </trkpt>
      <trkpt lat="35.87638116694314" lon="115.09764073922977">
        <ele>32.46733093261719</ele>
        <time>2021-09-23T09:52:55Z</time>
      </trkpt>
      <trkpt lat="35.876589985149856" lon="115.09765183943713">
        <ele>31.171825408935547</ele>
        <time>2021-09-23T09:53:01Z</time>
      </trkpt>
      <trkpt lat="35.876859252524966" lon="115.09754790490523">
        <ele>31.298181533813477</ele>
        <time>2021-09-23T09:53:13Z</time>
      </trkpt>
      <trkpt lat="35.87694007094298" lon="115.0975658013509">
        <ele>33.67021942138672</ele>
        <time>2021-09-23T09:53:16Z</time>
      </trkpt>
      <trkpt lat="35.877008148760275" lon="115.09760703037267">
        <ele>34.009944915771484</ele>
        <time>2021-09-23T09:53:19Z</time>
      </trkpt>
      <trkpt lat="35.87704315132857" lon="115.09769085620815">
        <ele>34.732810974121094</ele>
        <time>2021-09-23T09:53:25Z</time>
      </trkpt>
      <trkpt lat="35.877226228764684" lon="115.09779691244741">
        <ele>33.86851119995117</ele>
        <time>2021-09-23T09:53:40Z</time>
      </trkpt>
      <trkpt lat="35.87740603412152" lon="115.09782592143783">
        <ele>34.574798583984375</ele>
        <time>2021-09-23T09:53:52Z</time>
      </trkpt>
      <trkpt lat="35.877583134739446" lon="115.09788477338716">
        <ele>32.076011657714844</ele>
        <time>2021-09-23T09:54:04Z</time>
      </trkpt>
      <trkpt lat="35.87783019958629" lon="115.09793195207861">
        <ele>30.175800323486328</ele>
        <time>2021-09-23T09:54:13Z</time>
      </trkpt>
      <trkpt lat="35.87787712228965" lon="115.09796070449872">
        <ele>30.87926483154297</ele>
        <time>2021-09-23T09:54:16Z</time>
      </trkpt>
      <trkpt lat="35.877912118174585" lon="115.09801197603252">
        <ele>31.382789611816406</ele>
        <time>2021-09-23T09:54:19Z</time>
      </trkpt>
      <trkpt lat="35.87823809893762" lon="115.09805697601917">
        <ele>30.398338317871094</ele>
        <time>2021-09-23T09:54:31Z</time>
      </trkpt>
      <trkpt lat="35.878528009431356" lon="115.09809302716116">
        <ele>30.24863052368164</ele>
        <time>2021-09-23T09:54:43Z</time>
      </trkpt>
      <trkpt lat="35.87879622933023" lon="115.09814698656425">
        <ele>29.464397430419922</ele>
        <time>2021-09-23T09:54:55Z</time>
      </trkpt>
      <trkpt lat="35.87911624559852" lon="115.09819687094001">
        <ele>29.402515411376953</ele>
        <time>2021-09-23T09:55:10Z</time>
      </trkpt>
      <trkpt lat="35.87938311195928" lon="115.09825896984334">
        <ele>29.715848922729492</ele>
        <time>2021-09-23T09:55:22Z</time>
      </trkpt>
      <trkpt lat="35.87952413593239" lon="115.09827984469977">
        <ele>29.57312774658203</ele>
        <time>2021-09-23T09:55:28Z</time>
      </trkpt>
      <trkpt lat="35.87979832701706" lon="115.09835089608005">
        <ele>28.750656127929688</ele>
        <time>2021-09-23T09:55:40Z</time>
      </trkpt>
      <trkpt lat="35.88012728811588" lon="115.09838124612533">
        <ele>27.83072280883789</ele>
        <time>2021-09-23T09:55:55Z</time>
      </trkpt>
      <trkpt lat="35.88045924277589" lon="115.09845120634824">
        <ele>29.933225631713867</ele>
        <time>2021-09-23T09:56:10Z</time>
      </trkpt>
      <trkpt lat="35.880764341149145" lon="115.09848807048603">
        <ele>29.08377456665039</ele>
        <time>2021-09-23T09:56:22Z</time>
      </trkpt>
      <trkpt lat="35.88106021630168" lon="115.09851408347257">
        <ele>27.553279876708984</ele>
        <time>2021-09-23T09:56:34Z</time>
      </trkpt>
      <trkpt lat="35.88120232411761" lon="115.0985300749808">
        <ele>26.47365951538086</ele>
        <time>2021-09-23T09:56:40Z</time>
      </trkpt>
      <trkpt lat="35.88137210589523" lon="115.09859299949417">
        <ele>29.00379180908203</ele>
        <time>2021-09-23T09:56:46Z</time>
      </trkpt>
      <trkpt lat="35.881616454868734" lon="115.09861793302595">
        <ele>26.54789924621582</ele>
        <time>2021-09-23T09:56:55Z</time>
      </trkpt>
      <trkpt lat="35.88167829817092" lon="115.09866214938073">
        <ele>28.49599266052246</ele>
        <time>2021-09-23T09:56:58Z</time>
      </trkpt>
      <trkpt lat="35.88165149734385" lon="115.09883307696174">
        <ele>28.840391159057617</ele>
        <time>2021-09-23T09:57:04Z</time>
      </trkpt>
      <trkpt lat="35.881697608601435" lon="115.09886508654894">
        <ele>29.195274353027344</ele>
        <time>2021-09-23T09:57:10Z</time>
      </trkpt>
      <trkpt lat="35.882022515545984" lon="115.09894020422486">
        <ele>30.054109573364258</ele>
        <time>2021-09-23T09:57:25Z</time>
      </trkpt>
      <trkpt lat="35.88219825872773" lon="115.09898223837209">
        <ele>32.17710494995117</ele>
        <time>2021-09-23T09:57:34Z</time>
      </trkpt>
      <trkpt lat="35.88252044621531" lon="115.09902941154847">
        <ele>34.897212982177734</ele>
        <time>2021-09-23T09:57:52Z</time>
      </trkpt>
      <trkpt lat="35.88257550438627" lon="115.09905219583092">
        <ele>35.17142868041992</ele>
        <time>2021-09-23T09:57:55Z</time>
      </trkpt>
      <trkpt lat="35.88270052889154" lon="115.09907225935655">
        <ele>34.9903678894043</ele>
        <time>2021-09-23T09:58:01Z</time>
      </trkpt>
      <trkpt lat="35.88277457428449" lon="115.09910833599835">
        <ele>34.3848991394043</ele>
        <time>2021-09-23T09:58:04Z</time>
      </trkpt>
      <trkpt lat="35.88306854893693" lon="115.09912322614225">
        <ele>33.6656608581543</ele>
        <time>2021-09-23T09:58:16Z</time>
      </trkpt>
      <trkpt lat="35.883393449585405" lon="115.09917311251604">
        <ele>34.84642791748047</ele>
        <time>2021-09-23T09:58:34Z</time>
      </trkpt>
      <trkpt lat="35.88351846575102" lon="115.099164145458">
        <ele>35.1475715637207</ele>
        <time>2021-09-23T09:58:40Z</time>
      </trkpt>
      <trkpt lat="35.88381760540252" lon="115.09922054632756">
        <ele>35.7417106628418</ele>
        <time>2021-09-23T09:58:55Z</time>
      </trkpt>
      <trkpt lat="35.884047603465156" lon="115.09931656715992">
        <ele>35.1670036315918</ele>
        <time>2021-09-23T09:59:07Z</time>
      </trkpt>
      <trkpt lat="35.884102382736955" lon="115.0993124914172">
        <ele>35.46862030029297</ele>
        <time>2021-09-23T09:59:10Z</time>
      </trkpt>
      <trkpt lat="35.884167475042" lon="115.09933446098545">
        <ele>35.334075927734375</ele>
        <time>2021-09-23T09:59:16Z</time>
      </trkpt>
      <trkpt lat="35.88421250621084" lon="115.0993794947772">
        <ele>34.75968551635742</ele>
        <time>2021-09-23T09:59:22Z</time>
      </trkpt>
      <trkpt lat="35.884176545018306" lon="115.09972651738403">
        <ele>35.893882751464844</ele>
        <time>2021-09-23T09:59:46Z</time>
      </trkpt>
      <trkpt lat="35.88413572002161" lon="115.10011153264446">
        <ele>36.758872985839844</ele>
        <time>2021-09-23T10:00:04Z</time>
      </trkpt>
      <trkpt lat="35.884103833919994" lon="115.10044879992495">
        <ele>37.420719146728516</ele>
        <time>2021-09-23T10:00:22Z</time>
      </trkpt>
      <trkpt lat="35.884042851202835" lon="115.10054974266922">
        <ele>32.89748764038086</ele>
        <time>2021-09-23T10:00:34Z</time>
      </trkpt>
      <trkpt lat="35.88402202828594" lon="115.10071580221157">
        <ele>32.3615837097168</ele>
        <time>2021-09-23T10:00:46Z</time>
      </trkpt>
      <trkpt lat="35.88402696704614" lon="115.10087480554245">
        <ele>32.71000671386719</ele>
        <time>2021-09-23T10:00:55Z</time>
      </trkpt>
      <trkpt lat="35.88399310926646" lon="115.10098687247645">
        <ele>33.6703987121582</ele>
        <time>2021-09-23T10:01:04Z</time>
      </trkpt>
      <trkpt lat="35.88398094310045" lon="115.1010878126679">
        <ele>34.54266357421875</ele>
        <time>2021-09-23T10:01:10Z</time>
      </trkpt>
      <trkpt lat="35.88402195007932" lon="115.10124003148562">
        <ele>35.32111740112305</ele>
        <time>2021-09-23T10:01:16Z</time>
      </trkpt>
      <trkpt lat="35.88409816790921" lon="115.10127502654016">
        <ele>35.92060470581055</ele>
        <time>2021-09-23T10:01:22Z</time>
      </trkpt>
      <trkpt lat="35.884124225088335" lon="115.10133499087857">
        <ele>35.11482620239258</ele>
        <time>2021-09-23T10:01:28Z</time>
      </trkpt>
      <trkpt lat="35.88417602321" lon="115.10133688463246">
        <ele>33.11283493041992</ele>
        <time>2021-09-23T10:01:34Z</time>
      </trkpt>
      <trkpt lat="35.88422106471957" lon="115.10139901785311">
        <ele>31.887380599975586</ele>
        <time>2021-09-23T10:01:40Z</time>
      </trkpt>
      <trkpt lat="35.884223317732825" lon="115.1016131107993">
        <ele>32.840946197509766</ele>
        <time>2021-09-23T10:01:52Z</time>
      </trkpt>
      <trkpt lat="35.88416805602476" lon="115.10176697232474">
        <ele>32.480350494384766</ele>
        <time>2021-09-23T10:02:04Z</time>
      </trkpt>
      <trkpt lat="35.88412129661338" lon="115.10215012895029">
        <ele>29.94513702392578</ele>
        <time>2021-09-23T10:02:22Z</time>
      </trkpt>
      <trkpt lat="35.88409937037441" lon="115.10224619174701">
        <ele>29.022235870361328</ele>
        <time>2021-09-23T10:02:25Z</time>
      </trkpt>
      <trkpt lat="35.88411626094998" lon="115.1024271863307">
        <ele>28.298681259155273</ele>
        <time>2021-09-23T10:02:31Z</time>
      </trkpt>
      <trkpt lat="35.88408539437064" lon="115.1025414326823">
        <ele>27.678325653076172</ele>
        <time>2021-09-23T10:02:34Z</time>
      </trkpt>
      <trkpt lat="35.88406141716535" lon="115.10290234975164">
        <ele>25.369903564453125</ele>
        <time>2021-09-23T10:02:43Z</time>
      </trkpt>
      <trkpt lat="35.88404629905219" lon="115.10305458871537">
        <ele>27.77428436279297</ele>
        <time>2021-09-23T10:02:46Z</time>
      </trkpt>
      <trkpt lat="35.884066442517316" lon="115.10321957942571">
        <ele>30.71600341796875</ele>
        <time>2021-09-23T10:02:49Z</time>
      </trkpt>
      <trkpt lat="35.8840494242411" lon="115.10336367983295">
        <ele>30.470420837402344</ele>
        <time>2021-09-23T10:02:55Z</time>
      </trkpt>
      <trkpt lat="35.884017451270914" lon="115.10342257135787">
        <ele>30.369104385375977</ele>
        <time>2021-09-23T10:02:58Z</time>
      </trkpt>
      <trkpt lat="35.88400152847672" lon="115.10358675492957">
        <ele>28.926841735839844</ele>
        <time>2021-09-23T10:03:10Z</time>
      </trkpt>
      <trkpt lat="35.88395059139254" lon="115.10368472748925">
        <ele>27.7352294921875</ele>
        <time>2021-09-23T10:03:16Z</time>
      </trkpt>
      <trkpt lat="35.883882703595134" lon="115.10405679674865">
        <ele>26.750123977661133</ele>
        <time>2021-09-23T10:03:25Z</time>
      </trkpt>
      <trkpt lat="35.88383189327958" lon="115.10440308925318">
        <ele>25.799907684326172</ele>
        <time>2021-09-23T10:03:37Z</time>
      </trkpt>
      <trkpt lat="35.88378896521647" lon="115.10477408352175">
        <ele>23.484519958496094</ele>
        <time>2021-09-23T10:03:52Z</time>
      </trkpt>
      <trkpt lat="35.88375197189113" lon="115.10507614922072">
        <ele>24.211545944213867</ele>
        <time>2021-09-23T10:04:04Z</time>
      </trkpt>
      <trkpt lat="35.88374321011357" lon="115.10542218321933">
        <ele>23.979534149169922</ele>
        <time>2021-09-23T10:04:19Z</time>
      </trkpt>
      <trkpt lat="35.8836650499051" lon="115.10580649889437">
        <ele>23.08161735534668</ele>
        <time>2021-09-23T10:04:37Z</time>
      </trkpt>
      <trkpt lat="35.883654105481305" lon="115.10611237683582">
        <ele>27.62718963623047</ele>
        <time>2021-09-23T10:04:49Z</time>
      </trkpt>
      <trkpt lat="35.883626248104086" lon="115.10624238566874">
        <ele>27.883628845214844</ele>
        <time>2021-09-23T10:04:55Z</time>
      </trkpt>
      <trkpt lat="35.88360132782072" lon="115.10629259961719">
        <ele>27.83026695251465</ele>
        <time>2021-09-23T10:04:58Z</time>
      </trkpt>
      <trkpt lat="35.88358221390121" lon="115.10653171738883">
        <ele>27.026533126831055</ele>
        <time>2021-09-23T10:05:07Z</time>
      </trkpt>
      <trkpt lat="35.883519507001225" lon="115.10688076756787">
        <ele>27.1050968170166</ele>
        <time>2021-09-23T10:05:22Z</time>
      </trkpt>
      <trkpt lat="35.88347553067086" lon="115.10725180702566">
        <ele>26.457599639892578</ele>
        <time>2021-09-23T10:05:40Z</time>
      </trkpt>
      <trkpt lat="35.88342477755271" lon="115.10761905386124">
        <ele>24.05201530456543</ele>
        <time>2021-09-23T10:05:58Z</time>
      </trkpt>
      <trkpt lat="35.88339643426813" lon="115.10782507320991">
        <ele>22.997282028198242</ele>
        <time>2021-09-23T10:06:10Z</time>
      </trkpt>
      <trkpt lat="35.883365545661654" lon="115.10786714866632">
        <ele>21.764516830444336</ele>
        <time>2021-09-23T10:06:13Z</time>
      </trkpt>
      <trkpt lat="35.88324353364321" lon="115.10790380549435">
        <ele>21.515825271606445</ele>
        <time>2021-09-23T10:06:22Z</time>
      </trkpt>
      <trkpt lat="35.88296255659613" lon="115.10786692127176">
        <ele>22.810129165649414</ele>
        <time>2021-09-23T10:06:40Z</time>
      </trkpt>
      <trkpt lat="35.8828445713134" lon="115.10783979087773">
        <ele>23.08413314819336</ele>
        <time>2021-09-23T10:06:46Z</time>
      </trkpt>
      <trkpt lat="35.882991567487025" lon="115.10785687508107">
        <ele>25.22251319885254</ele>
        <time>2021-09-23T10:06:58Z</time>
      </trkpt>
      <trkpt lat="35.883029553572484" lon="115.1078870000058">
        <ele>26.069374084472656</ele>
        <time>2021-09-23T10:07:01Z</time>
      </trkpt>
      <trkpt lat="35.88311958351341" lon="115.10787884716963">
        <ele>26.77150535583496</ele>
        <time>2021-09-23T10:07:07Z</time>
      </trkpt>
      <trkpt lat="35.88316275581794" lon="115.10796081544129">
        <ele>27.235326766967773</ele>
        <time>2021-09-23T10:07:13Z</time>
      </trkpt>
      <trkpt lat="35.88314382915118" lon="115.10804794809361">
        <ele>27.730419158935547</ele>
        <time>2021-09-23T10:07:19Z</time>
      </trkpt>
      <trkpt lat="35.88284386276815" lon="115.10800210833978">
        <ele>26.673521041870117</ele>
        <time>2021-09-23T10:07:40Z</time>
      </trkpt>
      <trkpt lat="35.882724540976135" lon="115.10800510716203">
        <ele>27.868518829345703</ele>
        <time>2021-09-23T10:07:49Z</time>
      </trkpt>
      <trkpt lat="35.88252243858002" lon="115.10790388429425">
        <ele>29.43948745727539</ele>
        <time>2021-09-23T10:08:04Z</time>
      </trkpt>
      <trkpt lat="35.882336672037" lon="115.10790200455946">
        <ele>28.31427764892578</ele>
        <time>2021-09-23T10:08:19Z</time>
      </trkpt>
      <trkpt lat="35.88223250468814" lon="115.10785505799898">
        <ele>27.467321395874023</ele>
        <time>2021-09-23T10:08:25Z</time>
      </trkpt>
      <trkpt lat="35.88242560823289" lon="115.10788000873856">
        <ele>28.411388397216797</ele>
        <time>2021-09-23T10:08:40Z</time>
      </trkpt>
      <trkpt lat="35.882490438831816" lon="115.10790497352521">
        <ele>28.1751766204834</ele>
        <time>2021-09-23T10:08:43Z</time>
      </trkpt>
      <trkpt lat="35.882567493774815" lon="115.10796196622725">
        <ele>28.56316566467285</ele>
        <time>2021-09-23T10:08:49Z</time>
      </trkpt>
      <trkpt lat="35.88269441011994" lon="115.10796086662114">
        <ele>29.837635040283203</ele>
        <time>2021-09-23T10:08:58Z</time>
      </trkpt>
      <trkpt lat="35.88284984255279" lon="115.10802300817721">
        <ele>30.85767364501953</ele>
        <time>2021-09-23T10:09:10Z</time>
      </trkpt>
      <trkpt lat="35.88290787268795" lon="115.10801594452488">
        <ele>30.6002140045166</ele>
        <time>2021-09-23T10:09:16Z</time>
      </trkpt>
      <trkpt lat="35.88296782537448" lon="115.10804606727918">
        <ele>30.908432006835938</ele>
        <time>2021-09-23T10:09:19Z</time>
      </trkpt>
      <trkpt lat="35.88325586942338" lon="115.10810710885296">
        <ele>30.107276916503906</ele>
        <time>2021-09-23T10:09:40Z</time>
      </trkpt>
      <trkpt lat="35.88330388576148" lon="115.10813099000316">
        <ele>29.580190658569336</ele>
        <time>2021-09-23T10:09:43Z</time>
      </trkpt>
      <trkpt lat="35.883399698261755" lon="115.10825611212914">
        <ele>28.98427963256836</ele>
        <time>2021-09-23T10:09:55Z</time>
      </trkpt>
      <trkpt lat="35.883518754082395" lon="115.10826098500556">
        <ele>28.852066040039062</ele>
        <time>2021-09-23T10:10:04Z</time>
      </trkpt>
      <trkpt lat="35.88364190630815" lon="115.10830901616042">
        <ele>27.134071350097656</ele>
        <time>2021-09-23T10:10:13Z</time>
      </trkpt>
      <trkpt lat="35.88367068182749" lon="115.10835325758742">
        <ele>26.73813819885254</ele>
        <time>2021-09-23T10:10:16Z</time>
      </trkpt>
      <trkpt lat="35.883690903551994" lon="115.10858316579103">
        <ele>26.687694549560547</ele>
        <time>2021-09-23T10:10:28Z</time>
      </trkpt>
      <trkpt lat="35.88364200449511" lon="115.10885814403946">
        <ele>27.405441284179688</ele>
        <time>2021-09-23T10:10:52Z</time>
      </trkpt>
      <trkpt lat="35.88364584017053" lon="115.10891514733783">
        <ele>27.710304260253906</ele>
        <time>2021-09-23T10:11:01Z</time>
      </trkpt>
      <trkpt lat="35.88364289620942" lon="115.10897215153135">
        <ele>29.090349197387695</ele>
        <time>2021-09-23T10:11:37Z</time>
      </trkpt>
      <trkpt lat="35.88361013191351" lon="115.10904436023728">
        <ele>27.5012264251709</ele>
        <time>2021-09-23T10:11:46Z</time>
      </trkpt>
      <trkpt lat="35.88359187331039" lon="115.10930658292425">
        <ele>30.85918617248535</ele>
        <time>2021-09-23T10:12:04Z</time>
      </trkpt>
      <trkpt lat="35.883561043251376" lon="115.10942846844654">
        <ele>30.20762825012207</ele>
        <time>2021-09-23T10:12:16Z</time>
      </trkpt>
      <trkpt lat="35.88353391161641" lon="115.10979167895482">
        <ele>25.604705810546875</ele>
        <time>2021-09-23T10:12:46Z</time>
      </trkpt>
      <trkpt lat="35.88348320655647" lon="115.11017552940227">
        <ele>24.216148376464844</ele>
        <time>2021-09-23T10:13:07Z</time>
      </trkpt>
      <trkpt lat="35.88345104763499" lon="115.11032863846819">
        <ele>25.261804580688477</ele>
        <time>2021-09-23T10:13:16Z</time>
      </trkpt>
      <trkpt lat="35.88344732359513" lon="115.11042663786202">
        <ele>25.255395889282227</ele>
        <time>2021-09-23T10:13:22Z</time>
      </trkpt>
      <trkpt lat="35.883378165026585" lon="115.11078172583053">
        <ele>25.108234405517578</ele>
        <time>2021-09-23T10:13:43Z</time>
      </trkpt>
      <trkpt lat="35.88333453342202" lon="115.11117618076865">
        <ele>26.2213191986084</ele>
        <time>2021-09-23T10:14:07Z</time>
      </trkpt>
      <trkpt lat="35.88327349927221" lon="115.11150413221985">
        <ele>26.817913055419922</ele>
        <time>2021-09-23T10:14:28Z</time>
      </trkpt>
      <trkpt lat="35.88321466805153" lon="115.11186901018804">
        <ele>27.51238250732422</ele>
        <time>2021-09-23T10:14:52Z</time>
      </trkpt>
      <trkpt lat="35.883178599555755" lon="115.11220647144275">
        <ele>27.40224838256836</ele>
        <time>2021-09-23T10:15:13Z</time>
      </trkpt>
      <trkpt lat="35.88317764689853" lon="115.11236909362343">
        <ele>28.984907150268555</ele>
        <time>2021-09-23T10:15:25Z</time>
      </trkpt>
      <trkpt lat="35.883225738578886" lon="115.11248039966807">
        <ele>29.035770416259766</ele>
        <time>2021-09-23T10:15:31Z</time>
      </trkpt>
      <trkpt lat="35.88348371778764" lon="115.11257430780063">
        <ele>30.427278518676758</ele>
        <time>2021-09-23T10:15:52Z</time>
      </trkpt>
      <trkpt lat="35.88360874484643" lon="115.11258433937886">
        <ele>30.83793067932129</ele>
        <time>2021-09-23T10:16:01Z</time>
      </trkpt>
    </trkseg>
  </trk>
</gpx>