<?xml version="1.0" encoding="UTF-8"?>
<gpx xmlns="http://www.topografix.com/GPX/1/1" xmlns:gpxtpx="http://www.garmin.com/xmlschemas/TrackPointExtension/v1" xmlns:xsi="http://www.w3.org/2001/XMLSchema-instance" xsi:schemaLocation="http://www.topografix.com/GPX/1/1 http://www.topografix.com/GPX/1/1/gpx.xsd" version="1.1" creator="gpx.py -- https://github.com/tkrajina/gpxpy">
  <trk>
    <name>gpx from keep</name>
    <type>Run</type>
    <trkseg>
      <trkpt lat="34.81081599337358" lon="113.52637630416554">
        <ele>80.53219604492188</ele>
        <time>2021-11-27T12:58:12Z</time>
      </trkpt>
      <trkpt lat="34.81092815792398" lon="113.52615634883672">
        <ele>90.7291030883789</ele>
        <time>2021-11-27T12:58:18Z</time>
      </trkpt>
      <trkpt lat="34.810958248960475" lon="113.52595028350292">
        <ele>89.6003646850586</ele>
        <time>2021-11-27T12:58:24Z</time>
      </trkpt>
      <trkpt lat="34.81094507776088" lon="113.52578151446443">
        <ele>83.27259826660156</ele>
        <time>2021-11-27T12:58:27Z</time>
      </trkpt>
      <trkpt lat="34.81087294180902" lon="113.52565548817363">
        <ele>83.9714126586914</ele>
        <time>2021-11-27T12:58:30Z</time>
      </trkpt>
      <trkpt lat="34.81076407552817" lon="113.52557737477811">
        <ele>84.37455749511719</ele>
        <time>2021-11-27T12:58:33Z</time>
      </trkpt>
      <trkpt lat="34.810651261178656" lon="113.52554444899441">
        <ele>85.59140014648438</ele>
        <time>2021-11-27T12:58:36Z</time>
      </trkpt>
      <trkpt lat="34.810355315991956" lon="113.52553250299765">
        <ele>83.79930114746094</ele>
        <time>2021-11-27T12:58:45Z</time>
      </trkpt>
      <trkpt lat="34.81017102661967" lon="113.5255246283563">
        <ele>81.88509368896484</ele>
        <time>2021-11-27T12:58:51Z</time>
      </trkpt>
      <trkpt lat="34.81000614596653" lon="113.52547728073652">
        <ele>84.24923706054688</ele>
        <time>2021-11-27T12:58:57Z</time>
      </trkpt>
      <trkpt lat="34.80973090172002" lon="113.52550643673396">
        <ele>85.07875061035156</ele>
        <time>2021-11-27T12:59:06Z</time>
      </trkpt>
      <trkpt lat="34.80967716453511" lon="113.52557939548143">
        <ele>84.71051025390625</ele>
        <time>2021-11-27T12:59:09Z</time>
      </trkpt>
      <trkpt lat="34.80959928433952" lon="113.52564255700175">
        <ele>84.05853271484375</ele>
        <time>2021-11-27T12:59:12Z</time>
      </trkpt>
      <trkpt lat="34.80955609419652" lon="113.52570734800058">
        <ele>84.18111419677734</ele>
        <time>2021-11-27T12:59:15Z</time>
      </trkpt>
      <trkpt lat="34.80953094122018" lon="113.52583120672526">
        <ele>84.10810089111328</ele>
        <time>2021-11-27T12:59:18Z</time>
      </trkpt>
      <trkpt lat="34.80953928705692" lon="113.52602039171789">
        <ele>83.21876525878906</ele>
        <time>2021-11-27T12:59:24Z</time>
      </trkpt>
      <trkpt lat="34.809579014380006" lon="113.52618942897989">
        <ele>82.26201629638672</ele>
        <time>2021-11-27T12:59:30Z</time>
      </trkpt>
      <trkpt lat="34.80970508707517" lon="113.52632034733496">
        <ele>79.41582489013672</ele>
        <time>2021-11-27T12:59:36Z</time>
      </trkpt>
      <trkpt lat="34.809762086565044" lon="113.52635654477898">
        <ele>81.0164566040039</ele>
        <time>2021-11-27T12:59:39Z</time>
      </trkpt>
      <trkpt lat="34.809914974513994" lon="113.52637721626591">
        <ele>81.57611083984375</ele>
        <time>2021-11-27T12:59:45Z</time>
      </trkpt>
      <trkpt lat="34.81020707760456" lon="113.52637038015271">
        <ele>82.1720199584961</ele>
        <time>2021-11-27T12:59:57Z</time>
      </trkpt>
      <trkpt lat="34.81048623135302" lon="113.52638613853838">
        <ele>82.4575424194336</ele>
        <time>2021-11-27T13:00:09Z</time>
      </trkpt>
      <trkpt lat="34.81062793628754" lon="113.52637850174511">
        <ele>82.54900360107422</ele>
        <time>2021-11-27T13:00:15Z</time>
      </trkpt>
      <trkpt lat="34.810798182507824" lon="113.52629954377397">
        <ele>82.33633422851562</ele>
        <time>2021-11-27T13:00:24Z</time>
      </trkpt>
      <trkpt lat="34.81087401505788" lon="113.52617731459212">
        <ele>82.09391021728516</ele>
        <time>2021-11-27T13:00:30Z</time>
      </trkpt>
      <trkpt lat="34.81092509386305" lon="113.52601861158908">
        <ele>81.8404541015625</ele>
        <time>2021-11-27T13:00:36Z</time>
      </trkpt>
      <trkpt lat="34.81092794606788" lon="113.52586345170627">
        <ele>82.11166381835938</ele>
        <time>2021-11-27T13:00:42Z</time>
      </trkpt>
      <trkpt lat="34.81090714286056" lon="113.52578260732955">
        <ele>81.75690460205078</ele>
        <time>2021-11-27T13:00:45Z</time>
      </trkpt>
      <trkpt lat="34.81081111886914" lon="113.52564052306289">
        <ele>82.59564208984375</ele>
        <time>2021-11-27T13:00:51Z</time>
      </trkpt>
      <trkpt lat="34.81070523407841" lon="113.52556268153096">
        <ele>82.91719055175781</ele>
        <time>2021-11-27T13:00:57Z</time>
      </trkpt>
      <trkpt lat="34.81049596710679" lon="113.52553657128217">
        <ele>82.82235717773438</ele>
        <time>2021-11-27T13:01:06Z</time>
      </trkpt>
      <trkpt lat="34.81030004093693" lon="113.5255346865607">
        <ele>78.2264175415039</ele>
        <time>2021-11-27T13:01:15Z</time>
      </trkpt>
      <trkpt lat="34.81006405980693" lon="113.5255524054126">
        <ele>80.34119415283203</ele>
        <time>2021-11-27T13:01:24Z</time>
      </trkpt>
      <trkpt lat="34.80990407096244" lon="113.52551050157463">
        <ele>83.53937530517578</ele>
        <time>2021-11-27T13:01:30Z</time>
      </trkpt>
      <trkpt lat="34.80974395329424" lon="113.52552358477539">
        <ele>85.43221282958984</ele>
        <time>2021-11-27T13:01:36Z</time>
      </trkpt>
      <trkpt lat="34.809555239785674" lon="113.52569128760302">
        <ele>85.56810760498047</ele>
        <time>2021-11-27T13:01:45Z</time>
      </trkpt>
      <trkpt lat="34.80949786553144" lon="113.52593029476098">
        <ele>85.70549774169922</ele>
        <time>2021-11-27T13:01:51Z</time>
      </trkpt>
      <trkpt lat="34.80950602817832" lon="113.52604843277422">
        <ele>85.4062271118164</ele>
        <time>2021-11-27T13:01:54Z</time>
      </trkpt>
      <trkpt lat="34.80959315938723" lon="113.52621038747702">
        <ele>84.25674438476562</ele>
        <time>2021-11-27T13:02:00Z</time>
      </trkpt>
      <trkpt lat="34.8097919450553" lon="113.52637614047772">
        <ele>83.03828430175781</ele>
        <time>2021-11-27T13:02:09Z</time>
      </trkpt>
      <trkpt lat="34.810083002629966" lon="113.52638427582441">
        <ele>83.00924682617188</ele>
        <time>2021-11-27T13:02:21Z</time>
      </trkpt>
      <trkpt lat="34.81040384252708" lon="113.52638233638108">
        <ele>82.97957611083984</ele>
        <time>2021-11-27T13:02:33Z</time>
      </trkpt>
      <trkpt lat="34.810498144864624" lon="113.5263823263878">
        <ele>82.68152618408203</ele>
        <time>2021-11-27T13:02:36Z</time>
      </trkpt>
      <trkpt lat="34.81056405811668" lon="113.5264073623742">
        <ele>82.19979858398438</ele>
        <time>2021-11-27T13:02:39Z</time>
      </trkpt>
      <trkpt lat="34.810751964431056" lon="113.52634636823834">
        <ele>82.66545104980469</ele>
        <time>2021-11-27T13:02:48Z</time>
      </trkpt>
      <trkpt lat="34.81085303286222" lon="113.52623747471658">
        <ele>83.00347900390625</ele>
        <time>2021-11-27T13:02:54Z</time>
      </trkpt>
      <trkpt lat="34.81092394547275" lon="113.52599356845698">
        <ele>83.35612487792969</ele>
        <time>2021-11-27T13:03:03Z</time>
      </trkpt>
      <trkpt lat="34.8109291380237" lon="113.5259053719559">
        <ele>83.27983093261719</ele>
        <time>2021-11-27T13:03:06Z</time>
      </trkpt>
      <trkpt lat="34.810888101676525" lon="113.52575457160071">
        <ele>82.31913757324219</ele>
        <time>2021-11-27T13:03:12Z</time>
      </trkpt>
      <trkpt lat="34.81080597017964" lon="113.52564052360866">
        <ele>81.08934020996094</ele>
        <time>2021-11-27T13:03:18Z</time>
      </trkpt>
      <trkpt lat="34.81068030076529" lon="113.52556159532305">
        <ele>80.6251449584961</ele>
        <time>2021-11-27T13:03:24Z</time>
      </trkpt>
      <trkpt lat="34.810607085910405" lon="113.52554254818705">
        <ele>80.44562530517578</ele>
        <time>2021-11-27T13:03:27Z</time>
      </trkpt>
      <trkpt lat="34.810308977770376" lon="113.52553250790972">
        <ele>80.48165893554688</ele>
        <time>2021-11-27T13:03:39Z</time>
      </trkpt>
      <trkpt lat="34.810002992730475" lon="113.52551539092457">
        <ele>83.20713806152344</ele>
        <time>2021-11-27T13:04:00Z</time>
      </trkpt>
      <trkpt lat="34.80973093339824" lon="113.52551868632068">
        <ele>84.51246643066406</ele>
        <time>2021-11-27T13:04:21Z</time>
      </trkpt>
      <trkpt lat="34.80961527238936" lon="113.52564255530706">
        <ele>85.10810852050781</ele>
        <time>2021-11-27T13:04:33Z</time>
      </trkpt>
      <trkpt lat="34.80952317288428" lon="113.52597139574338">
        <ele>82.39903259277344</ele>
        <time>2021-11-27T13:04:54Z</time>
      </trkpt>
      <trkpt lat="34.80954221326453" lon="113.52610450393432">
        <ele>85.4207992553711</ele>
        <time>2021-11-27T13:05:03Z</time>
      </trkpt>
      <trkpt lat="34.80964181998301" lon="113.52627054016061">
        <ele>81.5634536743164</ele>
        <time>2021-11-27T13:05:15Z</time>
      </trkpt>
      <trkpt lat="34.809682019917794" lon="113.52630728385093">
        <ele>81.49401092529297</ele>
        <time>2021-11-27T13:05:21Z</time>
      </trkpt>
      <trkpt lat="34.80982980110875" lon="113.52634428830842">
        <ele>82.43302917480469</ele>
        <time>2021-11-27T13:05:33Z</time>
      </trkpt>
      <trkpt lat="34.810098952280924" lon="113.52636930278511">
        <ele>83.85376739501953</ele>
        <time>2021-11-27T13:05:54Z</time>
      </trkpt>
      <trkpt lat="34.8102228867967" lon="113.52640630970343">
        <ele>84.14292907714844</ele>
        <time>2021-11-27T13:05:57Z</time>
      </trkpt>
      <trkpt lat="34.81053101624751" lon="113.52641444323378">
        <ele>84.45989990234375</ele>
        <time>2021-11-27T13:06:06Z</time>
      </trkpt>
      <trkpt lat="34.810654014236285" lon="113.52640326974961">
        <ele>84.2099380493164</ele>
        <time>2021-11-27T13:06:09Z</time>
      </trkpt>
      <trkpt lat="34.810747943663166" lon="113.52636351767568">
        <ele>84.0241470336914</ele>
        <time>2021-11-27T13:06:12Z</time>
      </trkpt>
      <trkpt lat="34.8108141600646" lon="113.526295458976">
        <ele>84.16651916503906</ele>
        <time>2021-11-27T13:06:15Z</time>
      </trkpt>
      <trkpt lat="34.810877031546575" lon="113.52619119687422">
        <ele>84.49544525146484</ele>
        <time>2021-11-27T13:06:18Z</time>
      </trkpt>
      <trkpt lat="34.810955296879484" lon="113.52596144441249">
        <ele>88.86307525634766</ele>
        <time>2021-11-27T13:06:24Z</time>
      </trkpt>
      <trkpt lat="34.810970173205874" lon="113.52584548133954">
        <ele>89.29380798339844</ele>
        <time>2021-11-27T13:06:27Z</time>
      </trkpt>
      <trkpt lat="34.8109251182557" lon="113.52571264711987">
        <ele>88.46416473388672</ele>
        <time>2021-11-27T13:06:30Z</time>
      </trkpt>
      <trkpt lat="34.81084520093011" lon="113.52561656477423">
        <ele>87.88417053222656</ele>
        <time>2021-11-27T13:06:33Z</time>
      </trkpt>
      <trkpt lat="34.81077324324002" lon="113.5255596799814">
        <ele>86.45362854003906</ele>
        <time>2021-11-27T13:06:36Z</time>
      </trkpt>
      <trkpt lat="34.81044607513262" lon="113.52552459919981">
        <ele>89.1314468383789</ele>
        <time>2021-11-27T13:06:48Z</time>
      </trkpt>
      <trkpt lat="34.81017096959948" lon="113.52550257910048">
        <ele>86.18630981445312</ele>
        <time>2021-11-27T13:07:03Z</time>
      </trkpt>
      <trkpt lat="34.80983112420931" lon="113.52549036552986">
        <ele>84.1376724243164</ele>
        <time>2021-11-27T13:07:30Z</time>
      </trkpt>
      <trkpt lat="34.8096479320419" lon="113.52559246478218">
        <ele>84.10481262207031</ele>
        <time>2021-11-27T13:07:45Z</time>
      </trkpt>
    </trkseg>
  </trk>
</gpx>