<?xml version="1.0" encoding="UTF-8"?>
<gpx xmlns="http://www.topografix.com/GPX/1/1" xmlns:gpxtpx="http://www.garmin.com/xmlschemas/TrackPointExtension/v1" xmlns:xsi="http://www.w3.org/2001/XMLSchema-instance" xsi:schemaLocation="http://www.topografix.com/GPX/1/1 http://www.topografix.com/GPX/1/1/gpx.xsd" version="1.1" creator="gpx.py -- https://github.com/tkrajina/gpxpy">
  <trk>
    <name>gpx from keep</name>
    <type>Run</type>
    <trkseg>
      <trkpt lat="34.809631169278816" lon="113.52592238654591">
        <ele>87.3799057006836</ele>
        <time>2021-11-29T07:33:36Z</time>
      </trkpt>
      <trkpt lat="34.80955808635257" lon="113.52595451504764">
        <ele>86.99351501464844</ele>
        <time>2021-11-29T07:33:39Z</time>
      </trkpt>
      <trkpt lat="34.80954099070548" lon="113.52605060674028">
        <ele>86.879150390625</ele>
        <time>2021-11-29T07:33:42Z</time>
      </trkpt>
      <trkpt lat="34.80955883006025" lon="113.52613825601001">
        <ele>86.74795532226562</ele>
        <time>2021-11-29T07:33:45Z</time>
      </trkpt>
      <trkpt lat="34.80964787105857" lon="113.52630538202136">
        <ele>87.1362075805664</ele>
        <time>2021-11-29T07:33:51Z</time>
      </trkpt>
      <trkpt lat="34.80971476630484" lon="113.52639629192011">
        <ele>87.2535400390625</ele>
        <time>2021-11-29T07:33:54Z</time>
      </trkpt>
      <trkpt lat="34.80987597587607" lon="113.52638620320666">
        <ele>87.45437622070312</ele>
        <time>2021-11-29T07:33:57Z</time>
      </trkpt>
      <trkpt lat="34.809929028432585" lon="113.52646840378031">
        <ele>88.07748413085938</ele>
        <time>2021-11-29T07:34:00Z</time>
      </trkpt>
      <trkpt lat="34.810178044417704" lon="113.52646130004638">
        <ele>88.40545654296875</ele>
        <time>2021-11-29T07:34:06Z</time>
      </trkpt>
      <trkpt lat="34.810261047741456" lon="113.52649341150587">
        <ele>88.21424865722656</ele>
        <time>2021-11-29T07:34:09Z</time>
      </trkpt>
      <trkpt lat="34.81046902516531" lon="113.52643949275067">
        <ele>84.65283966064453</ele>
        <time>2021-11-29T07:34:18Z</time>
      </trkpt>
      <trkpt lat="34.810539102854314" lon="113.52650345364083">
        <ele>84.26937103271484</ele>
        <time>2021-11-29T07:34:21Z</time>
      </trkpt>
      <trkpt lat="34.81069895185951" lon="113.52649118745934">
        <ele>85.75572204589844</ele>
        <time>2021-11-29T07:34:27Z</time>
      </trkpt>
      <trkpt lat="34.81091023068175" lon="113.52624536267025">
        <ele>87.15750122070312</ele>
        <time>2021-11-29T07:34:36Z</time>
      </trkpt>
      <trkpt lat="34.81096888119769" lon="113.52608039837759">
        <ele>88.6861801147461</ele>
        <time>2021-11-29T07:34:42Z</time>
      </trkpt>
      <trkpt lat="34.81097788421825" lon="113.52589338954404">
        <ele>89.8772201538086</ele>
        <time>2021-11-29T07:34:48Z</time>
      </trkpt>
      <trkpt lat="34.81092225334042" lon="113.52575756230428">
        <ele>90.51172637939453</ele>
        <time>2021-11-29T07:34:54Z</time>
      </trkpt>
      <trkpt lat="34.810775034446856" lon="113.52562364973167">
        <ele>90.33538055419922</ele>
        <time>2021-11-29T07:35:00Z</time>
      </trkpt>
      <trkpt lat="34.8105979167977" lon="113.52555969856691">
        <ele>89.75162506103516</ele>
        <time>2021-11-29T07:35:06Z</time>
      </trkpt>
      <trkpt lat="34.81028704919986" lon="113.52554067662223">
        <ele>88.7398681640625</ele>
        <time>2021-11-29T07:35:18Z</time>
      </trkpt>
      <trkpt lat="34.80994721722295" lon="113.52553363510951">
        <ele>88.4122085571289</ele>
        <time>2021-11-29T07:35:30Z</time>
      </trkpt>
      <trkpt lat="34.80986807164297" lon="113.52552656596171">
        <ele>88.74333953857422</ele>
        <time>2021-11-29T07:35:33Z</time>
      </trkpt>
      <trkpt lat="34.80978823974856" lon="113.52546369316374">
        <ele>88.70793914794922</ele>
        <time>2021-11-29T07:35:36Z</time>
      </trkpt>
      <trkpt lat="34.80970515050791" lon="113.52550344511877">
        <ele>88.75862884521484</ele>
        <time>2021-11-29T07:35:39Z</time>
      </trkpt>
      <trkpt lat="34.80962890900079" lon="113.52557150643037">
        <ele>88.71565246582031</ele>
        <time>2021-11-29T07:35:42Z</time>
      </trkpt>
      <trkpt lat="34.809538031709856" lon="113.52574355403917">
        <ele>87.5140151977539</ele>
        <time>2021-11-29T07:35:48Z</time>
      </trkpt>
      <trkpt lat="34.80949200794869" lon="113.52586550937481">
        <ele>86.50193786621094</ele>
        <time>2021-11-29T07:35:51Z</time>
      </trkpt>
      <trkpt lat="34.80951505817267" lon="113.52608245791721">
        <ele>85.7793960571289</ele>
        <time>2021-11-29T07:35:57Z</time>
      </trkpt>
      <trkpt lat="34.8096891095029" lon="113.52632443212971">
        <ele>85.61036682128906</ele>
        <time>2021-11-29T07:36:06Z</time>
      </trkpt>
      <trkpt lat="34.80982316752733" lon="113.52639927470113">
        <ele>85.34620666503906</ele>
        <time>2021-11-29T07:36:12Z</time>
      </trkpt>
      <trkpt lat="34.81015710960713" lon="113.52643435389206">
        <ele>86.78702545166016</ele>
        <time>2021-11-29T07:36:21Z</time>
      </trkpt>
      <trkpt lat="34.810397960446885" lon="113.52641336850938">
        <ele>87.03949737548828</ele>
        <time>2021-11-29T07:36:33Z</time>
      </trkpt>
      <trkpt lat="34.810574122892504" lon="113.52642233264045">
        <ele>87.17166137695312</ele>
        <time>2021-11-29T07:36:39Z</time>
      </trkpt>
      <trkpt lat="34.81064291925781" lon="113.52640925946">
        <ele>87.17166137695312</ele>
        <time>2021-11-29T07:36:42Z</time>
      </trkpt>
      <trkpt lat="34.81071800476555" lon="113.52641823430316">
        <ele>86.65754699707031</ele>
        <time>2021-11-29T07:36:45Z</time>
      </trkpt>
      <trkpt lat="34.81083894739301" lon="113.52634527019403">
        <ele>85.78331756591797</ele>
        <time>2021-11-29T07:36:51Z</time>
      </trkpt>
      <trkpt lat="34.810918056353835" lon="113.52623256809089">
        <ele>87.2420654296875</ele>
        <time>2021-11-29T07:37:06Z</time>
      </trkpt>
      <trkpt lat="34.81097722777706" lon="113.52605943741692">
        <ele>88.3315658569336</ele>
        <time>2021-11-29T07:37:12Z</time>
      </trkpt>
      <trkpt lat="34.8109779227911" lon="113.52590836109573">
        <ele>89.13201904296875</ele>
        <time>2021-11-29T07:37:18Z</time>
      </trkpt>
      <trkpt lat="34.81095820571536" lon="113.5258283333399">
        <ele>89.43343353271484</ele>
        <time>2021-11-29T07:37:21Z</time>
      </trkpt>
      <trkpt lat="34.81091518950545" lon="113.52575048556051">
        <ele>89.42498016357422</ele>
        <time>2021-11-29T07:37:24Z</time>
      </trkpt>
      <trkpt lat="34.81078290070829" lon="113.52562664323258">
        <ele>90.57817077636719</ele>
        <time>2021-11-29T07:37:30Z</time>
      </trkpt>
      <trkpt lat="34.810651274549464" lon="113.52554962103724">
        <ele>91.12739562988281</ele>
        <time>2021-11-29T07:37:36Z</time>
      </trkpt>
      <trkpt lat="34.81058413180872" lon="113.52557331066339">
        <ele>90.71674346923828</ele>
        <time>2021-11-29T07:37:39Z</time>
      </trkpt>
      <trkpt lat="34.81050603783997" lon="113.52555371962536">
        <ele>90.54476165771484</ele>
        <time>2021-11-29T07:37:42Z</time>
      </trkpt>
      <trkpt lat="34.81020714417428" lon="113.52555429573485">
        <ele>89.70579528808594</ele>
        <time>2021-11-29T07:37:51Z</time>
      </trkpt>
      <trkpt lat="34.80990000338896" lon="113.52550941315327">
        <ele>88.32734680175781</ele>
        <time>2021-11-29T07:38:03Z</time>
      </trkpt>
      <trkpt lat="34.80981609412127" lon="113.52554644301526">
        <ele>87.41946411132812</ele>
        <time>2021-11-29T07:38:06Z</time>
      </trkpt>
      <trkpt lat="34.809729139263744" lon="113.525558429596">
        <ele>86.82891082763672</ele>
        <time>2021-11-29T07:38:09Z</time>
      </trkpt>
      <trkpt lat="34.80956816991828" lon="113.52576641658806">
        <ele>86.41545867919922</ele>
        <time>2021-11-29T07:38:18Z</time>
      </trkpt>
      <trkpt lat="34.80953509930197" lon="113.52586741028018">
        <ele>86.07408905029297</ele>
        <time>2021-11-29T07:38:21Z</time>
      </trkpt>
      <trkpt lat="34.80954208164405" lon="113.52605332871373">
        <ele>86.0188217163086</ele>
        <time>2021-11-29T07:38:27Z</time>
      </trkpt>
      <trkpt lat="34.809636069917225" lon="113.52624740315149">
        <ele>85.80494689941406</ele>
        <time>2021-11-29T07:38:36Z</time>
      </trkpt>
      <trkpt lat="34.80968501890185" lon="113.52631436091164">
        <ele>85.97559356689453</ele>
        <time>2021-11-29T07:38:39Z</time>
      </trkpt>
      <trkpt lat="34.80986489694631" lon="113.52639845366068">
        <ele>86.82658386230469</ele>
        <time>2021-11-29T07:38:48Z</time>
      </trkpt>
      <trkpt lat="34.810167854059316" lon="113.5263973327322">
        <ele>86.58753204345703</ele>
        <time>2021-11-29T07:39:06Z</time>
      </trkpt>
      <trkpt lat="34.810242970299576" lon="113.5264182846422">
        <ele>86.3369369506836</ele>
        <time>2021-11-29T07:39:09Z</time>
      </trkpt>
      <trkpt lat="34.81049987335553" lon="113.52642234050862">
        <ele>86.7508316040039</ele>
        <time>2021-11-29T07:39:24Z</time>
      </trkpt>
      <trkpt lat="34.81055916715054" lon="113.52640219097601">
        <ele>86.66785430908203</ele>
        <time>2021-11-29T07:39:30Z</time>
      </trkpt>
      <trkpt lat="34.81074179759484" lon="113.52639727191143">
        <ele>87.44969940185547</ele>
        <time>2021-11-29T07:39:42Z</time>
      </trkpt>
      <trkpt lat="34.81087403697195" lon="113.52629136952524">
        <ele>88.26554870605469</ele>
        <time>2021-11-29T07:39:54Z</time>
      </trkpt>
      <trkpt lat="34.81094607152478" lon="113.52616750746847">
        <ele>88.7361831665039</ele>
        <time>2021-11-29T07:40:06Z</time>
      </trkpt>
      <trkpt lat="34.810966045313705" lon="113.52603140107796">
        <ele>90.28482055664062</ele>
        <time>2021-11-29T07:40:15Z</time>
      </trkpt>
      <trkpt lat="34.8109620724653" lon="113.52585664282846">
        <ele>90.59835052490234</ele>
        <time>2021-11-29T07:40:27Z</time>
      </trkpt>
      <trkpt lat="34.81089503907191" lon="113.52571265030826">
        <ele>90.98100280761719</ele>
        <time>2021-11-29T07:40:39Z</time>
      </trkpt>
      <trkpt lat="34.81078909676424" lon="113.52561248753645">
        <ele>90.07831573486328</ele>
        <time>2021-11-29T07:40:51Z</time>
      </trkpt>
      <trkpt lat="34.81066022475185" lon="113.52555261442954">
        <ele>89.36079406738281</ele>
        <time>2021-11-29T07:40:57Z</time>
      </trkpt>
      <trkpt lat="34.81053905844406" lon="113.52553847220474">
        <ele>88.94046020507812</ele>
        <time>2021-11-29T07:41:00Z</time>
      </trkpt>
      <trkpt lat="34.81024209896998" lon="113.52555347539113">
        <ele>87.66217041015625</ele>
        <time>2021-11-29T07:41:06Z</time>
      </trkpt>
      <trkpt lat="34.80995518551529" lon="113.52547129744357">
        <ele>88.30345916748047</ele>
        <time>2021-11-29T07:41:12Z</time>
      </trkpt>
      <trkpt lat="34.809810264085435" lon="113.52549254544734">
        <ele>88.47628784179688</ele>
        <time>2021-11-29T07:41:15Z</time>
      </trkpt>
      <trkpt lat="34.80973110650672" lon="113.52558565065272">
        <ele>88.74267578125</ele>
        <time>2021-11-29T07:41:18Z</time>
      </trkpt>
      <trkpt lat="34.809723237147146" lon="113.5256863699847">
        <ele>88.6091079711914</ele>
        <time>2021-11-29T07:41:21Z</time>
      </trkpt>
      <trkpt lat="34.80976805469888" lon="113.52593734358062">
        <ele>85.73662567138672</ele>
        <time>2021-11-29T07:41:27Z</time>
      </trkpt>
      <trkpt lat="34.809796094302534" lon="113.52598715496798">
        <ele>85.67918395996094</ele>
        <time>2021-11-29T07:41:30Z</time>
      </trkpt>
      <trkpt lat="34.80975105281379" lon="113.52596456635266">
        <ele>86.5023422241211</ele>
        <time>2021-11-29T07:41:36Z</time>
      </trkpt>
      <trkpt lat="34.80965811795996" lon="113.52596947597462">
        <ele>88.46415710449219</ele>
        <time>2021-11-29T07:41:45Z</time>
      </trkpt>
      <trkpt lat="34.809595065605244" lon="113.52600323662541">
        <ele>88.84860229492188</ele>
        <time>2021-11-29T07:41:48Z</time>
      </trkpt>
      <trkpt lat="34.8095871783937" lon="113.52609742174745">
        <ele>88.30955505371094</ele>
        <time>2021-11-29T07:41:54Z</time>
      </trkpt>
      <trkpt lat="34.80966297978529" lon="113.52627952075419">
        <ele>88.45588684082031</ele>
        <time>2021-11-29T07:42:09Z</time>
      </trkpt>
      <trkpt lat="34.80978489458846" lon="113.52637423578034">
        <ele>87.73319244384766</ele>
        <time>2021-11-29T07:42:21Z</time>
      </trkpt>
      <trkpt lat="34.809862997267736" lon="113.52639736503727">
        <ele>88.20403289794922</ele>
        <time>2021-11-29T07:42:27Z</time>
      </trkpt>
      <trkpt lat="34.809915790257705" lon="113.52637830500483">
        <ele>88.3128890991211</ele>
        <time>2021-11-29T07:42:33Z</time>
      </trkpt>
      <trkpt lat="34.81015303996666" lon="113.526432448882">
        <ele>88.1451644897461</ele>
        <time>2021-11-29T07:42:57Z</time>
      </trkpt>
      <trkpt lat="34.81020884169469" lon="113.52642427679065">
        <ele>88.17011260986328</ele>
        <time>2021-11-29T07:43:03Z</time>
      </trkpt>
      <trkpt lat="34.81020884169469" lon="113.52642427679065">
        <ele>88.17011260986328</ele>
        <time>2021-11-29T07:43:06Z</time>
      </trkpt>
    </trkseg>
  </trk>
</gpx>