<?xml version="1.0" encoding="UTF-8"?>
<gpx xmlns="http://www.topografix.com/GPX/1/1" xmlns:gpxtpx="http://www.garmin.com/xmlschemas/TrackPointExtension/v1" xmlns:xsi="http://www.w3.org/2001/XMLSchema-instance" xsi:schemaLocation="http://www.topografix.com/GPX/1/1 http://www.topografix.com/GPX/1/1/gpx.xsd" version="1.1" creator="gpx.py -- https://github.com/tkrajina/gpxpy">
  <trk>
    <name>gpx from keep</name>
    <type>Ride</type>
    <trkseg>
      <trkpt lat="34.821762508336505" lon="113.53513236822886">
        <ele>83.61</ele>
        <time>2021-10-19T07:06:41Z</time>
      </trkpt>
      <trkpt lat="34.82227415160223" lon="113.53515678498458">
        <ele>84.22</ele>
        <time>2021-10-19T07:07:04Z</time>
      </trkpt>
      <trkpt lat="34.82267431781653" lon="113.53519414938293">
        <ele>83.31</ele>
        <time>2021-10-19T07:07:23Z</time>
      </trkpt>
      <trkpt lat="34.82300159158811" lon="113.53516199581411">
        <ele>81.4</ele>
        <time>2021-10-19T07:07:38Z</time>
      </trkpt>
      <trkpt lat="34.82344072020768" lon="113.5352176585573">
        <ele>79.43</ele>
        <time>2021-10-19T07:07:53Z</time>
      </trkpt>
      <trkpt lat="34.82391590380028" lon="113.53522307419216">
        <ele>79.85</ele>
        <time>2021-10-19T07:08:11Z</time>
      </trkpt>
      <trkpt lat="34.82423544949062" lon="113.53521818665111">
        <ele>78.98</ele>
        <time>2021-10-19T07:08:24Z</time>
      </trkpt>
      <trkpt lat="34.82432474346427" lon="113.53519564965362">
        <ele>80.8</ele>
        <time>2021-10-19T07:08:27Z</time>
      </trkpt>
      <trkpt lat="34.824831102293395" lon="113.53525470999243">
        <ele>78.58</ele>
        <time>2021-10-19T07:08:45Z</time>
      </trkpt>
      <trkpt lat="34.82532975599236" lon="113.53526559299925">
        <ele>76.58</ele>
        <time>2021-10-19T07:09:03Z</time>
      </trkpt>
      <trkpt lat="34.82582847533588" lon="113.53529553102787">
        <ele>73.13</ele>
        <time>2021-10-19T07:09:21Z</time>
      </trkpt>
      <trkpt lat="34.826270613906686" lon="113.5353034273681">
        <ele>71.58</ele>
        <time>2021-10-19T07:09:36Z</time>
      </trkpt>
      <trkpt lat="34.82636040070165" lon="113.53531217868327">
        <ele>72.46</ele>
        <time>2021-10-19T07:09:39Z</time>
      </trkpt>
      <trkpt lat="34.82652180511278" lon="113.53530121558255">
        <ele>75.47</ele>
        <time>2021-10-19T07:09:44Z</time>
      </trkpt>
      <trkpt lat="34.82696674589431" lon="113.53534338390965">
        <ele>74.97</ele>
        <time>2021-10-19T07:09:59Z</time>
      </trkpt>
      <trkpt lat="34.827358163426695" lon="113.5353258001962">
        <ele>76.81</ele>
        <time>2021-10-19T07:10:13Z</time>
      </trkpt>
      <trkpt lat="34.827519490278334" lon="113.53534685751661">
        <ele>76.81</ele>
        <time>2021-10-19T07:10:19Z</time>
      </trkpt>
      <trkpt lat="34.82761902683508" lon="113.53532050236421">
        <ele>77.81</ele>
        <time>2021-10-19T07:10:22Z</time>
      </trkpt>
      <trkpt lat="34.827669675716095" lon="113.5352283782955">
        <ele>77.89</ele>
        <time>2021-10-19T07:10:26Z</time>
      </trkpt>
      <trkpt lat="34.82768225612694" lon="113.53511357924963">
        <ele>78.19</ele>
        <time>2021-10-19T07:10:30Z</time>
      </trkpt>
      <trkpt lat="34.82764116643084" lon="113.53450073742928">
        <ele>76.73</ele>
        <time>2021-10-19T07:10:50Z</time>
      </trkpt>
      <trkpt lat="34.827644331725416" lon="113.53395091164533">
        <ele>76.09</ele>
        <time>2021-10-19T07:11:05Z</time>
      </trkpt>
      <trkpt lat="34.82764212971453" lon="113.53385277431893">
        <ele>75.91</ele>
        <time>2021-10-19T07:11:08Z</time>
      </trkpt>
      <trkpt lat="34.827616718456646" lon="113.53377007971265">
        <ele>75.78</ele>
        <time>2021-10-19T07:11:11Z</time>
      </trkpt>
      <trkpt lat="34.82756195760204" lon="113.5337125171572">
        <ele>75.98</ele>
        <time>2021-10-19T07:11:15Z</time>
      </trkpt>
      <trkpt lat="34.82763408540527" lon="113.53378391146694">
        <ele>76.42</ele>
        <time>2021-10-19T07:11:21Z</time>
      </trkpt>
      <trkpt lat="34.827704549633296" lon="113.53375009737185">
        <ele>77.57</ele>
        <time>2021-10-19T07:11:25Z</time>
      </trkpt>
      <trkpt lat="34.82771880131593" lon="113.5336508127529">
        <ele>79.56</ele>
        <time>2021-10-19T07:11:30Z</time>
      </trkpt>
      <trkpt lat="34.827714313172166" lon="113.53306533809018">
        <ele>83.19</ele>
        <time>2021-10-19T07:11:55Z</time>
      </trkpt>
      <trkpt lat="34.827711620282834" lon="113.53288501530211">
        <ele>84.81</ele>
        <time>2021-10-19T07:12:03Z</time>
      </trkpt>
      <trkpt lat="34.827683338535266" lon="113.53250490236412">
        <ele>84.49</ele>
        <time>2021-10-19T07:15:22Z</time>
      </trkpt>
      <trkpt lat="34.827680477492414" lon="113.53190918853286">
        <ele>78.48</ele>
        <time>2021-10-19T07:15:40Z</time>
      </trkpt>
      <trkpt lat="34.82767657556923" lon="113.53131589058596">
        <ele>73.69</ele>
        <time>2021-10-19T07:15:58Z</time>
      </trkpt>
      <trkpt lat="34.82767986474748" lon="113.53072682735981">
        <ele>74.01</ele>
        <time>2021-10-19T07:16:16Z</time>
      </trkpt>
      <trkpt lat="34.82768945950731" lon="113.53051947549999">
        <ele>75.52</ele>
        <time>2021-10-19T07:16:23Z</time>
      </trkpt>
      <trkpt lat="34.827594232010526" lon="113.53001989485625">
        <ele>77.62</ele>
        <time>2021-10-19T07:16:41Z</time>
      </trkpt>
      <trkpt lat="34.827560533638476" lon="113.52991644551287">
        <ele>76.93</ele>
        <time>2021-10-19T07:16:45Z</time>
      </trkpt>
      <trkpt lat="34.827491573233885" lon="113.52986928256078">
        <ele>77.18</ele>
        <time>2021-10-19T07:16:49Z</time>
      </trkpt>
      <trkpt lat="34.82734346511087" lon="113.52982596431964">
        <ele>81.28</ele>
        <time>2021-10-19T07:16:58Z</time>
      </trkpt>
      <trkpt lat="34.827183678993286" lon="113.52984651658362">
        <ele>82.13</ele>
        <time>2021-10-19T07:17:05Z</time>
      </trkpt>
      <trkpt lat="34.82694148731883" lon="113.52979730679982">
        <ele>81.91</ele>
        <time>2021-10-19T07:17:38Z</time>
      </trkpt>
      <trkpt lat="34.826613167751304" lon="113.52981566875668">
        <ele>78.91</ele>
        <time>2021-10-19T07:17:51Z</time>
      </trkpt>
      <trkpt lat="34.82655183972231" lon="113.52974136481423">
        <ele>78.06</ele>
        <time>2021-10-19T07:17:54Z</time>
      </trkpt>
      <trkpt lat="34.826479526366185" lon="113.52944502496659">
        <ele>74.09</ele>
        <time>2021-10-19T07:18:03Z</time>
      </trkpt>
      <trkpt lat="34.82649565179873" lon="113.52881530077788">
        <ele>73.67</ele>
        <time>2021-10-19T07:18:21Z</time>
      </trkpt>
      <trkpt lat="34.826492648405996" lon="113.52871744925845">
        <ele>74.17</ele>
        <time>2021-10-19T07:18:24Z</time>
      </trkpt>
      <trkpt lat="34.826511448716936" lon="113.52862657616245">
        <ele>73.7</ele>
        <time>2021-10-19T07:18:27Z</time>
      </trkpt>
      <trkpt lat="34.82650668425942" lon="113.52802166653191">
        <ele>75.82</ele>
        <time>2021-10-19T07:18:46Z</time>
      </trkpt>
      <trkpt lat="34.82647871543646" lon="113.5274185438864">
        <ele>79.25</ele>
        <time>2021-10-19T07:19:12Z</time>
      </trkpt>
      <trkpt lat="34.82649631889731" lon="113.52713969823131">
        <ele>79.7</ele>
        <time>2021-10-19T07:19:26Z</time>
      </trkpt>
      <trkpt lat="34.826553266913045" lon="113.52684044519938">
        <ele>81.69</ele>
        <time>2021-10-19T07:19:39Z</time>
      </trkpt>
      <trkpt lat="34.82657543370838" lon="113.52639922953915">
        <ele>84.52</ele>
        <time>2021-10-19T07:19:55Z</time>
      </trkpt>
      <trkpt lat="34.826516695292796" lon="113.52619899601015">
        <ele>84.48</ele>
        <time>2021-10-19T07:20:02Z</time>
      </trkpt>
      <trkpt lat="34.8265515166664" lon="113.52601417605223">
        <ele>84.4</ele>
        <time>2021-10-19T07:20:12Z</time>
      </trkpt>
      <trkpt lat="34.826534948805154" lon="113.5254903693243">
        <ele>83.98</ele>
        <time>2021-10-19T07:20:31Z</time>
      </trkpt>
      <trkpt lat="34.826518370423386" lon="113.52538096290552">
        <ele>82.27</ele>
        <time>2021-10-19T07:20:35Z</time>
      </trkpt>
      <trkpt lat="34.82646324991095" lon="113.52532171878148">
        <ele>80.59</ele>
        <time>2021-10-19T07:20:43Z</time>
      </trkpt>
      <trkpt lat="34.826298604712385" lon="113.52530319321343">
        <ele>82.24</ele>
        <time>2021-10-19T07:20:52Z</time>
      </trkpt>
      <trkpt lat="34.826153809953844" lon="113.52534300070097">
        <ele>85.0</ele>
        <time>2021-10-19T07:20:59Z</time>
      </trkpt>
      <trkpt lat="34.82606287488181" lon="113.52533987090167">
        <ele>86.56</ele>
        <time>2021-10-19T07:21:03Z</time>
      </trkpt>
      <trkpt lat="34.82599434775782" lon="113.52530063647622">
        <ele>86.92</ele>
        <time>2021-10-19T07:21:06Z</time>
      </trkpt>
      <trkpt lat="34.82553636520467" lon="113.52524233446249">
        <ele>94.09</ele>
        <time>2021-10-19T07:21:44Z</time>
      </trkpt>
      <trkpt lat="34.82513172732759" lon="113.52518470599306">
        <ele>92.72</ele>
        <time>2021-10-19T07:22:00Z</time>
      </trkpt>
      <trkpt lat="34.82498134208098" lon="113.52514912800885">
        <ele>92.13</ele>
        <time>2021-10-19T07:22:06Z</time>
      </trkpt>
      <trkpt lat="34.824917751932894" lon="113.5251057214555">
        <ele>85.12</ele>
        <time>2021-10-19T07:23:18Z</time>
      </trkpt>
      <trkpt lat="34.824833519445356" lon="113.52510855367389">
        <ele>82.57</ele>
        <time>2021-10-19T07:23:23Z</time>
      </trkpt>
      <trkpt lat="34.824754476000656" lon="113.52507023158849">
        <ele>81.92</ele>
        <time>2021-10-19T07:23:43Z</time>
      </trkpt>
      <trkpt lat="34.82428095754915" lon="113.5250448945334">
        <ele>80.25</ele>
        <time>2021-10-19T07:24:53Z</time>
      </trkpt>
      <trkpt lat="34.82420664811833" lon="113.5250659535257">
        <ele>81.17</ele>
        <time>2021-10-19T07:24:56Z</time>
      </trkpt>
      <trkpt lat="34.823709645428146" lon="113.52505608602736">
        <ele>87.75</ele>
        <time>2021-10-19T07:25:17Z</time>
      </trkpt>
      <trkpt lat="34.82355129813994" lon="113.52502697239886">
        <ele>90.28</ele>
        <time>2021-10-19T07:25:23Z</time>
      </trkpt>
      <trkpt lat="34.82348604283913" lon="113.52497828588899">
        <ele>90.61</ele>
        <time>2021-10-19T07:25:29Z</time>
      </trkpt>
      <trkpt lat="34.82343710015993" lon="113.52490714905613">
        <ele>86.06</ele>
        <time>2021-10-19T07:25:41Z</time>
      </trkpt>
      <trkpt lat="34.82306186131852" lon="113.52490269408203">
        <ele>89.12</ele>
        <time>2021-10-19T07:25:56Z</time>
      </trkpt>
      <trkpt lat="34.82273824454257" lon="113.52483520287768">
        <ele>85.13</ele>
        <time>2021-10-19T07:26:10Z</time>
      </trkpt>
      <trkpt lat="34.822576336310775" lon="113.52483436778276">
        <ele>82.93</ele>
        <time>2021-10-19T07:26:19Z</time>
      </trkpt>
      <trkpt lat="34.82249391315097" lon="113.52480704104666">
        <ele>81.47</ele>
        <time>2021-10-19T07:26:23Z</time>
      </trkpt>
      <trkpt lat="34.8224032207445" lon="113.52480388347821">
        <ele>80.42</ele>
        <time>2021-10-19T07:26:27Z</time>
      </trkpt>
      <trkpt lat="34.82225133443183" lon="113.52487683392529">
        <ele>78.47</ele>
        <time>2021-10-19T07:26:33Z</time>
      </trkpt>
      <trkpt lat="34.82222373543874" lon="113.52499077206151">
        <ele>77.11</ele>
        <time>2021-10-19T07:26:37Z</time>
      </trkpt>
      <trkpt lat="34.82222927556496" lon="113.52510136719518">
        <ele>76.91</ele>
        <time>2021-10-19T07:26:41Z</time>
      </trkpt>
      <trkpt lat="34.82225116222769" lon="113.52518976603068">
        <ele>77.46</ele>
        <time>2021-10-19T07:26:44Z</time>
      </trkpt>
      <trkpt lat="34.82225185567539" lon="113.5253947113275">
        <ele>77.55</ele>
        <time>2021-10-19T07:26:52Z</time>
      </trkpt>
      <trkpt lat="34.82228650414997" lon="113.52580667474683">
        <ele>78.88</ele>
        <time>2021-10-19T07:27:08Z</time>
      </trkpt>
      <trkpt lat="34.82228612577063" lon="113.5261030132774">
        <ele>80.95</ele>
        <time>2021-10-19T07:27:20Z</time>
      </trkpt>
      <trkpt lat="34.82223198567672" lon="113.5267047246653">
        <ele>81.7</ele>
        <time>2021-10-19T07:27:44Z</time>
      </trkpt>
      <trkpt lat="34.82222535035116" lon="113.52680220106411">
        <ele>83.14</ele>
        <time>2021-10-19T07:27:48Z</time>
      </trkpt>
      <trkpt lat="34.82223844041297" lon="113.52690681568299">
        <ele>86.63</ele>
        <time>2021-10-19T07:28:15Z</time>
      </trkpt>
      <trkpt lat="34.822198545943216" lon="113.52740520595259">
        <ele>89.46</ele>
        <time>2021-10-19T07:28:36Z</time>
      </trkpt>
      <trkpt lat="34.82219762640808" lon="113.52781237654018">
        <ele>91.3</ele>
        <time>2021-10-19T07:28:52Z</time>
      </trkpt>
      <trkpt lat="34.822172235494065" lon="113.52800771675416">
        <ele>90.73</ele>
        <time>2021-10-19T07:29:02Z</time>
      </trkpt>
      <trkpt lat="34.82218868522082" lon="113.52819987748855">
        <ele>91.4</ele>
        <time>2021-10-19T07:29:16Z</time>
      </trkpt>
      <trkpt lat="34.82217341477603" lon="113.52830639419096">
        <ele>90.85</ele>
        <time>2021-10-19T07:29:20Z</time>
      </trkpt>
      <trkpt lat="34.82218794605525" lon="113.5289457406991">
        <ele>92.69</ele>
        <time>2021-10-19T07:29:43Z</time>
      </trkpt>
      <trkpt lat="34.822190388132206" lon="113.52952720143857">
        <ele>92.73</ele>
        <time>2021-10-19T07:30:07Z</time>
      </trkpt>
      <trkpt lat="34.82215342196395" lon="113.53014209114785">
        <ele>90.41</ele>
        <time>2021-10-19T07:30:32Z</time>
      </trkpt>
      <trkpt lat="34.82215078599381" lon="113.53074673977551">
        <ele>90.39</ele>
        <time>2021-10-19T07:30:57Z</time>
      </trkpt>
      <trkpt lat="34.82216850377645" lon="113.53103558203">
        <ele>93.04</ele>
        <time>2021-10-19T07:31:07Z</time>
      </trkpt>
      <trkpt lat="34.82216115788354" lon="113.53126363084641">
        <ele>93.36</ele>
        <time>2021-10-19T07:31:15Z</time>
      </trkpt>
      <trkpt lat="34.822142421427934" lon="113.53137613748777">
        <ele>93.78</ele>
        <time>2021-10-19T07:31:19Z</time>
      </trkpt>
      <trkpt lat="34.82208783617299" lon="113.53143631484267">
        <ele>93.21</ele>
        <time>2021-10-19T07:31:23Z</time>
      </trkpt>
      <trkpt lat="34.821576142868274" lon="113.53146919451429">
        <ele>87.95</ele>
        <time>2021-10-19T07:31:41Z</time>
      </trkpt>
      <trkpt lat="34.8210961960618" lon="113.5314982673805">
        <ele>82.87</ele>
        <time>2021-10-19T07:32:00Z</time>
      </trkpt>
      <trkpt lat="34.820946370528745" lon="113.53153464278253">
        <ele>82.87</ele>
        <time>2021-10-19T07:32:06Z</time>
      </trkpt>
      <trkpt lat="34.82043339101094" lon="113.53155361916204">
        <ele>81.82</ele>
        <time>2021-10-19T07:32:26Z</time>
      </trkpt>
      <trkpt lat="34.820350021946034" lon="113.53158384184476">
        <ele>81.09</ele>
        <time>2021-10-19T07:32:32Z</time>
      </trkpt>
      <trkpt lat="34.81999387811153" lon="113.53157104209895">
        <ele>82.34</ele>
        <time>2021-10-19T07:32:48Z</time>
      </trkpt>
      <trkpt lat="34.81948417431485" lon="113.53161225389498">
        <ele>85.03</ele>
        <time>2021-10-19T07:33:12Z</time>
      </trkpt>
      <trkpt lat="34.81915526594228" lon="113.53161226428861">
        <ele>86.15</ele>
        <time>2021-10-19T07:33:28Z</time>
      </trkpt>
      <trkpt lat="34.81891339564336" lon="113.53156745900222">
        <ele>85.01</ele>
        <time>2021-10-19T07:35:16Z</time>
      </trkpt>
      <trkpt lat="34.818423954532" lon="113.53157639306704">
        <ele>86.71</ele>
        <time>2021-10-19T07:35:34Z</time>
      </trkpt>
      <trkpt lat="34.817991890596424" lon="113.53154669535228">
        <ele>87.93</ele>
        <time>2021-10-19T07:35:49Z</time>
      </trkpt>
      <trkpt lat="34.817500424956535" lon="113.53153909109612">
        <ele>88.65</ele>
        <time>2021-10-19T07:36:09Z</time>
      </trkpt>
      <trkpt lat="34.81700295938543" lon="113.53150013243228">
        <ele>88.17</ele>
        <time>2021-10-19T07:36:28Z</time>
      </trkpt>
      <trkpt lat="34.81653731044984" lon="113.53147020937209">
        <ele>90.24</ele>
        <time>2021-10-19T07:36:43Z</time>
      </trkpt>
      <trkpt lat="34.816081262030046" lon="113.5313652659497">
        <ele>89.08</ele>
        <time>2021-10-19T07:37:31Z</time>
      </trkpt>
      <trkpt lat="34.81601076614479" lon="113.53133517211009">
        <ele>89.68</ele>
        <time>2021-10-19T07:37:35Z</time>
      </trkpt>
      <trkpt lat="34.815758418635404" lon="113.53134227074369">
        <ele>86.74</ele>
        <time>2021-10-19T07:37:51Z</time>
      </trkpt>
      <trkpt lat="34.815260160028764" lon="113.53126383407029">
        <ele>83.94</ele>
        <time>2021-10-19T07:38:13Z</time>
      </trkpt>
      <trkpt lat="34.815030595797516" lon="113.53127185724914">
        <ele>82.82</ele>
        <time>2021-10-19T07:38:22Z</time>
      </trkpt>
      <trkpt lat="34.81471109786076" lon="113.5311653019398">
        <ele>81.44</ele>
        <time>2021-10-19T07:38:34Z</time>
      </trkpt>
      <trkpt lat="34.81439313031646" lon="113.53109841775994">
        <ele>80.81</ele>
        <time>2021-10-19T07:38:46Z</time>
      </trkpt>
      <trkpt lat="34.81431718744846" lon="113.53106220676456">
        <ele>80.07</ele>
        <time>2021-10-19T07:38:54Z</time>
      </trkpt>
      <trkpt lat="34.81424354816641" lon="113.53106661291002">
        <ele>80.17</ele>
        <time>2021-10-19T07:38:57Z</time>
      </trkpt>
      <trkpt lat="34.81407744644581" lon="113.53099581507351">
        <ele>79.58</ele>
        <time>2021-10-19T07:39:05Z</time>
      </trkpt>
      <trkpt lat="34.81357982706269" lon="113.53091988676546">
        <ele>80.34</ele>
        <time>2021-10-19T07:39:23Z</time>
      </trkpt>
      <trkpt lat="34.8132431911785" lon="113.53084254676556">
        <ele>80.48</ele>
        <time>2021-10-19T07:39:35Z</time>
      </trkpt>
      <trkpt lat="34.813031324206776" lon="113.5307732351099">
        <ele>80.03</ele>
        <time>2021-10-19T07:39:44Z</time>
      </trkpt>
      <trkpt lat="34.81287893157807" lon="113.53069112489462">
        <ele>79.33</ele>
        <time>2021-10-19T07:39:52Z</time>
      </trkpt>
      <trkpt lat="34.81271631743967" lon="113.53067896042197">
        <ele>79.07</ele>
        <time>2021-10-19T07:39:59Z</time>
      </trkpt>
      <trkpt lat="34.81246533224308" lon="113.53063032662477">
        <ele>80.3</ele>
        <time>2021-10-19T07:41:40Z</time>
      </trkpt>
      <trkpt lat="34.81208534487718" lon="113.53046706086832">
        <ele>78.58</ele>
        <time>2021-10-19T07:42:22Z</time>
      </trkpt>
      <trkpt lat="34.81167589173279" lon="113.53038797897534">
        <ele>77.25</ele>
        <time>2021-10-19T07:42:40Z</time>
      </trkpt>
      <trkpt lat="34.811253398455754" lon="113.53027432576707">
        <ele>78.17</ele>
        <time>2021-10-19T07:42:57Z</time>
      </trkpt>
      <trkpt lat="34.81074692715941" lon="113.53023365010384">
        <ele>80.38</ele>
        <time>2021-10-19T07:43:19Z</time>
      </trkpt>
      <trkpt lat="34.8102486178959" lon="113.53021788514907">
        <ele>80.78</ele>
        <time>2021-10-19T07:43:41Z</time>
      </trkpt>
      <trkpt lat="34.80973680219627" lon="113.53018660544751">
        <ele>82.88</ele>
        <time>2021-10-19T07:44:03Z</time>
      </trkpt>
      <trkpt lat="34.80948760143541" lon="113.5302115758286">
        <ele>83.26</ele>
        <time>2021-10-19T07:44:14Z</time>
      </trkpt>
      <trkpt lat="34.80940829450922" lon="113.53026568970175">
        <ele>82.74</ele>
        <time>2021-10-19T07:44:18Z</time>
      </trkpt>
      <trkpt lat="34.809422201373984" lon="113.5306800662052">
        <ele>83.99</ele>
        <time>2021-10-19T07:44:34Z</time>
      </trkpt>
      <trkpt lat="34.80940219695635" lon="113.53112902986214">
        <ele>85.77</ele>
        <time>2021-10-19T07:44:50Z</time>
      </trkpt>
      <trkpt lat="34.809409397462325" lon="113.53121804181578">
        <ele>85.57</ele>
        <time>2021-10-19T07:44:53Z</time>
      </trkpt>
      <trkpt lat="34.80938389867201" lon="113.53141810914852">
        <ele>85.47</ele>
        <time>2021-10-19T07:45:01Z</time>
      </trkpt>
      <trkpt lat="34.809421290589746" lon="113.53151482775422">
        <ele>85.88</ele>
        <time>2021-10-19T07:45:05Z</time>
      </trkpt>
      <trkpt lat="34.80943322807421" lon="113.53183063455765">
        <ele>85.45</ele>
        <time>2021-10-19T07:45:16Z</time>
      </trkpt>
      <trkpt lat="34.809397785962624" lon="113.53223632026372">
        <ele>84.8</ele>
        <time>2021-10-19T07:45:31Z</time>
      </trkpt>
      <trkpt lat="34.80941692252843" lon="113.53233350374217">
        <ele>85.28</ele>
        <time>2021-10-19T07:45:35Z</time>
      </trkpt>
      <trkpt lat="34.80939247084676" lon="113.53243325900183">
        <ele>85.35</ele>
        <time>2021-10-19T07:45:39Z</time>
      </trkpt>
      <trkpt lat="34.809382074176455" lon="113.53265373946998">
        <ele>84.78</ele>
        <time>2021-10-19T07:45:47Z</time>
      </trkpt>
      <trkpt lat="34.80941489964319" lon="113.5332877785799">
        <ele>85.71</ele>
        <time>2021-10-19T07:46:10Z</time>
      </trkpt>
      <trkpt lat="34.809434696083265" lon="113.53337372956325">
        <ele>85.75</ele>
        <time>2021-10-19T07:46:13Z</time>
      </trkpt>
      <trkpt lat="34.80942768352238" lon="113.53348502539944">
        <ele>85.81</ele>
        <time>2021-10-19T07:46:17Z</time>
      </trkpt>
      <trkpt lat="34.80944444827927" lon="113.53357319674598">
        <ele>86.1</ele>
        <time>2021-10-19T07:46:20Z</time>
      </trkpt>
      <trkpt lat="34.80941783577668" lon="113.53366262579637">
        <ele>86.26</ele>
        <time>2021-10-19T07:46:23Z</time>
      </trkpt>
      <trkpt lat="34.80942117267721" lon="113.53376474079357">
        <ele>85.94</ele>
        <time>2021-10-19T07:46:27Z</time>
      </trkpt>
      <trkpt lat="34.80938651269871" lon="113.53396078204855">
        <ele>86.12</ele>
        <time>2021-10-19T07:46:35Z</time>
      </trkpt>
      <trkpt lat="34.80941587641563" lon="113.53425262361891">
        <ele>86.71</ele>
        <time>2021-10-19T07:46:46Z</time>
      </trkpt>
      <trkpt lat="34.80938476611262" lon="113.53453123712406">
        <ele>87.47</ele>
        <time>2021-10-19T07:46:55Z</time>
      </trkpt>
      <trkpt lat="34.80942649778466" lon="113.53462097650176">
        <ele>86.12</ele>
        <time>2021-10-19T07:46:59Z</time>
      </trkpt>
      <trkpt lat="34.8094952511942" lon="113.53465478356344">
        <ele>86.18</ele>
        <time>2021-10-19T07:47:02Z</time>
      </trkpt>
      <trkpt lat="34.80957265413098" lon="113.5346670587792">
        <ele>85.92</ele>
        <time>2021-10-19T07:47:05Z</time>
      </trkpt>
      <trkpt lat="34.810061996792214" lon="113.53462608175396">
        <ele>88.83</ele>
        <time>2021-10-19T07:47:28Z</time>
      </trkpt>
      <trkpt lat="34.81021740705069" lon="113.53461857906848">
        <ele>90.04</ele>
        <time>2021-10-19T07:47:36Z</time>
      </trkpt>
      <trkpt lat="34.81029680370198" lon="113.534668311406">
        <ele>88.99</ele>
        <time>2021-10-19T07:47:40Z</time>
      </trkpt>
      <trkpt lat="34.81036962834889" lon="113.5346191986751">
        <ele>88.66</ele>
        <time>2021-10-19T07:47:44Z</time>
      </trkpt>
      <trkpt lat="34.81042085913295" lon="113.53470344094283">
        <ele>90.19</ele>
        <time>2021-10-19T07:49:41Z</time>
      </trkpt>
      <trkpt lat="34.81073228070407" lon="113.53465796876337">
        <ele>87.24</ele>
        <time>2021-10-19T07:49:58Z</time>
      </trkpt>
      <trkpt lat="34.810976421820904" lon="113.53470751793297">
        <ele>86.61</ele>
        <time>2021-10-19T07:50:11Z</time>
      </trkpt>
      <trkpt lat="34.81105218558578" lon="113.53469727166353">
        <ele>86.3</ele>
        <time>2021-10-19T07:50:15Z</time>
      </trkpt>
      <trkpt lat="34.8113144263397" lon="113.53470317874418">
        <ele>85.63</ele>
        <time>2021-10-19T07:50:27Z</time>
      </trkpt>
      <trkpt lat="34.811668774766694" lon="113.53473726297548">
        <ele>85.22</ele>
        <time>2021-10-19T07:50:43Z</time>
      </trkpt>
      <trkpt lat="34.8117467872061" lon="113.53472923618139">
        <ele>84.79</ele>
        <time>2021-10-19T07:50:46Z</time>
      </trkpt>
      <trkpt lat="34.8118229665306" lon="113.53469359762323">
        <ele>84.31</ele>
        <time>2021-10-19T07:50:49Z</time>
      </trkpt>
      <trkpt lat="34.811914402312084" lon="113.5346926055634">
        <ele>83.74</ele>
        <time>2021-10-19T07:50:53Z</time>
      </trkpt>
      <trkpt lat="34.81207757702217" lon="113.53474188898387">
        <ele>83.15</ele>
        <time>2021-10-19T07:51:00Z</time>
      </trkpt>
      <trkpt lat="34.81215582090799" lon="113.5347354575012">
        <ele>82.91</ele>
        <time>2021-10-19T07:51:05Z</time>
      </trkpt>
      <trkpt lat="34.8121273014747" lon="113.5345335088528">
        <ele>83.56</ele>
        <time>2021-10-19T07:51:17Z</time>
      </trkpt>
      <trkpt lat="34.812122490640256" lon="113.53462220961336">
        <ele>84.45</ele>
        <time>2021-10-19T07:51:37Z</time>
      </trkpt>
      <trkpt lat="34.81220794353836" lon="113.53477421935105">
        <ele>86.1</ele>
        <time>2021-10-19T07:51:48Z</time>
      </trkpt>
      <trkpt lat="34.812278601816544" lon="113.53480952286708">
        <ele>87.43</ele>
        <time>2021-10-19T07:51:52Z</time>
      </trkpt>
      <trkpt lat="34.812360623191275" lon="113.53480401451343">
        <ele>87.18</ele>
        <time>2021-10-19T07:51:56Z</time>
      </trkpt>
      <trkpt lat="34.81252048166131" lon="113.53476409519544">
        <ele>85.99</ele>
        <time>2021-10-19T07:52:03Z</time>
      </trkpt>
      <trkpt lat="34.812584485112666" lon="113.53472205815906">
        <ele>86.69</ele>
        <time>2021-10-19T07:52:08Z</time>
      </trkpt>
      <trkpt lat="34.81250568039303" lon="113.5347002056472">
        <ele>85.1</ele>
        <time>2021-10-19T07:52:12Z</time>
      </trkpt>
      <trkpt lat="34.81242532144473" lon="113.53472624512862">
        <ele>83.63</ele>
        <time>2021-10-19T07:52:18Z</time>
      </trkpt>
      <trkpt lat="34.812470643008815" lon="113.5347999320931">
        <ele>80.63</ele>
        <time>2021-10-19T07:52:28Z</time>
      </trkpt>
      <trkpt lat="34.81254523721105" lon="113.53477801489116">
        <ele>80.22</ele>
        <time>2021-10-19T07:52:31Z</time>
      </trkpt>
      <trkpt lat="34.812716713883724" lon="113.53478821437228">
        <ele>79.02</ele>
        <time>2021-10-19T07:52:38Z</time>
      </trkpt>
      <trkpt lat="34.81316684897184" lon="113.53477502737125">
        <ele>81.24</ele>
        <time>2021-10-19T07:52:58Z</time>
      </trkpt>
      <trkpt lat="34.81349705177955" lon="113.53479355391694">
        <ele>83.36</ele>
        <time>2021-10-19T07:53:12Z</time>
      </trkpt>
      <trkpt lat="34.81358549225374" lon="113.5348204016012">
        <ele>83.17</ele>
        <time>2021-10-19T07:53:16Z</time>
      </trkpt>
      <trkpt lat="34.81382228216742" lon="113.53476622055011">
        <ele>84.26</ele>
        <time>2021-10-19T07:53:29Z</time>
      </trkpt>
      <trkpt lat="34.814086601763584" lon="113.53481624875414">
        <ele>82.48</ele>
        <time>2021-10-19T07:53:41Z</time>
      </trkpt>
      <trkpt lat="34.814164609321" lon="113.53477748378391">
        <ele>82.61</ele>
        <time>2021-10-19T07:53:45Z</time>
      </trkpt>
      <trkpt lat="34.81418682598127" lon="113.53468583721005">
        <ele>82.8</ele>
        <time>2021-10-19T07:53:48Z</time>
      </trkpt>
      <trkpt lat="34.814210757592654" lon="113.53416410852347">
        <ele>82.6</ele>
        <time>2021-10-19T07:54:05Z</time>
      </trkpt>
      <trkpt lat="34.81420674219898" lon="113.5335411808378">
        <ele>80.76</ele>
        <time>2021-10-19T07:54:23Z</time>
      </trkpt>
      <trkpt lat="34.81422334620637" lon="113.53345542162869">
        <ele>81.66</ele>
        <time>2021-10-19T07:54:27Z</time>
      </trkpt>
      <trkpt lat="34.81429733727325" lon="113.53343387869509">
        <ele>82.24</ele>
        <time>2021-10-19T07:54:31Z</time>
      </trkpt>
      <trkpt lat="34.81476495655911" lon="113.53342777875392">
        <ele>80.95</ele>
        <time>2021-10-19T07:54:50Z</time>
      </trkpt>
      <trkpt lat="34.814837286890324" lon="113.53344746555564">
        <ele>81.59</ele>
        <time>2021-10-19T07:54:55Z</time>
      </trkpt>
      <trkpt lat="34.81482038477856" lon="113.53373933088446">
        <ele>82.61</ele>
        <time>2021-10-19T07:55:06Z</time>
      </trkpt>
      <trkpt lat="34.81483655440994" lon="113.53384542496313">
        <ele>82.49</ele>
        <time>2021-10-19T07:55:09Z</time>
      </trkpt>
      <trkpt lat="34.81487413811034" lon="113.53393707726585">
        <ele>84.08</ele>
        <time>2021-10-19T07:55:11Z</time>
      </trkpt>
      <trkpt lat="34.81485358731261" lon="113.53453751250353">
        <ele>93.48</ele>
        <time>2021-10-19T07:55:34Z</time>
      </trkpt>
      <trkpt lat="34.81483793829353" lon="113.53463827088086">
        <ele>93.69</ele>
        <time>2021-10-19T07:55:38Z</time>
      </trkpt>
      <trkpt lat="34.81475234607801" lon="113.53466520088172">
        <ele>92.95</ele>
        <time>2021-10-19T07:55:42Z</time>
      </trkpt>
      <trkpt lat="34.814695485799376" lon="113.53472837630477">
        <ele>91.36</ele>
        <time>2021-10-19T07:55:46Z</time>
      </trkpt>
      <trkpt lat="34.814701824042565" lon="113.5348203117871">
        <ele>90.5</ele>
        <time>2021-10-19T07:55:50Z</time>
      </trkpt>
      <trkpt lat="34.814684511138346" lon="113.53490669285112">
        <ele>88.51</ele>
        <time>2021-10-19T07:55:56Z</time>
      </trkpt>
      <trkpt lat="34.81446164730051" lon="113.53489591493016">
        <ele>83.66</ele>
        <time>2021-10-19T07:59:52Z</time>
      </trkpt>
      <trkpt lat="34.81454011389633" lon="113.5348803010696">
        <ele>80.41</ele>
        <time>2021-10-19T08:00:13Z</time>
      </trkpt>
      <trkpt lat="34.81501662066458" lon="113.53489810340338">
        <ele>85.98</ele>
        <time>2021-10-19T08:00:56Z</time>
      </trkpt>
      <trkpt lat="34.81516598840933" lon="113.53487743473315">
        <ele>88.2</ele>
        <time>2021-10-19T08:01:06Z</time>
      </trkpt>
      <trkpt lat="34.81516161777199" lon="113.53456780837347">
        <ele>88.65</ele>
        <time>2021-10-19T08:01:22Z</time>
      </trkpt>
      <trkpt lat="34.81519520426215" lon="113.53426321551075">
        <ele>98.49</ele>
        <time>2021-10-19T08:01:35Z</time>
      </trkpt>
      <trkpt lat="34.81519236724441" lon="113.53417288480516">
        <ele>101.77</ele>
        <time>2021-10-19T08:01:40Z</time>
      </trkpt>
      <trkpt lat="34.8152090360836" lon="113.53407682163247">
        <ele>104.55</ele>
        <time>2021-10-19T08:01:45Z</time>
      </trkpt>
      <trkpt lat="34.81522403807214" lon="113.53417820083615">
        <ele>105.56</ele>
        <time>2021-10-19T08:02:01Z</time>
      </trkpt>
      <trkpt lat="34.81528446607326" lon="113.53399773032571">
        <ele>110.49</ele>
        <time>2021-10-19T08:02:26Z</time>
      </trkpt>
      <trkpt lat="34.815281680824384" lon="113.5338114985041">
        <ele>110.37</ele>
        <time>2021-10-19T08:02:35Z</time>
      </trkpt>
      <trkpt lat="34.815294699149554" lon="113.53369181404216">
        <ele>107.84</ele>
        <time>2021-10-19T08:02:39Z</time>
      </trkpt>
      <trkpt lat="34.815239315059415" lon="113.53348804581375">
        <ele>104.69</ele>
        <time>2021-10-19T08:02:44Z</time>
      </trkpt>
      <trkpt lat="34.81516583818649" lon="113.53342191584997">
        <ele>101.88</ele>
        <time>2021-10-19T08:02:48Z</time>
      </trkpt>
      <trkpt lat="34.81481339456434" lon="113.53344521318536">
        <ele>96.67</ele>
        <time>2021-10-19T08:03:01Z</time>
      </trkpt>
      <trkpt lat="34.81473982849489" lon="113.53341820249196">
        <ele>95.14</ele>
        <time>2021-10-19T08:03:05Z</time>
      </trkpt>
      <trkpt lat="34.814308464082885" lon="113.53341205481034">
        <ele>84.65</ele>
        <time>2021-10-19T08:03:24Z</time>
      </trkpt>
      <trkpt lat="34.814225280090135" lon="113.53342502708023">
        <ele>83.03</ele>
        <time>2021-10-19T08:03:27Z</time>
      </trkpt>
      <trkpt lat="34.81371184067195" lon="113.5334021572852">
        <ele>78.21</ele>
        <time>2021-10-19T08:03:49Z</time>
      </trkpt>
      <trkpt lat="34.813453599495546" lon="113.53337637311706">
        <ele>79.23</ele>
        <time>2021-10-19T08:04:00Z</time>
      </trkpt>
      <trkpt lat="34.813284603467956" lon="113.53340260752502">
        <ele>80.64</ele>
        <time>2021-10-19T08:04:07Z</time>
      </trkpt>
      <trkpt lat="34.813187647285204" lon="113.53338386061534">
        <ele>80.3</ele>
        <time>2021-10-19T08:04:11Z</time>
      </trkpt>
      <trkpt lat="34.81286193007045" lon="113.53336379713122">
        <ele>79.8</ele>
        <time>2021-10-19T08:04:27Z</time>
      </trkpt>
      <trkpt lat="34.812777984269474" lon="113.53334379773">
        <ele>80.57</ele>
        <time>2021-10-19T08:04:31Z</time>
      </trkpt>
      <trkpt lat="34.81262141612181" lon="113.53336390150021">
        <ele>81.9</ele>
        <time>2021-10-19T08:04:39Z</time>
      </trkpt>
      <trkpt lat="34.812125977507016" lon="113.53332155751289">
        <ele>83.49</ele>
        <time>2021-10-19T08:04:58Z</time>
      </trkpt>
      <trkpt lat="34.81188579378912" lon="113.53330887568471">
        <ele>86.85</ele>
        <time>2021-10-19T08:05:07Z</time>
      </trkpt>
      <trkpt lat="34.81180149522056" lon="113.5332845000388">
        <ele>88.79</ele>
        <time>2021-10-19T08:05:11Z</time>
      </trkpt>
      <trkpt lat="34.811880719908835" lon="113.53332456369058">
        <ele>91.32</ele>
        <time>2021-10-19T08:05:19Z</time>
      </trkpt>
      <trkpt lat="34.81204989232132" lon="113.53334623231831">
        <ele>90.72</ele>
        <time>2021-10-19T08:05:26Z</time>
      </trkpt>
      <trkpt lat="34.81213826998253" lon="113.53332655225101">
        <ele>90.06</ele>
        <time>2021-10-19T08:05:30Z</time>
      </trkpt>
      <trkpt lat="34.81257732142252" lon="113.53337326899907">
        <ele>85.51</ele>
        <time>2021-10-19T08:05:45Z</time>
      </trkpt>
      <trkpt lat="34.81303133677124" lon="113.53338528856865">
        <ele>81.76</ele>
        <time>2021-10-19T08:06:00Z</time>
      </trkpt>
      <trkpt lat="34.81353397759328" lon="113.53339619533845">
        <ele>83.34</ele>
        <time>2021-10-19T08:06:18Z</time>
      </trkpt>
      <trkpt lat="34.813685156448976" lon="113.53339803568564">
        <ele>84.52</ele>
        <time>2021-10-19T08:06:24Z</time>
      </trkpt>
      <trkpt lat="34.81376567023769" lon="113.53342310816124">
        <ele>84.45</ele>
        <time>2021-10-19T08:06:27Z</time>
      </trkpt>
      <trkpt lat="34.81402749628758" lon="113.53341955361473">
        <ele>83.74</ele>
        <time>2021-10-19T08:06:36Z</time>
      </trkpt>
      <trkpt lat="34.814114773593424" lon="113.53340325905707">
        <ele>84.51</ele>
        <time>2021-10-19T08:06:39Z</time>
      </trkpt>
      <trkpt lat="34.81419396468633" lon="113.53336637555512">
        <ele>85.4</ele>
        <time>2021-10-19T08:06:42Z</time>
      </trkpt>
      <trkpt lat="34.81423202980566" lon="113.53328489165735">
        <ele>86.19</ele>
        <time>2021-10-19T08:06:45Z</time>
      </trkpt>
      <trkpt lat="34.814249848559" lon="113.53274075312237">
        <ele>86.7</ele>
        <time>2021-10-19T08:07:02Z</time>
      </trkpt>
      <trkpt lat="34.814262888241316" lon="113.53254838388825">
        <ele>87.04</ele>
        <time>2021-10-19T08:07:09Z</time>
      </trkpt>
      <trkpt lat="34.81430214118392" lon="113.53245945818867">
        <ele>86.17</ele>
        <time>2021-10-19T08:07:13Z</time>
      </trkpt>
      <trkpt lat="34.81446401573845" lon="113.53244470028535">
        <ele>85.4</ele>
        <time>2021-10-19T08:07:22Z</time>
      </trkpt>
      <trkpt lat="34.814506391197504" lon="113.53236565714315">
        <ele>86.23</ele>
        <time>2021-10-19T08:07:26Z</time>
      </trkpt>
      <trkpt lat="34.81453287257839" lon="113.5321776976848">
        <ele>88.38</ele>
        <time>2021-10-19T08:07:34Z</time>
      </trkpt>
      <trkpt lat="34.814519409477334" lon="113.5320890317621">
        <ele>88.91</ele>
        <time>2021-10-19T08:07:38Z</time>
      </trkpt>
      <trkpt lat="34.814559776425696" lon="113.53147284555122">
        <ele>89.78</ele>
        <time>2021-10-19T08:08:02Z</time>
      </trkpt>
      <trkpt lat="34.81457125702125" lon="113.53128166708012">
        <ele>88.2</ele>
        <time>2021-10-19T08:08:11Z</time>
      </trkpt>
      <trkpt lat="34.814648363193534" lon="113.53127144420583">
        <ele>86.07</ele>
        <time>2021-10-19T08:08:20Z</time>
      </trkpt>
      <trkpt lat="34.81506972464193" lon="113.531337637759">
        <ele>80.9</ele>
        <time>2021-10-19T08:08:39Z</time>
      </trkpt>
      <trkpt lat="34.81532614358543" lon="113.53140771450013">
        <ele>80.54</ele>
        <time>2021-10-19T08:08:51Z</time>
      </trkpt>
      <trkpt lat="34.81567309754978" lon="113.5314654161719">
        <ele>78.59</ele>
        <time>2021-10-19T08:09:06Z</time>
      </trkpt>
      <trkpt lat="34.81575131464679" lon="113.5314947448659">
        <ele>78.05</ele>
        <time>2021-10-19T08:09:11Z</time>
      </trkpt>
      <trkpt lat="34.815789149922836" lon="113.53168507985481">
        <ele>78.29</ele>
        <time>2021-10-19T08:09:19Z</time>
      </trkpt>
      <trkpt lat="34.81572045141836" lon="113.53172361159776">
        <ele>80.13</ele>
        <time>2021-10-19T08:09:24Z</time>
      </trkpt>
      <trkpt lat="34.81576067865267" lon="113.53179823428354">
        <ele>85.81</ele>
        <time>2021-10-19T08:09:48Z</time>
      </trkpt>
      <trkpt lat="34.81569851252942" lon="113.5320684032679">
        <ele>93.15</ele>
        <time>2021-10-19T08:10:11Z</time>
      </trkpt>
      <trkpt lat="34.81566355476793" lon="113.53215809275505">
        <ele>93.3</ele>
        <time>2021-10-19T08:10:20Z</time>
      </trkpt>
      <trkpt lat="34.81560693954415" lon="113.53222631931507">
        <ele>95.5</ele>
        <time>2021-10-19T08:10:38Z</time>
      </trkpt>
      <trkpt lat="34.815532437051054" lon="113.53221508703147">
        <ele>93.3</ele>
        <time>2021-10-19T08:10:44Z</time>
      </trkpt>
      <trkpt lat="34.81549142547906" lon="113.5321277450642">
        <ele>93.3</ele>
        <time>2021-10-19T08:11:36Z</time>
      </trkpt>
      <trkpt lat="34.81555370501297" lon="113.53235241903688">
        <ele>78.89</ele>
        <time>2021-10-19T08:12:00Z</time>
      </trkpt>
      <trkpt lat="34.815631354453394" lon="113.53240865985872">
        <ele>93.3</ele>
        <time>2021-10-19T08:12:02Z</time>
      </trkpt>
      <trkpt lat="34.815872116324826" lon="113.53218532410953">
        <ele>89.78</ele>
        <time>2021-10-19T08:23:24Z</time>
      </trkpt>
      <trkpt lat="34.815889653460445" lon="113.53208852386484">
        <ele>89.21</ele>
        <time>2021-10-19T08:23:31Z</time>
      </trkpt>
      <trkpt lat="34.81584634559082" lon="113.53200480126624">
        <ele>91.9</ele>
        <time>2021-10-19T08:23:36Z</time>
      </trkpt>
      <trkpt lat="34.81572287730775" lon="113.53189178262978">
        <ele>94.24</ele>
        <time>2021-10-19T08:23:41Z</time>
      </trkpt>
      <trkpt lat="34.81556748746245" lon="113.53167031820905">
        <ele>86.01</ele>
        <time>2021-10-19T08:24:37Z</time>
      </trkpt>
      <trkpt lat="34.81557452837158" lon="113.53157084116859">
        <ele>85.69</ele>
        <time>2021-10-19T08:24:41Z</time>
      </trkpt>
      <trkpt lat="34.81561501090616" lon="113.53149683949111">
        <ele>85.32</ele>
        <time>2021-10-19T08:24:44Z</time>
      </trkpt>
      <trkpt lat="34.81569264031365" lon="113.53150634560643">
        <ele>85.45</ele>
        <time>2021-10-19T08:24:47Z</time>
      </trkpt>
      <trkpt lat="34.816196267266065" lon="113.531532507379">
        <ele>85.51</ele>
        <time>2021-10-19T08:25:15Z</time>
      </trkpt>
      <trkpt lat="34.816700645303364" lon="113.53161818593061">
        <ele>83.67</ele>
        <time>2021-10-19T08:25:27Z</time>
      </trkpt>
      <trkpt lat="34.817172192120985" lon="113.53164473375554">
        <ele>82.97</ele>
        <time>2021-10-19T08:25:42Z</time>
      </trkpt>
      <trkpt lat="34.81764286473277" lon="113.53168622540665">
        <ele>81.51</ele>
        <time>2021-10-19T08:25:56Z</time>
      </trkpt>
      <trkpt lat="34.818153019823995" lon="113.53167337099956">
        <ele>83.68</ele>
        <time>2021-10-19T08:26:10Z</time>
      </trkpt>
      <trkpt lat="34.81835061627874" lon="113.53167392431502">
        <ele>83.42</ele>
        <time>2021-10-19T08:26:14Z</time>
      </trkpt>
      <trkpt lat="34.818856080442416" lon="113.53171842214851">
        <ele>84.34</ele>
        <time>2021-10-19T08:26:24Z</time>
      </trkpt>
      <trkpt lat="34.819033502484075" lon="113.53174556668948">
        <ele>83.73</ele>
        <time>2021-10-19T08:26:30Z</time>
      </trkpt>
      <trkpt lat="34.819496525169484" lon="113.53172704969313">
        <ele>82.7</ele>
        <time>2021-10-19T08:26:42Z</time>
      </trkpt>
      <trkpt lat="34.81996498994581" lon="113.53171880863513">
        <ele>82.64</ele>
        <time>2021-10-19T08:26:50Z</time>
      </trkpt>
      <trkpt lat="34.820413465514825" lon="113.53168135285254">
        <ele>82.59</ele>
        <time>2021-10-19T08:27:00Z</time>
      </trkpt>
      <trkpt lat="34.82090953311643" lon="113.53166472132699">
        <ele>83.18</ele>
        <time>2021-10-19T08:27:10Z</time>
      </trkpt>
      <trkpt lat="34.82119321676131" lon="113.53165592963056">
        <ele>83.25</ele>
        <time>2021-10-19T08:27:18Z</time>
      </trkpt>
      <trkpt lat="34.821375508484934" lon="113.53158571821663">
        <ele>83.4</ele>
        <time>2021-10-19T08:27:24Z</time>
      </trkpt>
      <trkpt lat="34.82141282852897" lon="113.53150848659547">
        <ele>83.2</ele>
        <time>2021-10-19T08:27:26Z</time>
      </trkpt>
      <trkpt lat="34.82142941366992" lon="113.53141991402443">
        <ele>82.25</ele>
        <time>2021-10-19T08:27:29Z</time>
      </trkpt>
      <trkpt lat="34.821514279037395" lon="113.53143301689569">
        <ele>84.14</ele>
        <time>2021-10-19T08:27:39Z</time>
      </trkpt>
      <trkpt lat="34.82196394847788" lon="113.53135910349856">
        <ele>85.43</ele>
        <time>2021-10-19T08:27:55Z</time>
      </trkpt>
      <trkpt lat="34.82203854519768" lon="113.53133477236912">
        <ele>85.13</ele>
        <time>2021-10-19T08:27:58Z</time>
      </trkpt>
      <trkpt lat="34.8222138135472" lon="113.53138654636142">
        <ele>84.35</ele>
        <time>2021-10-19T08:28:06Z</time>
      </trkpt>
      <trkpt lat="34.82230872503346" lon="113.53137078323886">
        <ele>83.12</ele>
        <time>2021-10-19T08:28:09Z</time>
      </trkpt>
      <trkpt lat="34.82238316195371" lon="113.53133816892924">
        <ele>83.17</ele>
        <time>2021-10-19T08:28:12Z</time>
      </trkpt>
      <trkpt lat="34.822409323211886" lon="113.53119645910465">
        <ele>83.6</ele>
        <time>2021-10-19T08:28:15Z</time>
      </trkpt>
      <trkpt lat="34.82239969324421" lon="113.53087404385658">
        <ele>83.13</ele>
        <time>2021-10-19T08:28:19Z</time>
      </trkpt>
      <trkpt lat="34.82244952457273" lon="113.530266632537">
        <ele>83.88</ele>
        <time>2021-10-19T08:28:26Z</time>
      </trkpt>
      <trkpt lat="34.82247673439148" lon="113.5297082039276">
        <ele>82.96</ele>
        <time>2021-10-19T08:28:33Z</time>
      </trkpt>
      <trkpt lat="34.82247466306022" lon="113.52923338262772">
        <ele>82.27</ele>
        <time>2021-10-19T08:28:41Z</time>
      </trkpt>
      <trkpt lat="34.82250943328913" lon="113.52859026644256">
        <ele>84.15</ele>
        <time>2021-10-19T08:28:56Z</time>
      </trkpt>
      <trkpt lat="34.82252044834012" lon="113.52826765539957">
        <ele>82.83</ele>
        <time>2021-10-19T08:29:04Z</time>
      </trkpt>
      <trkpt lat="34.822508501883995" lon="113.52814890887312">
        <ele>82.18</ele>
        <time>2021-10-19T08:29:07Z</time>
      </trkpt>
      <trkpt lat="34.8225578430709" lon="113.52763882074814">
        <ele>83.04</ele>
        <time>2021-10-19T08:29:18Z</time>
      </trkpt>
      <trkpt lat="34.822561582313476" lon="113.52707407512294">
        <ele>81.43</ele>
        <time>2021-10-19T08:29:30Z</time>
      </trkpt>
      <trkpt lat="34.822576112098794" lon="113.52649152351911">
        <ele>79.6</ele>
        <time>2021-10-19T08:29:45Z</time>
      </trkpt>
      <trkpt lat="34.822618165790466" lon="113.52590076573874">
        <ele>79.13</ele>
        <time>2021-10-19T08:29:59Z</time>
      </trkpt>
      <trkpt lat="34.82261655663518" lon="113.52531156251806">
        <ele>81.89</ele>
        <time>2021-10-19T08:30:14Z</time>
      </trkpt>
      <trkpt lat="34.82264708862033" lon="113.52496566375451">
        <ele>87.81</ele>
        <time>2021-10-19T08:30:23Z</time>
      </trkpt>
      <trkpt lat="34.82267977389554" lon="113.52488591317818">
        <ele>87.62</ele>
        <time>2021-10-19T08:30:26Z</time>
      </trkpt>
      <trkpt lat="34.82275987739035" lon="113.52486796851545">
        <ele>86.71</ele>
        <time>2021-10-19T08:30:29Z</time>
      </trkpt>
      <trkpt lat="34.8232084551963" lon="113.5249626076737">
        <ele>85.37</ele>
        <time>2021-10-19T08:30:44Z</time>
      </trkpt>
      <trkpt lat="34.82365488083573" lon="113.5250346279377">
        <ele>88.64</ele>
        <time>2021-10-19T08:30:58Z</time>
      </trkpt>
      <trkpt lat="34.82372844979011" lon="113.5250450798305">
        <ele>89.93</ele>
        <time>2021-10-19T08:31:01Z</time>
      </trkpt>
      <trkpt lat="34.82380220840219" lon="113.525017976886">
        <ele>91.54</ele>
        <time>2021-10-19T08:31:05Z</time>
      </trkpt>
      <trkpt lat="34.82389102985611" lon="113.52502493931539">
        <ele>93.4</ele>
        <time>2021-10-19T08:31:22Z</time>
      </trkpt>
      <trkpt lat="34.8239675335293" lon="113.52505677510912">
        <ele>93.96</ele>
        <time>2021-10-19T08:31:28Z</time>
      </trkpt>
      <trkpt lat="34.82411359820716" lon="113.52504259258743">
        <ele>95.05</ele>
        <time>2021-10-19T08:31:42Z</time>
      </trkpt>
      <trkpt lat="34.82434572518998" lon="113.5250750222192">
        <ele>90.94</ele>
        <time>2021-10-19T08:32:01Z</time>
      </trkpt>
      <trkpt lat="34.824429471907514" lon="113.52505707884146">
        <ele>92.21</ele>
        <time>2021-10-19T08:32:08Z</time>
      </trkpt>
      <trkpt lat="34.824482069785454" lon="113.52498152648454">
        <ele>87.74</ele>
        <time>2021-10-19T08:32:24Z</time>
      </trkpt>
      <trkpt lat="34.82444560577865" lon="113.52489602616393">
        <ele>79.42</ele>
        <time>2021-10-19T08:32:43Z</time>
      </trkpt>
      <trkpt lat="34.824312911088526" lon="113.52480112272808">
        <ele>77.24</ele>
        <time>2021-10-19T08:32:57Z</time>
      </trkpt>
      <trkpt lat="34.82415435368322" lon="113.52481151905947">
        <ele>75.66</ele>
        <time>2021-10-19T08:33:14Z</time>
      </trkpt>
      <trkpt lat="34.82411904644864" lon="113.52472717784316">
        <ele>76.39</ele>
        <time>2021-10-19T08:33:35Z</time>
      </trkpt>
      <trkpt lat="34.824170255012106" lon="113.52479555026952">
        <ele>82.81</ele>
        <time>2021-10-19T08:34:14Z</time>
      </trkpt>
      <trkpt lat="34.82403434755919" lon="113.52489253813813">
        <ele>66.4</ele>
        <time>2021-10-19T08:35:35Z</time>
      </trkpt>
      <trkpt lat="34.82400875649911" lon="113.52497879434247">
        <ele>68.58</ele>
        <time>2021-10-19T08:35:44Z</time>
      </trkpt>
      <trkpt lat="34.823945549244925" lon="113.525024822093">
        <ele>88.07</ele>
        <time>2021-10-19T08:36:13Z</time>
      </trkpt>
      <trkpt lat="34.823875588858755" lon="113.52500407708965">
        <ele>90.91</ele>
        <time>2021-10-19T08:36:19Z</time>
      </trkpt>
      <trkpt lat="34.82371747272512" lon="113.52499179078781">
        <ele>89.46</ele>
        <time>2021-10-19T08:36:34Z</time>
      </trkpt>
      <trkpt lat="34.823576696651216" lon="113.5249106566047">
        <ele>86.32</ele>
        <time>2021-10-19T08:36:47Z</time>
      </trkpt>
      <trkpt lat="34.82341346120024" lon="113.5249035662503">
        <ele>84.02</ele>
        <time>2021-10-19T08:37:02Z</time>
      </trkpt>
      <trkpt lat="34.8232626357185" lon="113.52492380154169">
        <ele>83.99</ele>
        <time>2021-10-19T08:37:12Z</time>
      </trkpt>
      <trkpt lat="34.823186738932144" lon="113.52488106859848">
        <ele>82.12</ele>
        <time>2021-10-19T08:37:20Z</time>
      </trkpt>
      <trkpt lat="34.822794091714854" lon="113.52482831623637">
        <ele>81.45</ele>
        <time>2021-10-19T08:37:51Z</time>
      </trkpt>
      <trkpt lat="34.82271664027082" lon="113.52483743685146">
        <ele>82.77</ele>
        <time>2021-10-19T08:37:57Z</time>
      </trkpt>
      <trkpt lat="34.822261695900494" lon="113.52476767996492">
        <ele>84.38</ele>
        <time>2021-10-19T08:38:36Z</time>
      </trkpt>
      <trkpt lat="34.822104349530214" lon="113.52475926685185">
        <ele>85.23</ele>
        <time>2021-10-19T08:38:48Z</time>
      </trkpt>
      <trkpt lat="34.821962968308135" lon="113.52471261338442">
        <ele>84.28</ele>
        <time>2021-10-19T08:39:01Z</time>
      </trkpt>
      <trkpt lat="34.821584907156016" lon="113.52468428888832">
        <ele>85.82</ele>
        <time>2021-10-19T08:39:31Z</time>
      </trkpt>
      <trkpt lat="34.82111222570867" lon="113.52458550685476">
        <ele>84.44</ele>
        <time>2021-10-19T08:40:07Z</time>
      </trkpt>
      <trkpt lat="34.82103605977511" lon="113.52460118079728">
        <ele>85.04</ele>
        <time>2021-10-19T08:40:15Z</time>
      </trkpt>
      <trkpt lat="34.82080560315671" lon="113.5245436550883">
        <ele>85.28</ele>
        <time>2021-10-19T08:40:34Z</time>
      </trkpt>
      <trkpt lat="34.82035748681847" lon="113.52449786618422">
        <ele>84.08</ele>
        <time>2021-10-19T08:41:12Z</time>
      </trkpt>
      <trkpt lat="34.82004087959116" lon="113.52444742391265">
        <ele>82.54</ele>
        <time>2021-10-19T08:41:37Z</time>
      </trkpt>
      <trkpt lat="34.819732955941845" lon="113.52443389037941">
        <ele>82.83</ele>
        <time>2021-10-19T08:41:59Z</time>
      </trkpt>
      <trkpt lat="34.819439585615015" lon="113.52438913425897">
        <ele>81.09</ele>
        <time>2021-10-19T08:42:23Z</time>
      </trkpt>
      <trkpt lat="34.81913446353659" lon="113.52435641165283">
        <ele>83.53</ele>
        <time>2021-10-19T08:42:47Z</time>
      </trkpt>
      <trkpt lat="34.81898173674179" lon="113.52431696977116">
        <ele>83.15</ele>
        <time>2021-10-19T08:42:59Z</time>
      </trkpt>
      <trkpt lat="34.81890195797354" lon="113.52433905595484">
        <ele>82.13</ele>
        <time>2021-10-19T08:43:05Z</time>
      </trkpt>
      <trkpt lat="34.81882209024775" lon="113.52433585029233">
        <ele>82.22</ele>
        <time>2021-10-19T08:43:11Z</time>
      </trkpt>
      <trkpt lat="34.81859036377513" lon="113.52427361588559">
        <ele>82.33</ele>
        <time>2021-10-19T08:43:32Z</time>
      </trkpt>
      <trkpt lat="34.818109965950335" lon="113.52424502214717">
        <ele>80.95</ele>
        <time>2021-10-19T08:44:11Z</time>
      </trkpt>
      <trkpt lat="34.817799497720074" lon="113.52419766498377">
        <ele>77.27</ele>
        <time>2021-10-19T08:44:36Z</time>
      </trkpt>
      <trkpt lat="34.817774787425726" lon="113.52429589333612">
        <ele>79.75</ele>
        <time>2021-10-19T08:44:44Z</time>
      </trkpt>
      <trkpt lat="34.817708077109195" lon="113.52437538787807">
        <ele>79.38</ele>
        <time>2021-10-19T08:44:48Z</time>
      </trkpt>
      <trkpt lat="34.81772924821432" lon="113.52455620416052">
        <ele>79.47</ele>
        <time>2021-10-19T08:45:00Z</time>
      </trkpt>
      <trkpt lat="34.81771740348497" lon="113.52465163672517">
        <ele>79.4</ele>
        <time>2021-10-19T08:45:07Z</time>
      </trkpt>
      <trkpt lat="34.81744358689687" lon="113.524824330065">
        <ele>81.47</ele>
        <time>2021-10-19T08:45:35Z</time>
      </trkpt>
      <trkpt lat="34.817230172692" lon="113.52508807385439">
        <ele>81.63</ele>
        <time>2021-10-19T08:45:59Z</time>
      </trkpt>
      <trkpt lat="34.81715542290259" lon="113.52511270141264">
        <ele>82.02</ele>
        <time>2021-10-19T08:46:09Z</time>
      </trkpt>
      <trkpt lat="34.81692071474991" lon="113.52504173100611">
        <ele>82.83</ele>
        <time>2021-10-19T08:46:28Z</time>
      </trkpt>
      <trkpt lat="34.81676518842575" lon="113.52503199830782">
        <ele>82.55</ele>
        <time>2021-10-19T08:46:40Z</time>
      </trkpt>
      <trkpt lat="34.81669387075418" lon="113.5250458105732">
        <ele>82.43</ele>
        <time>2021-10-19T08:46:48Z</time>
      </trkpt>
      <trkpt lat="34.816622793448275" lon="113.52503089277624">
        <ele>81.22</ele>
        <time>2021-10-19T08:46:52Z</time>
      </trkpt>
      <trkpt lat="34.81654515324352" lon="113.52503867356886">
        <ele>80.72</ele>
        <time>2021-10-19T08:46:57Z</time>
      </trkpt>
      <trkpt lat="34.81639852894472" lon="113.52500913718974">
        <ele>80.0</ele>
        <time>2021-10-19T08:47:09Z</time>
      </trkpt>
      <trkpt lat="34.816370681356325" lon="113.52509588610991">
        <ele>79.87</ele>
        <time>2021-10-19T08:47:16Z</time>
      </trkpt>
      <trkpt lat="34.81636836229899" lon="113.52519401709473">
        <ele>79.46</ele>
        <time>2021-10-19T08:47:21Z</time>
      </trkpt>
      <trkpt lat="34.81642547289089" lon="113.52513791710129">
        <ele>79.92</ele>
        <time>2021-10-19T08:47:34Z</time>
      </trkpt>
      <trkpt lat="34.81649247486502" lon="113.52518929654552">
        <ele>82.54</ele>
        <time>2021-10-19T08:48:14Z</time>
      </trkpt>
      <trkpt lat="34.816567401446434" lon="113.52518678304597">
        <ele>82.59</ele>
        <time>2021-10-19T08:48:22Z</time>
      </trkpt>
      <trkpt lat="34.81661441859483" lon="113.5253611196653">
        <ele>82.55</ele>
        <time>2021-10-19T08:48:36Z</time>
      </trkpt>
      <trkpt lat="34.81659548489579" lon="113.52557321149749">
        <ele>82.47</ele>
        <time>2021-10-19T08:48:51Z</time>
      </trkpt>
      <trkpt lat="34.816127993616455" lon="113.52562588122765">
        <ele>108.53</ele>
        <time>2021-10-19T08:49:25Z</time>
      </trkpt>
      <trkpt lat="34.815864289448456" lon="113.52566654091821">
        <ele>115.92</ele>
        <time>2021-10-19T08:49:34Z</time>
      </trkpt>
      <trkpt lat="34.816023201373675" lon="113.52570717667939">
        <ele>115.8</ele>
        <time>2021-10-19T08:49:39Z</time>
      </trkpt>
      <trkpt lat="34.81613239919383" lon="113.5256864590497">
        <ele>104.91</ele>
        <time>2021-10-19T08:49:43Z</time>
      </trkpt>
      <trkpt lat="34.81614997018378" lon="113.5257734502762">
        <ele>101.01</ele>
        <time>2021-10-19T08:49:53Z</time>
      </trkpt>
      <trkpt lat="34.816215737412136" lon="113.52581677685897">
        <ele>94.81</ele>
        <time>2021-10-19T08:50:05Z</time>
      </trkpt>
      <trkpt lat="34.81627045349482" lon="113.5257427344106">
        <ele>92.85</ele>
        <time>2021-10-19T08:50:10Z</time>
      </trkpt>
      <trkpt lat="34.816359945964706" lon="113.52569432280707">
        <ele>88.57</ele>
        <time>2021-10-19T08:50:13Z</time>
      </trkpt>
      <trkpt lat="34.81649275206662" lon="113.52566339613836">
        <ele>81.39</ele>
        <time>2021-10-19T08:50:16Z</time>
      </trkpt>
      <trkpt lat="34.816556747220226" lon="113.52562108945506">
        <ele>72.73</ele>
        <time>2021-10-19T08:50:20Z</time>
      </trkpt>
      <trkpt lat="34.81660528999515" lon="113.5256934946789">
        <ele>69.16</ele>
        <time>2021-10-19T08:50:30Z</time>
      </trkpt>
      <trkpt lat="34.81682883049834" lon="113.52566799292768">
        <ele>69.16</ele>
        <time>2021-10-19T08:50:37Z</time>
      </trkpt>
      <trkpt lat="34.816531929836245" lon="113.52568589556161">
        <ele>69.16</ele>
        <time>2021-10-19T08:51:08Z</time>
      </trkpt>
      <trkpt lat="34.81629595738577" lon="113.52566171198065">
        <ele>69.16</ele>
        <time>2021-10-19T08:51:15Z</time>
      </trkpt>
      <trkpt lat="34.81621678458593" lon="113.5256751933294">
        <ele>69.16</ele>
        <time>2021-10-19T08:51:23Z</time>
      </trkpt>
      <trkpt lat="34.81630355861662" lon="113.52572500187334">
        <ele>69.16</ele>
        <time>2021-10-19T08:51:53Z</time>
      </trkpt>
      <trkpt lat="34.81630101581588" lon="113.52563166353289">
        <ele>69.16</ele>
        <time>2021-10-19T08:52:07Z</time>
      </trkpt>
      <trkpt lat="34.816367938588044" lon="113.52559689343282">
        <ele>69.16</ele>
        <time>2021-10-19T08:52:09Z</time>
      </trkpt>
      <trkpt lat="34.816439816564966" lon="113.52558788841661">
        <ele>69.16</ele>
        <time>2021-10-19T08:52:13Z</time>
      </trkpt>
      <trkpt lat="34.816338630352845" lon="113.52557486050247">
        <ele>69.16</ele>
        <time>2021-10-19T08:52:22Z</time>
      </trkpt>
      <trkpt lat="34.8162674563106" lon="113.52563566196983">
        <ele>69.16</ele>
        <time>2021-10-19T08:52:33Z</time>
      </trkpt>
      <trkpt lat="34.81600098664476" lon="113.52558501639982">
        <ele>69.16</ele>
        <time>2021-10-19T08:52:44Z</time>
      </trkpt>
      <trkpt lat="34.81604902901786" lon="113.52565562447904">
        <ele>69.16</ele>
        <time>2021-10-19T08:53:06Z</time>
      </trkpt>
      <trkpt lat="34.816116509170435" lon="113.52570133761068">
        <ele>69.16</ele>
        <time>2021-10-19T08:53:15Z</time>
      </trkpt>
      <trkpt lat="34.81593999608824" lon="113.52570350808232">
        <ele>69.16</ele>
        <time>2021-10-19T08:53:29Z</time>
      </trkpt>
      <trkpt lat="34.81602596531316" lon="113.52565042537559">
        <ele>69.16</ele>
        <time>2021-10-19T08:53:43Z</time>
      </trkpt>
      <trkpt lat="34.81599601364815" lon="113.52555417222874">
        <ele>69.16</ele>
        <time>2021-10-19T08:53:49Z</time>
      </trkpt>
      <trkpt lat="34.815944323784464" lon="113.5254830501171">
        <ele>69.16</ele>
        <time>2021-10-19T08:54:00Z</time>
      </trkpt>
      <trkpt lat="34.81587115779632" lon="113.52547746618148">
        <ele>69.16</ele>
        <time>2021-10-19T08:54:06Z</time>
      </trkpt>
      <trkpt lat="34.815953394075514" lon="113.5254449934025">
        <ele>69.16</ele>
        <time>2021-10-19T08:54:15Z</time>
      </trkpt>
      <trkpt lat="34.81600646896397" lon="113.52551388514692">
        <ele>104.84</ele>
        <time>2021-10-19T08:54:44Z</time>
      </trkpt>
      <trkpt lat="34.81615712325178" lon="113.52556043617132">
        <ele>104.84</ele>
        <time>2021-10-19T08:54:55Z</time>
      </trkpt>
      <trkpt lat="34.81623782414246" lon="113.52555301216069">
        <ele>103.39</ele>
        <time>2021-10-19T08:55:04Z</time>
      </trkpt>
      <trkpt lat="34.81616112537249" lon="113.52559397871083">
        <ele>103.39</ele>
        <time>2021-10-19T08:55:08Z</time>
      </trkpt>
      <trkpt lat="34.81625640763637" lon="113.52559218295687">
        <ele>103.39</ele>
        <time>2021-10-19T08:55:18Z</time>
      </trkpt>
      <trkpt lat="34.81618711155956" lon="113.52564208299054">
        <ele>103.39</ele>
        <time>2021-10-19T08:55:24Z</time>
      </trkpt>
      <trkpt lat="34.81611052330471" lon="113.52564371124194">
        <ele>103.39</ele>
        <time>2021-10-19T08:56:50Z</time>
      </trkpt>
      <trkpt lat="34.81625459849534" lon="113.52560597823023">
        <ele>103.39</ele>
        <time>2021-10-19T08:57:02Z</time>
      </trkpt>
      <trkpt lat="34.81498046675599" lon="113.5255616944117">
        <ele>198.48</ele>
        <time>2021-10-19T10:12:55Z</time>
      </trkpt>
      <trkpt lat="34.81504626038451" lon="113.52565802431184">
        <ele>206.18</ele>
        <time>2021-10-19T10:12:56Z</time>
      </trkpt>
      <trkpt lat="34.81539410002266" lon="113.52586304146192">
        <ele>204.3</ele>
        <time>2021-10-19T10:12:58Z</time>
      </trkpt>
      <trkpt lat="34.815574585551495" lon="113.52578831819599">
        <ele>166.63</ele>
        <time>2021-10-19T10:13:00Z</time>
      </trkpt>
      <trkpt lat="34.81569021160996" lon="113.5256544101258">
        <ele>144.55</ele>
        <time>2021-10-19T10:13:01Z</time>
      </trkpt>
      <trkpt lat="34.81616586377498" lon="113.52575066383682">
        <ele>101.23</ele>
        <time>2021-10-19T10:13:05Z</time>
      </trkpt>
      <trkpt lat="34.81626684401345" lon="113.52572452743773">
        <ele>99.63</ele>
        <time>2021-10-19T10:13:06Z</time>
      </trkpt>
      <trkpt lat="34.816413336225544" lon="113.52574335748102">
        <ele>80.33</ele>
        <time>2021-10-19T10:13:08Z</time>
      </trkpt>
      <trkpt lat="34.816533625877184" lon="113.52577939504432">
        <ele>67.62</ele>
        <time>2021-10-19T10:13:10Z</time>
      </trkpt>
      <trkpt lat="34.816852099158375" lon="113.52579327453628">
        <ele>45.2</ele>
        <time>2021-10-19T10:13:16Z</time>
      </trkpt>
      <trkpt lat="34.81695892526112" lon="113.5258282459967">
        <ele>48.11</ele>
        <time>2021-10-19T10:13:22Z</time>
      </trkpt>
      <trkpt lat="34.81701887605422" lon="113.52578510088944">
        <ele>39.21</ele>
        <time>2021-10-19T10:13:30Z</time>
      </trkpt>
      <trkpt lat="34.81714262619271" lon="113.52575487629188">
        <ele>20.89</ele>
        <time>2021-10-19T10:13:36Z</time>
      </trkpt>
      <trkpt lat="34.817214611678736" lon="113.52575742720313">
        <ele>17.41</ele>
        <time>2021-10-19T10:13:40Z</time>
      </trkpt>
      <trkpt lat="34.81668728678444" lon="113.5257912974377">
        <ele>62.07</ele>
        <time>2021-10-19T10:13:45Z</time>
      </trkpt>
      <trkpt lat="34.81654368142672" lon="113.52581627794645">
        <ele>70.93</ele>
        <time>2021-10-19T10:13:48Z</time>
      </trkpt>
      <trkpt lat="34.816847625648364" lon="113.5250529217033">
        <ele>59.6</ele>
        <time>2021-10-19T10:15:13Z</time>
      </trkpt>
      <trkpt lat="34.816713065827614" lon="113.52508678808611">
        <ele>55.3</ele>
        <time>2021-10-19T10:15:15Z</time>
      </trkpt>
      <trkpt lat="34.81659441955811" lon="113.52515523710487">
        <ele>55.3</ele>
        <time>2021-10-19T10:15:16Z</time>
      </trkpt>
      <trkpt lat="34.81642983699161" lon="113.52512995698005">
        <ele>56.05</ele>
        <time>2021-10-19T10:15:32Z</time>
      </trkpt>
      <trkpt lat="34.81634904767359" lon="113.52515245292213">
        <ele>56.15</ele>
        <time>2021-10-19T10:15:41Z</time>
      </trkpt>
      <trkpt lat="34.81659478367965" lon="113.5252796197054">
        <ele>82.98</ele>
        <time>2021-10-19T10:16:06Z</time>
      </trkpt>
      <trkpt lat="34.816554213543206" lon="113.52510209559998">
        <ele>58.28</ele>
        <time>2021-10-19T10:16:09Z</time>
      </trkpt>
      <trkpt lat="34.81647800680715" lon="113.5250685819255">
        <ele>60.79</ele>
        <time>2021-10-19T10:16:19Z</time>
      </trkpt>
      <trkpt lat="34.81639871995409" lon="113.52507376500843">
        <ele>63.27</ele>
        <time>2021-10-19T10:16:33Z</time>
      </trkpt>
      <trkpt lat="34.81632270693165" lon="113.52510596127105">
        <ele>66.02</ele>
        <time>2021-10-19T10:16:51Z</time>
      </trkpt>
      <trkpt lat="34.81627534683169" lon="113.52501876254726">
        <ele>69.17</ele>
        <time>2021-10-19T10:16:56Z</time>
      </trkpt>
      <trkpt lat="34.81629814249922" lon="113.52493059148003">
        <ele>71.02</ele>
        <time>2021-10-19T10:17:01Z</time>
      </trkpt>
      <trkpt lat="34.81642591847992" lon="113.52483817074139">
        <ele>80.92</ele>
        <time>2021-10-19T10:17:12Z</time>
      </trkpt>
      <trkpt lat="34.81633877038243" lon="113.5246884800537">
        <ele>80.43</ele>
        <time>2021-10-19T10:17:29Z</time>
      </trkpt>
      <trkpt lat="34.81631783200817" lon="113.52459981302283">
        <ele>79.63</ele>
        <time>2021-10-19T10:17:38Z</time>
      </trkpt>
      <trkpt lat="34.816387458212034" lon="113.52457715521916">
        <ele>87.17</ele>
        <time>2021-10-19T10:18:01Z</time>
      </trkpt>
      <trkpt lat="34.8169263330711" lon="113.52465478301175">
        <ele>54.88</ele>
        <time>2021-10-19T10:29:00Z</time>
      </trkpt>
      <trkpt lat="34.81656724775947" lon="113.52456087941016">
        <ele>61.09</ele>
        <time>2021-10-19T10:29:01Z</time>
      </trkpt>
      <trkpt lat="34.81628598201727" lon="113.5247141575071">
        <ele>83.89</ele>
        <time>2021-10-19T10:31:47Z</time>
      </trkpt>
      <trkpt lat="34.816338602997654" lon="113.52460255285506">
        <ele>79.21</ele>
        <time>2021-10-19T10:31:50Z</time>
      </trkpt>
      <trkpt lat="34.81628867507412" lon="113.52461366175035">
        <ele>72.88</ele>
        <time>2021-10-19T10:31:52Z</time>
      </trkpt>
      <trkpt lat="34.816355579340545" lon="113.52447881426065">
        <ele>101.12</ele>
        <time>2021-10-19T10:31:58Z</time>
      </trkpt>
      <trkpt lat="34.81639267254345" lon="113.52455784105695">
        <ele>96.98</ele>
        <time>2021-10-19T10:32:10Z</time>
      </trkpt>
      <trkpt lat="34.816376641438566" lon="113.52466985616353">
        <ele>96.12</ele>
        <time>2021-10-19T10:32:16Z</time>
      </trkpt>
      <trkpt lat="34.81634598620493" lon="113.52476367332305">
        <ele>95.05</ele>
        <time>2021-10-19T10:32:21Z</time>
      </trkpt>
      <trkpt lat="34.8163742758699" lon="113.52484694365006">
        <ele>89.33</ele>
        <time>2021-10-19T10:32:43Z</time>
      </trkpt>
      <trkpt lat="34.81640076499492" lon="113.52503684033813">
        <ele>85.12</ele>
        <time>2021-10-19T10:33:01Z</time>
      </trkpt>
      <trkpt lat="34.816398473136395" lon="113.52513019427276">
        <ele>85.68</ele>
        <time>2021-10-19T10:33:07Z</time>
      </trkpt>
      <trkpt lat="34.81647994419693" lon="113.52513527520503">
        <ele>87.0</ele>
        <time>2021-10-19T10:33:45Z</time>
      </trkpt>
      <trkpt lat="34.81673140709023" lon="113.52585817549074">
        <ele>60.64</ele>
        <time>2021-10-19T10:37:40Z</time>
      </trkpt>
      <trkpt lat="34.816244230657716" lon="113.52556604971501">
        <ele>88.34</ele>
        <time>2021-10-19T10:37:43Z</time>
      </trkpt>
      <trkpt lat="34.81610291113131" lon="113.52556764091736">
        <ele>95.41</ele>
        <time>2021-10-19T10:37:45Z</time>
      </trkpt>
      <trkpt lat="34.81607347852501" lon="113.52568038133144">
        <ele>94.16</ele>
        <time>2021-10-19T10:37:51Z</time>
      </trkpt>
      <trkpt lat="34.81667577822749" lon="113.52559996703526">
        <ele>65.33</ele>
        <time>2021-10-19T10:39:40Z</time>
      </trkpt>
      <trkpt lat="34.81662326594863" lon="113.52568010797141">
        <ele>69.25</ele>
        <time>2021-10-19T10:39:41Z</time>
      </trkpt>
      <trkpt lat="34.81655541509516" lon="113.52561274564572">
        <ele>68.01</ele>
        <time>2021-10-19T10:40:46Z</time>
      </trkpt>
      <trkpt lat="34.816501994108116" lon="113.52571531629506">
        <ele>69.88</ele>
        <time>2021-10-19T10:41:51Z</time>
      </trkpt>
      <trkpt lat="34.81640430450993" lon="113.5266528945561">
        <ele>130.25</ele>
        <time>2021-10-19T10:42:54Z</time>
      </trkpt>
      <trkpt lat="34.8163577198371" lon="113.52655139752906">
        <ele>110.16</ele>
        <time>2021-10-19T10:42:57Z</time>
      </trkpt>
      <trkpt lat="34.81651178892324" lon="113.52654037151741">
        <ele>107.13</ele>
        <time>2021-10-19T10:43:04Z</time>
      </trkpt>
      <trkpt lat="34.81649590568238" lon="113.52645155965301">
        <ele>103.92</ele>
        <time>2021-10-19T10:43:29Z</time>
      </trkpt>
      <trkpt lat="34.81652701148133" lon="113.52637229444784">
        <ele>103.46</ele>
        <time>2021-10-19T10:43:34Z</time>
      </trkpt>
      <trkpt lat="34.81660603293444" lon="113.52629026251043">
        <ele>101.88</ele>
        <time>2021-10-19T10:43:40Z</time>
      </trkpt>
      <trkpt lat="34.816662824689594" lon="113.52635935258878">
        <ele>90.97</ele>
        <time>2021-10-19T10:43:53Z</time>
      </trkpt>
      <trkpt lat="34.816702327914655" lon="113.52644701291804">
        <ele>87.67</ele>
        <time>2021-10-19T10:43:58Z</time>
      </trkpt>
      <trkpt lat="34.81666135967536" lon="113.52701204234619">
        <ele>77.25</ele>
        <time>2021-10-19T10:44:37Z</time>
      </trkpt>
      <trkpt lat="34.816623824428774" lon="113.52719729060121">
        <ele>74.56</ele>
        <time>2021-10-19T10:44:50Z</time>
      </trkpt>
      <trkpt lat="34.816679148729506" lon="113.52748009022258">
        <ele>74.78</ele>
        <time>2021-10-19T10:45:09Z</time>
      </trkpt>
      <trkpt lat="34.8166859665923" lon="113.52758359959122">
        <ele>76.14</ele>
        <time>2021-10-19T10:45:16Z</time>
      </trkpt>
      <trkpt lat="34.816670028397404" lon="113.52767540686477">
        <ele>75.51</ele>
        <time>2021-10-19T10:45:22Z</time>
      </trkpt>
      <trkpt lat="34.8166496562902" lon="113.52823590069124">
        <ele>77.75</ele>
        <time>2021-10-19T10:45:57Z</time>
      </trkpt>
      <trkpt lat="34.81664654350757" lon="113.52833266369187">
        <ele>77.1</ele>
        <time>2021-10-19T10:46:05Z</time>
      </trkpt>
      <trkpt lat="34.81666629885636" lon="113.52853119702566">
        <ele>75.54</ele>
        <time>2021-10-19T10:46:20Z</time>
      </trkpt>
      <trkpt lat="34.81665584806339" lon="113.52862068924114">
        <ele>74.73</ele>
        <time>2021-10-19T10:46:26Z</time>
      </trkpt>
      <trkpt lat="34.816756113530424" lon="113.52876068383141">
        <ele>74.02</ele>
        <time>2021-10-19T10:46:39Z</time>
      </trkpt>
      <trkpt lat="34.81683756816366" lon="113.52892340709857">
        <ele>73.79</ele>
        <time>2021-10-19T10:46:51Z</time>
      </trkpt>
      <trkpt lat="34.81686357250478" lon="113.52901281780152">
        <ele>76.28</ele>
        <time>2021-10-19T10:47:00Z</time>
      </trkpt>
      <trkpt lat="34.816908803057025" lon="113.52909623853601">
        <ele>77.19</ele>
        <time>2021-10-19T10:47:13Z</time>
      </trkpt>
      <trkpt lat="34.816917030421415" lon="113.52921121448702">
        <ele>77.35</ele>
        <time>2021-10-19T10:47:17Z</time>
      </trkpt>
      <trkpt lat="34.81698887651203" lon="113.52926191618249">
        <ele>76.76</ele>
        <time>2021-10-19T10:47:21Z</time>
      </trkpt>
      <trkpt lat="34.81713505632642" lon="113.52961541762907">
        <ele>77.08</ele>
        <time>2021-10-19T10:47:50Z</time>
      </trkpt>
      <trkpt lat="34.817123951178445" lon="113.52971082829735">
        <ele>77.09</ele>
        <time>2021-10-19T10:47:54Z</time>
      </trkpt>
      <trkpt lat="34.81705309365069" lon="113.52976623508782">
        <ele>77.19</ele>
        <time>2021-10-19T10:47:58Z</time>
      </trkpt>
      <trkpt lat="34.8169782844021" lon="113.52995877121774">
        <ele>77.81</ele>
        <time>2021-10-19T10:48:10Z</time>
      </trkpt>
      <trkpt lat="34.816854440227814" lon="113.53011266474071">
        <ele>78.56</ele>
        <time>2021-10-19T10:48:15Z</time>
      </trkpt>
      <trkpt lat="34.81690992222644" lon="113.53016929118311">
        <ele>79.27</ele>
        <time>2021-10-19T10:48:17Z</time>
      </trkpt>
      <trkpt lat="34.816946387434214" lon="113.53027361212189">
        <ele>81.26</ele>
        <time>2021-10-19T10:48:22Z</time>
      </trkpt>
      <trkpt lat="34.816995162865254" lon="113.5303499753775">
        <ele>81.83</ele>
        <time>2021-10-19T10:48:27Z</time>
      </trkpt>
      <trkpt lat="34.816997034182755" lon="113.53044675293229">
        <ele>82.94</ele>
        <time>2021-10-19T10:48:34Z</time>
      </trkpt>
      <trkpt lat="34.81707031855699" lon="113.53043186675708">
        <ele>83.34</ele>
        <time>2021-10-19T10:49:01Z</time>
      </trkpt>
      <trkpt lat="34.81707031855699" lon="113.53043186675708">
        <ele>83.34</ele>
        <time>2021-10-19T11:25:37Z</time>
      </trkpt>
    </trkseg>
  </trk>
</gpx>