<?xml version="1.0" encoding="UTF-8"?>
<gpx xmlns="http://www.topografix.com/GPX/1/1" xmlns:gpxtpx="http://www.garmin.com/xmlschemas/TrackPointExtension/v1" xmlns:xsi="http://www.w3.org/2001/XMLSchema-instance" xsi:schemaLocation="http://www.topografix.com/GPX/1/1 http://www.topografix.com/GPX/1/1/gpx.xsd" version="1.1" creator="gpx.py -- https://github.com/tkrajina/gpxpy">
  <trk>
    <name>gpx from keep</name>
    <type>Ride</type>
    <trkseg>
      <trkpt lat="34.81560107478137" lon="113.52759478691222">
        <ele>102.5</ele>
        <time>2025-06-20T04:10:10Z</time>
        <extensions>
          <gpxtpx:TrackPointExtension>
            <gpxtpx:hr>124</gpxtpx:hr>
          </gpxtpx:TrackPointExtension>
        </extensions>
      </trkpt>
      <trkpt lat="34.81556606564645" lon="113.5276531094888">
        <ele>102.5</ele>
        <time>2025-06-20T04:10:11Z</time>
        <extensions>
          <gpxtpx:TrackPointExtension>
            <gpxtpx:hr>124</gpxtpx:hr>
          </gpxtpx:TrackPointExtension>
        </extensions>
      </trkpt>
      <trkpt lat="34.81552439249636" lon="113.52769476850852">
        <ele>102.5</ele>
        <time>2025-06-20T04:10:12Z</time>
        <extensions>
          <gpxtpx:TrackPointExtension>
            <gpxtpx:hr>124</gpxtpx:hr>
          </gpxtpx:TrackPointExtension>
        </extensions>
      </trkpt>
      <trkpt lat="34.81548505224532" lon="113.52773876035552">
        <ele>102.5</ele>
        <time>2025-06-20T04:10:13Z</time>
        <extensions>
          <gpxtpx:TrackPointExtension>
            <gpxtpx:hr>124</gpxtpx:hr>
          </gpxtpx:TrackPointExtension>
        </extensions>
      </trkpt>
      <trkpt lat="34.81544404657868" lon="113.52777475367186">
        <ele>102.5</ele>
        <time>2025-06-20T04:10:14Z</time>
        <extensions>
          <gpxtpx:TrackPointExtension>
            <gpxtpx:hr>124</gpxtpx:hr>
          </gpxtpx:TrackPointExtension>
        </extensions>
      </trkpt>
      <trkpt lat="34.815401375449056" lon="113.5278030817342">
        <ele>102.5</ele>
        <time>2025-06-20T04:10:15Z</time>
        <extensions>
          <gpxtpx:TrackPointExtension>
            <gpxtpx:hr>124</gpxtpx:hr>
          </gpxtpx:TrackPointExtension>
        </extensions>
      </trkpt>
      <trkpt lat="34.81535803875312" lon="113.5278244110891">
        <ele>101.9</ele>
        <time>2025-06-20T04:10:16Z</time>
        <extensions>
          <gpxtpx:TrackPointExtension>
            <gpxtpx:hr>125</gpxtpx:hr>
          </gpxtpx:TrackPointExtension>
        </extensions>
      </trkpt>
      <trkpt lat="34.815313036338" lon="113.52783974155582">
        <ele>101.9</ele>
        <time>2025-06-20T04:10:17Z</time>
        <extensions>
          <gpxtpx:TrackPointExtension>
            <gpxtpx:hr>125</gpxtpx:hr>
          </gpxtpx:TrackPointExtension>
        </extensions>
      </trkpt>
      <trkpt lat="34.8152647014863" lon="113.52784940640647">
        <ele>101.9</ele>
        <time>2025-06-20T04:10:18Z</time>
        <extensions>
          <gpxtpx:TrackPointExtension>
            <gpxtpx:hr>125</gpxtpx:hr>
          </gpxtpx:TrackPointExtension>
        </extensions>
      </trkpt>
      <trkpt lat="34.815216033826864" lon="113.52785573854149">
        <ele>101.9</ele>
        <time>2025-06-20T04:10:19Z</time>
        <extensions>
          <gpxtpx:TrackPointExtension>
            <gpxtpx:hr>125</gpxtpx:hr>
          </gpxtpx:TrackPointExtension>
        </extensions>
      </trkpt>
      <trkpt lat="34.81516603304492" lon="113.5278607375897">
        <ele>101.9</ele>
        <time>2025-06-20T04:10:20Z</time>
        <extensions>
          <gpxtpx:TrackPointExtension>
            <gpxtpx:hr>125</gpxtpx:hr>
          </gpxtpx:TrackPointExtension>
        </extensions>
      </trkpt>
      <trkpt lat="34.81511436570161" lon="113.52786507009361">
        <ele>101.8</ele>
        <time>2025-06-20T04:10:21Z</time>
        <extensions>
          <gpxtpx:TrackPointExtension>
            <gpxtpx:hr>126</gpxtpx:hr>
          </gpxtpx:TrackPointExtension>
        </extensions>
      </trkpt>
      <trkpt lat="34.815060698568516" lon="113.5278680695102">
        <ele>101.8</ele>
        <time>2025-06-20T04:10:22Z</time>
        <extensions>
          <gpxtpx:TrackPointExtension>
            <gpxtpx:hr>126</gpxtpx:hr>
          </gpxtpx:TrackPointExtension>
        </extensions>
      </trkpt>
      <trkpt lat="34.81500669810223" lon="113.52787106892684">
        <ele>101.8</ele>
        <time>2025-06-20T04:10:23Z</time>
        <extensions>
          <gpxtpx:TrackPointExtension>
            <gpxtpx:hr>126</gpxtpx:hr>
          </gpxtpx:TrackPointExtension>
        </extensions>
      </trkpt>
      <trkpt lat="34.81495103086456" lon="113.52787473488574">
        <ele>101.8</ele>
        <time>2025-06-20T04:10:24Z</time>
        <extensions>
          <gpxtpx:TrackPointExtension>
            <gpxtpx:hr>126</gpxtpx:hr>
          </gpxtpx:TrackPointExtension>
        </extensions>
      </trkpt>
      <trkpt lat="34.81489536373116" lon="113.5278777343014">
        <ele>101.8</ele>
        <time>2025-06-20T04:10:25Z</time>
        <extensions>
          <gpxtpx:TrackPointExtension>
            <gpxtpx:hr>126</gpxtpx:hr>
          </gpxtpx:TrackPointExtension>
        </extensions>
      </trkpt>
      <trkpt lat="34.81484202987816" lon="113.52788106698972">
        <ele>101.7</ele>
        <time>2025-06-20T04:10:26Z</time>
        <extensions>
          <gpxtpx:TrackPointExtension>
            <gpxtpx:hr>124</gpxtpx:hr>
          </gpxtpx:TrackPointExtension>
        </extensions>
      </trkpt>
      <trkpt lat="34.814793362848704" lon="113.52788339986537">
        <ele>101.7</ele>
        <time>2025-06-20T04:10:27Z</time>
        <extensions>
          <gpxtpx:TrackPointExtension>
            <gpxtpx:hr>124</gpxtpx:hr>
          </gpxtpx:TrackPointExtension>
        </extensions>
      </trkpt>
      <trkpt lat="34.81475102930942" lon="113.52788473292985">
        <ele>101.7</ele>
        <time>2025-06-20T04:10:28Z</time>
        <extensions>
          <gpxtpx:TrackPointExtension>
            <gpxtpx:hr>124</gpxtpx:hr>
          </gpxtpx:TrackPointExtension>
        </extensions>
      </trkpt>
      <trkpt lat="34.814713028997865" lon="113.52788673253983">
        <ele>101.7</ele>
        <time>2025-06-20T04:10:29Z</time>
        <extensions>
          <gpxtpx:TrackPointExtension>
            <gpxtpx:hr>124</gpxtpx:hr>
          </gpxtpx:TrackPointExtension>
        </extensions>
      </trkpt>
      <trkpt lat="34.814679695195174" lon="113.52788973196695">
        <ele>101.7</ele>
        <time>2025-06-20T04:10:30Z</time>
        <extensions>
          <gpxtpx:TrackPointExtension>
            <gpxtpx:hr>124</gpxtpx:hr>
          </gpxtpx:TrackPointExtension>
        </extensions>
      </trkpt>
      <trkpt lat="34.81465136139137" lon="113.52789273139658">
        <ele>101.4</ele>
        <time>2025-06-20T04:10:31Z</time>
        <extensions>
          <gpxtpx:TrackPointExtension>
            <gpxtpx:hr>122</gpxtpx:hr>
          </gpxtpx:TrackPointExtension>
        </extensions>
      </trkpt>
      <trkpt lat="34.81462502732407" lon="113.52789739718447">
        <ele>101.4</ele>
        <time>2025-06-20T04:10:32Z</time>
        <extensions>
          <gpxtpx:TrackPointExtension>
            <gpxtpx:hr>122</gpxtpx:hr>
          </gpxtpx:TrackPointExtension>
        </extensions>
      </trkpt>
      <trkpt lat="34.814600026642324" lon="113.52790172970103">
        <ele>101.4</ele>
        <time>2025-06-20T04:10:33Z</time>
        <extensions>
          <gpxtpx:TrackPointExtension>
            <gpxtpx:hr>122</gpxtpx:hr>
          </gpxtpx:TrackPointExtension>
        </extensions>
      </trkpt>
      <trkpt lat="34.814577026223795" lon="113.52790439586117">
        <ele>101.4</ele>
        <time>2025-06-20T04:10:34Z</time>
        <extensions>
          <gpxtpx:TrackPointExtension>
            <gpxtpx:hr>122</gpxtpx:hr>
          </gpxtpx:TrackPointExtension>
        </extensions>
      </trkpt>
      <trkpt lat="34.81455502596346" lon="113.52790606220744">
        <ele>101.4</ele>
        <time>2025-06-20T04:10:35Z</time>
        <extensions>
          <gpxtpx:TrackPointExtension>
            <gpxtpx:hr>122</gpxtpx:hr>
          </gpxtpx:TrackPointExtension>
        </extensions>
      </trkpt>
      <trkpt lat="34.81453202570323" lon="113.52790772855329">
        <ele>101.6</ele>
        <time>2025-06-20T04:10:36Z</time>
        <extensions>
          <gpxtpx:TrackPointExtension>
            <gpxtpx:hr>122</gpxtpx:hr>
          </gpxtpx:TrackPointExtension>
        </extensions>
      </trkpt>
      <trkpt lat="34.81450869226747" lon="113.52790839508441">
        <ele>101.6</ele>
        <time>2025-06-20T04:10:37Z</time>
        <extensions>
          <gpxtpx:TrackPointExtension>
            <gpxtpx:hr>122</gpxtpx:hr>
          </gpxtpx:TrackPointExtension>
        </extensions>
      </trkpt>
      <trkpt lat="34.81448569216489" lon="113.52790906161569">
        <ele>101.6</ele>
        <time>2025-06-20T04:10:38Z</time>
        <extensions>
          <gpxtpx:TrackPointExtension>
            <gpxtpx:hr>122</gpxtpx:hr>
          </gpxtpx:TrackPointExtension>
        </extensions>
      </trkpt>
      <trkpt lat="34.81446535857058" lon="113.52791072796282">
        <ele>101.6</ele>
        <time>2025-06-20T04:10:39Z</time>
        <extensions>
          <gpxtpx:TrackPointExtension>
            <gpxtpx:hr>122</gpxtpx:hr>
          </gpxtpx:TrackPointExtension>
        </extensions>
      </trkpt>
      <trkpt lat="34.8144486915898" lon="113.52791272758338">
        <ele>101.6</ele>
        <time>2025-06-20T04:10:40Z</time>
        <extensions>
          <gpxtpx:TrackPointExtension>
            <gpxtpx:hr>122</gpxtpx:hr>
          </gpxtpx:TrackPointExtension>
        </extensions>
      </trkpt>
      <trkpt lat="34.81443635799471" lon="113.52791439393462">
        <ele>101.7</ele>
        <time>2025-06-20T04:10:41Z</time>
        <extensions>
          <gpxtpx:TrackPointExtension>
            <gpxtpx:hr>119</gpxtpx:hr>
          </gpxtpx:TrackPointExtension>
        </extensions>
      </trkpt>
      <trkpt lat="34.814428691013106" lon="113.5279163935596">
        <ele>101.7</ele>
        <time>2025-06-20T04:10:42Z</time>
        <extensions>
          <gpxtpx:TrackPointExtension>
            <gpxtpx:hr>119</gpxtpx:hr>
          </gpxtpx:TrackPointExtension>
        </extensions>
      </trkpt>
      <trkpt lat="34.81442369064517" lon="113.52791872645732">
        <ele>101.7</ele>
        <time>2025-06-20T04:10:43Z</time>
        <extensions>
          <gpxtpx:TrackPointExtension>
            <gpxtpx:hr>119</gpxtpx:hr>
          </gpxtpx:TrackPointExtension>
        </extensions>
      </trkpt>
      <trkpt lat="34.814419690382515" lon="113.52792039281269">
        <ele>101.7</ele>
        <time>2025-06-20T04:10:44Z</time>
        <extensions>
          <gpxtpx:TrackPointExtension>
            <gpxtpx:hr>119</gpxtpx:hr>
          </gpxtpx:TrackPointExtension>
        </extensions>
      </trkpt>
      <trkpt lat="34.81441635678645" lon="113.52792205916846">
        <ele>101.7</ele>
        <time>2025-06-20T04:10:45Z</time>
        <extensions>
          <gpxtpx:TrackPointExtension>
            <gpxtpx:hr>119</gpxtpx:hr>
          </gpxtpx:TrackPointExtension>
        </extensions>
      </trkpt>
      <trkpt lat="34.81441168980455" lon="113.52792405879507">
        <ele>101.7</ele>
        <time>2025-06-20T04:10:46Z</time>
        <extensions>
          <gpxtpx:TrackPointExtension>
            <gpxtpx:hr>117</gpxtpx:hr>
          </gpxtpx:TrackPointExtension>
        </extensions>
      </trkpt>
      <trkpt lat="34.814404356156295" lon="113.52792605842023">
        <ele>101.7</ele>
        <time>2025-06-20T04:10:47Z</time>
        <extensions>
          <gpxtpx:TrackPointExtension>
            <gpxtpx:hr>117</gpxtpx:hr>
          </gpxtpx:TrackPointExtension>
        </extensions>
      </trkpt>
      <trkpt lat="34.814394355736376" lon="113.52792872458701">
        <ele>101.7</ele>
        <time>2025-06-20T04:10:48Z</time>
        <extensions>
          <gpxtpx:TrackPointExtension>
            <gpxtpx:hr>117</gpxtpx:hr>
          </gpxtpx:TrackPointExtension>
        </extensions>
      </trkpt>
      <trkpt lat="34.814380021825905" lon="113.52793239056601">
        <ele>101.7</ele>
        <time>2025-06-20T04:10:49Z</time>
        <extensions>
          <gpxtpx:TrackPointExtension>
            <gpxtpx:hr>117</gpxtpx:hr>
          </gpxtpx:TrackPointExtension>
        </extensions>
      </trkpt>
      <trkpt lat="34.81436135447724" lon="113.52793672308576">
        <ele>101.7</ele>
        <time>2025-06-20T04:10:50Z</time>
        <extensions>
          <gpxtpx:TrackPointExtension>
            <gpxtpx:hr>117</gpxtpx:hr>
          </gpxtpx:TrackPointExtension>
        </extensions>
      </trkpt>
      <trkpt lat="34.81433902040949" lon="113.52794138887496">
        <ele>101.9</ele>
        <time>2025-06-20T04:10:51Z</time>
        <extensions>
          <gpxtpx:TrackPointExtension>
            <gpxtpx:hr>115</gpxtpx:hr>
          </gpxtpx:TrackPointExtension>
        </extensions>
      </trkpt>
      <trkpt lat="34.814313019622354" lon="113.52794638793311">
        <ele>101.9</ele>
        <time>2025-06-20T04:10:52Z</time>
        <extensions>
          <gpxtpx:TrackPointExtension>
            <gpxtpx:hr>115</gpxtpx:hr>
          </gpxtpx:TrackPointExtension>
        </extensions>
      </trkpt>
      <trkpt lat="34.81428435227391" lon="113.52795072044681">
        <ele>101.9</ele>
        <time>2025-06-20T04:10:53Z</time>
        <extensions>
          <gpxtpx:TrackPointExtension>
            <gpxtpx:hr>115</gpxtpx:hr>
          </gpxtpx:TrackPointExtension>
        </extensions>
      </trkpt>
      <trkpt lat="34.81425468492557" lon="113.52795505296028">
        <ele>101.9</ele>
        <time>2025-06-20T04:10:54Z</time>
        <extensions>
          <gpxtpx:TrackPointExtension>
            <gpxtpx:hr>115</gpxtpx:hr>
          </gpxtpx:TrackPointExtension>
        </extensions>
      </trkpt>
      <trkpt lat="34.814224017524865" lon="113.52795971874487">
        <ele>101.9</ele>
        <time>2025-06-20T04:10:55Z</time>
        <extensions>
          <gpxtpx:TrackPointExtension>
            <gpxtpx:hr>115</gpxtpx:hr>
          </gpxtpx:TrackPointExtension>
        </extensions>
      </trkpt>
      <trkpt lat="34.814195016895724" lon="113.52796371798723">
        <ele>101.9</ele>
        <time>2025-06-20T04:10:56Z</time>
        <extensions>
          <gpxtpx:TrackPointExtension>
            <gpxtpx:hr>115</gpxtpx:hr>
          </gpxtpx:TrackPointExtension>
        </extensions>
      </trkpt>
      <trkpt lat="34.81416834954661" lon="113.52796805050194">
        <ele>101.9</ele>
        <time>2025-06-20T04:10:57Z</time>
        <extensions>
          <gpxtpx:TrackPointExtension>
            <gpxtpx:hr>115</gpxtpx:hr>
          </gpxtpx:TrackPointExtension>
        </extensions>
      </trkpt>
      <trkpt lat="34.81414568224952" lon="113.52797204974686">
        <ele>101.9</ele>
        <time>2025-06-20T04:10:58Z</time>
        <extensions>
          <gpxtpx:TrackPointExtension>
            <gpxtpx:hr>115</gpxtpx:hr>
          </gpxtpx:TrackPointExtension>
        </extensions>
      </trkpt>
      <trkpt lat="34.814127348548865" lon="113.52797438263698">
        <ele>101.9</ele>
        <time>2025-06-20T04:10:59Z</time>
        <extensions>
          <gpxtpx:TrackPointExtension>
            <gpxtpx:hr>115</gpxtpx:hr>
          </gpxtpx:TrackPointExtension>
        </extensions>
      </trkpt>
      <trkpt lat="34.814113015269754" lon="113.5279740493583">
        <ele>101.9</ele>
        <time>2025-06-20T04:11:00Z</time>
        <extensions>
          <gpxtpx:TrackPointExtension>
            <gpxtpx:hr>115</gpxtpx:hr>
          </gpxtpx:TrackPointExtension>
        </extensions>
      </trkpt>
      <trkpt lat="34.814102015376434" lon="113.52797338280998">
        <ele>101.9</ele>
        <time>2025-06-20T04:11:01Z</time>
        <extensions>
          <gpxtpx:TrackPointExtension>
            <gpxtpx:hr>114</gpxtpx:hr>
          </gpxtpx:TrackPointExtension>
        </extensions>
      </trkpt>
      <trkpt lat="34.814094015482794" lon="113.52797271626304">
        <ele>101.9</ele>
        <time>2025-06-20T04:11:02Z</time>
        <extensions>
          <gpxtpx:TrackPointExtension>
            <gpxtpx:hr>114</gpxtpx:hr>
          </gpxtpx:TrackPointExtension>
        </extensions>
      </trkpt>
      <trkpt lat="34.81408834881678" lon="113.52797271626011">
        <ele>101.9</ele>
        <time>2025-06-20T04:11:03Z</time>
        <extensions>
          <gpxtpx:TrackPointExtension>
            <gpxtpx:hr>114</gpxtpx:hr>
          </gpxtpx:TrackPointExtension>
        </extensions>
      </trkpt>
      <trkpt lat="34.814084015431234" lon="113.5279730495293">
        <ele>101.9</ele>
        <time>2025-06-20T04:11:04Z</time>
        <extensions>
          <gpxtpx:TrackPointExtension>
            <gpxtpx:hr>114</gpxtpx:hr>
          </gpxtpx:TrackPointExtension>
        </extensions>
      </trkpt>
      <trkpt lat="34.8140806818875" lon="113.52797438261311">
        <ele>101.9</ele>
        <time>2025-06-20T04:11:05Z</time>
        <extensions>
          <gpxtpx:TrackPointExtension>
            <gpxtpx:hr>114</gpxtpx:hr>
          </gpxtpx:TrackPointExtension>
        </extensions>
      </trkpt>
      <trkpt lat="34.8140796817295" lon="113.52797538242666">
        <ele>102.0</ele>
        <time>2025-06-20T04:11:06Z</time>
        <extensions>
          <gpxtpx:TrackPointExtension>
            <gpxtpx:hr>114</gpxtpx:hr>
          </gpxtpx:TrackPointExtension>
        </extensions>
      </trkpt>
      <trkpt lat="34.81408034823799" lon="113.52797638224116">
        <ele>102.0</ele>
        <time>2025-06-20T04:11:07Z</time>
        <extensions>
          <gpxtpx:TrackPointExtension>
            <gpxtpx:hr>114</gpxtpx:hr>
          </gpxtpx:TrackPointExtension>
        </extensions>
      </trkpt>
      <trkpt lat="34.814081348132504" lon="113.52797704878448">
        <ele>102.0</ele>
        <time>2025-06-20T04:11:08Z</time>
        <extensions>
          <gpxtpx:TrackPointExtension>
            <gpxtpx:hr>114</gpxtpx:hr>
          </gpxtpx:TrackPointExtension>
        </extensions>
      </trkpt>
      <trkpt lat="34.814082348027" lon="113.52797771532781">
        <ele>102.0</ele>
        <time>2025-06-20T04:11:09Z</time>
        <extensions>
          <gpxtpx:TrackPointExtension>
            <gpxtpx:hr>114</gpxtpx:hr>
          </gpxtpx:TrackPointExtension>
        </extensions>
      </trkpt>
      <trkpt lat="34.814083681096754" lon="113.52797938168555">
        <ele>102.0</ele>
        <time>2025-06-20T04:11:10Z</time>
        <extensions>
          <gpxtpx:TrackPointExtension>
            <gpxtpx:hr>114</gpxtpx:hr>
          </gpxtpx:TrackPointExtension>
        </extensions>
      </trkpt>
      <trkpt lat="34.81407868036007" lon="113.52798404748289">
        <ele>102.3</ele>
        <time>2025-06-20T04:11:11Z</time>
        <extensions>
          <gpxtpx:TrackPointExtension>
            <gpxtpx:hr>114</gpxtpx:hr>
          </gpxtpx:TrackPointExtension>
        </extensions>
      </trkpt>
      <trkpt lat="34.81406767951886" lon="113.52798937981987">
        <ele>102.3</ele>
        <time>2025-06-20T04:11:12Z</time>
        <extensions>
          <gpxtpx:TrackPointExtension>
            <gpxtpx:hr>114</gpxtpx:hr>
          </gpxtpx:TrackPointExtension>
        </extensions>
      </trkpt>
      <trkpt lat="34.81404967867778" lon="113.52799471215263">
        <ele>102.3</ele>
        <time>2025-06-20T04:11:13Z</time>
        <extensions>
          <gpxtpx:TrackPointExtension>
            <gpxtpx:hr>114</gpxtpx:hr>
          </gpxtpx:TrackPointExtension>
        </extensions>
      </trkpt>
      <trkpt lat="34.814025011117444" lon="113.52800037775255">
        <ele>102.3</ele>
        <time>2025-06-20T04:11:14Z</time>
        <extensions>
          <gpxtpx:TrackPointExtension>
            <gpxtpx:hr>114</gpxtpx:hr>
          </gpxtpx:TrackPointExtension>
        </extensions>
      </trkpt>
      <trkpt lat="34.81399367699613" lon="113.52800537680598">
        <ele>102.3</ele>
        <time>2025-06-20T04:11:15Z</time>
        <extensions>
          <gpxtpx:TrackPointExtension>
            <gpxtpx:hr>114</gpxtpx:hr>
          </gpxtpx:TrackPointExtension>
        </extensions>
      </trkpt>
      <trkpt lat="34.813958676419524" lon="113.5280090427729">
        <ele>102.5</ele>
        <time>2025-06-20T04:11:16Z</time>
        <extensions>
          <gpxtpx:TrackPointExtension>
            <gpxtpx:hr>115</gpxtpx:hr>
          </gpxtpx:TrackPointExtension>
        </extensions>
      </trkpt>
      <trkpt lat="34.81392100917657" lon="113.52801270873864">
        <ele>102.5</ele>
        <time>2025-06-20T04:11:17Z</time>
        <extensions>
          <gpxtpx:TrackPointExtension>
            <gpxtpx:hr>115</gpxtpx:hr>
          </gpxtpx:TrackPointExtension>
        </extensions>
      </trkpt>
      <trkpt lat="34.81388167516154" lon="113.52801704124613">
        <ele>102.5</ele>
        <time>2025-06-20T04:11:18Z</time>
        <extensions>
          <gpxtpx:TrackPointExtension>
            <gpxtpx:hr>115</gpxtpx:hr>
          </gpxtpx:TrackPointExtension>
        </extensions>
      </trkpt>
      <trkpt lat="34.813840674216" lon="113.52802304010943">
        <ele>102.5</ele>
        <time>2025-06-20T04:11:19Z</time>
        <extensions>
          <gpxtpx:TrackPointExtension>
            <gpxtpx:hr>115</gpxtpx:hr>
          </gpxtpx:TrackPointExtension>
        </extensions>
      </trkpt>
      <trkpt lat="34.81379867295391" lon="113.52803103860005">
        <ele>102.5</ele>
        <time>2025-06-20T04:11:20Z</time>
        <extensions>
          <gpxtpx:TrackPointExtension>
            <gpxtpx:hr>115</gpxtpx:hr>
          </gpxtpx:TrackPointExtension>
        </extensions>
      </trkpt>
      <trkpt lat="34.813756004972475" lon="113.52803937036111">
        <ele>102.5</ele>
        <time>2025-06-20T04:11:21Z</time>
        <extensions>
          <gpxtpx:TrackPointExtension>
            <gpxtpx:hr>116</gpxtpx:hr>
          </gpxtpx:TrackPointExtension>
        </extensions>
      </trkpt>
      <trkpt lat="34.81371100355189" lon="113.5280483686632">
        <ele>102.5</ele>
        <time>2025-06-20T04:11:22Z</time>
        <extensions>
          <gpxtpx:TrackPointExtension>
            <gpxtpx:hr>116</gpxtpx:hr>
          </gpxtpx:TrackPointExtension>
        </extensions>
      </trkpt>
      <trkpt lat="34.81366433541145" lon="113.52805770023458">
        <ele>102.5</ele>
        <time>2025-06-20T04:11:23Z</time>
        <extensions>
          <gpxtpx:TrackPointExtension>
            <gpxtpx:hr>116</gpxtpx:hr>
          </gpxtpx:TrackPointExtension>
        </extensions>
      </trkpt>
      <trkpt lat="34.81361566742957" lon="113.52806603199056">
        <ele>102.5</ele>
        <time>2025-06-20T04:11:24Z</time>
        <extensions>
          <gpxtpx:TrackPointExtension>
            <gpxtpx:hr>116</gpxtpx:hr>
          </gpxtpx:TrackPointExtension>
        </extensions>
      </trkpt>
      <trkpt lat="34.813565332887066" lon="113.52807369720318">
        <ele>102.5</ele>
        <time>2025-06-20T04:11:25Z</time>
        <extensions>
          <gpxtpx:TrackPointExtension>
            <gpxtpx:hr>116</gpxtpx:hr>
          </gpxtpx:TrackPointExtension>
        </extensions>
      </trkpt>
      <trkpt lat="34.81351399850274" lon="113.52808036260126">
        <ele>103.0</ele>
        <time>2025-06-20T04:11:26Z</time>
        <extensions>
          <gpxtpx:TrackPointExtension>
            <gpxtpx:hr>117</gpxtpx:hr>
          </gpxtpx:TrackPointExtension>
        </extensions>
      </trkpt>
      <trkpt lat="34.81346299761066" lon="113.52808602818587">
        <ele>103.0</ele>
        <time>2025-06-20T04:11:27Z</time>
        <extensions>
          <gpxtpx:TrackPointExtension>
            <gpxtpx:hr>117</gpxtpx:hr>
          </gpxtpx:TrackPointExtension>
        </extensions>
      </trkpt>
      <trkpt lat="34.81341066333201" lon="113.528092027041">
        <ele>103.0</ele>
        <time>2025-06-20T04:11:28Z</time>
        <extensions>
          <gpxtpx:TrackPointExtension>
            <gpxtpx:hr>117</gpxtpx:hr>
          </gpxtpx:TrackPointExtension>
        </extensions>
      </trkpt>
      <trkpt lat="34.81335832889462" lon="113.52809902570964">
        <ele>103.0</ele>
        <time>2025-06-20T04:11:29Z</time>
        <extensions>
          <gpxtpx:TrackPointExtension>
            <gpxtpx:hr>117</gpxtpx:hr>
          </gpxtpx:TrackPointExtension>
        </extensions>
      </trkpt>
      <trkpt lat="34.81330566091294" lon="113.5281073574636">
        <ele>103.0</ele>
        <time>2025-06-20T04:11:30Z</time>
        <extensions>
          <gpxtpx:TrackPointExtension>
            <gpxtpx:hr>117</gpxtpx:hr>
          </gpxtpx:TrackPointExtension>
        </extensions>
      </trkpt>
      <trkpt lat="34.81325265933306" lon="113.52811735557263">
        <ele>103.5</ele>
        <time>2025-06-20T04:11:31Z</time>
        <extensions>
          <gpxtpx:TrackPointExtension>
            <gpxtpx:hr>118</gpxtpx:hr>
          </gpxtpx:TrackPointExtension>
        </extensions>
      </trkpt>
      <trkpt lat="34.81319965769889" lon="113.52812768695118">
        <ele>103.5</ele>
        <time>2025-06-20T04:11:32Z</time>
        <extensions>
          <gpxtpx:TrackPointExtension>
            <gpxtpx:hr>118</gpxtpx:hr>
          </gpxtpx:TrackPointExtension>
        </extensions>
      </trkpt>
      <trkpt lat="34.813147322624836" lon="113.52813868487164">
        <ele>103.5</ele>
        <time>2025-06-20T04:11:33Z</time>
        <extensions>
          <gpxtpx:TrackPointExtension>
            <gpxtpx:hr>118</gpxtpx:hr>
          </gpxtpx:TrackPointExtension>
        </extensions>
      </trkpt>
      <trkpt lat="34.81309498760313" lon="113.52814934952">
        <ele>103.5</ele>
        <time>2025-06-20T04:11:34Z</time>
        <extensions>
          <gpxtpx:TrackPointExtension>
            <gpxtpx:hr>118</gpxtpx:hr>
          </gpxtpx:TrackPointExtension>
        </extensions>
      </trkpt>
      <trkpt lat="34.813041986073685" lon="113.52815901435483">
        <ele>103.5</ele>
        <time>2025-06-20T04:11:35Z</time>
        <extensions>
          <gpxtpx:TrackPointExtension>
            <gpxtpx:hr>118</gpxtpx:hr>
          </gpxtpx:TrackPointExtension>
        </extensions>
      </trkpt>
      <trkpt lat="34.81298865131601" lon="113.5281680126471">
        <ele>103.3</ele>
        <time>2025-06-20T04:11:36Z</time>
        <extensions>
          <gpxtpx:TrackPointExtension>
            <gpxtpx:hr>122</gpxtpx:hr>
          </gpxtpx:TrackPointExtension>
        </extensions>
      </trkpt>
      <trkpt lat="34.81293564983805" lon="113.52817734420982">
        <ele>103.3</ele>
        <time>2025-06-20T04:11:37Z</time>
        <extensions>
          <gpxtpx:TrackPointExtension>
            <gpxtpx:hr>122</gpxtpx:hr>
          </gpxtpx:TrackPointExtension>
        </extensions>
      </trkpt>
      <trkpt lat="34.81288264841361" lon="113.52818634250143">
        <ele>103.3</ele>
        <time>2025-06-20T04:11:38Z</time>
        <extensions>
          <gpxtpx:TrackPointExtension>
            <gpxtpx:hr>122</gpxtpx:hr>
          </gpxtpx:TrackPointExtension>
        </extensions>
      </trkpt>
      <trkpt lat="34.812829313496906" lon="113.52819634060593">
        <ele>103.3</ele>
        <time>2025-06-20T04:11:39Z</time>
        <extensions>
          <gpxtpx:TrackPointExtension>
            <gpxtpx:hr>122</gpxtpx:hr>
          </gpxtpx:TrackPointExtension>
        </extensions>
      </trkpt>
      <trkpt lat="34.812776311860034" lon="113.52820667198142">
        <ele>103.3</ele>
        <time>2025-06-20T04:11:40Z</time>
        <extensions>
          <gpxtpx:TrackPointExtension>
            <gpxtpx:hr>122</gpxtpx:hr>
          </gpxtpx:TrackPointExtension>
        </extensions>
      </trkpt>
      <trkpt lat="34.81272297667747" lon="113.52821833644037">
        <ele>103.0</ele>
        <time>2025-06-20T04:11:41Z</time>
        <extensions>
          <gpxtpx:TrackPointExtension>
            <gpxtpx:hr>125</gpxtpx:hr>
          </gpxtpx:TrackPointExtension>
        </extensions>
      </trkpt>
      <trkpt lat="34.812668974773224" lon="113.52823033416841">
        <ele>103.0</ele>
        <time>2025-06-20T04:11:42Z</time>
        <extensions>
          <gpxtpx:TrackPointExtension>
            <gpxtpx:hr>125</gpxtpx:hr>
          </gpxtpx:TrackPointExtension>
        </extensions>
      </trkpt>
      <trkpt lat="34.81261497265619" lon="113.52824366497981">
        <ele>103.0</ele>
        <time>2025-06-20T04:11:43Z</time>
        <extensions>
          <gpxtpx:TrackPointExtension>
            <gpxtpx:hr>125</gpxtpx:hr>
          </gpxtpx:TrackPointExtension>
        </extensions>
      </trkpt>
      <trkpt lat="34.8125606371518" lon="113.5282573290614">
        <ele>103.0</ele>
        <time>2025-06-20T04:11:44Z</time>
        <extensions>
          <gpxtpx:TrackPointExtension>
            <gpxtpx:hr>125</gpxtpx:hr>
          </gpxtpx:TrackPointExtension>
        </extensions>
      </trkpt>
      <trkpt lat="34.81250663487344" lon="113.52827165968387">
        <ele>103.0</ele>
        <time>2025-06-20T04:11:45Z</time>
        <extensions>
          <gpxtpx:TrackPointExtension>
            <gpxtpx:hr>125</gpxtpx:hr>
          </gpxtpx:TrackPointExtension>
        </extensions>
      </trkpt>
      <trkpt lat="34.812452965769374" lon="113.52828699011918">
        <ele>103.1</ele>
        <time>2025-06-20T04:11:46Z</time>
        <extensions>
          <gpxtpx:TrackPointExtension>
            <gpxtpx:hr>125</gpxtpx:hr>
          </gpxtpx:TrackPointExtension>
        </extensions>
      </trkpt>
      <trkpt lat="34.81239929639853" lon="113.52830398690698">
        <ele>103.1</ele>
        <time>2025-06-20T04:11:47Z</time>
        <extensions>
          <gpxtpx:TrackPointExtension>
            <gpxtpx:hr>125</gpxtpx:hr>
          </gpxtpx:TrackPointExtension>
        </extensions>
      </trkpt>
      <trkpt lat="34.81234596014839" lon="113.52832231677804">
        <ele>103.1</ele>
        <time>2025-06-20T04:11:48Z</time>
        <extensions>
          <gpxtpx:TrackPointExtension>
            <gpxtpx:hr>125</gpxtpx:hr>
          </gpxtpx:TrackPointExtension>
        </extensions>
      </trkpt>
      <trkpt lat="34.812294623842156" lon="113.528340979918">
        <ele>103.1</ele>
        <time>2025-06-20T04:11:49Z</time>
        <extensions>
          <gpxtpx:TrackPointExtension>
            <gpxtpx:hr>125</gpxtpx:hr>
          </gpxtpx:TrackPointExtension>
        </extensions>
      </trkpt>
      <trkpt lat="34.81224462086641" lon="113.52835964305498">
        <ele>103.1</ele>
        <time>2025-06-20T04:11:50Z</time>
        <extensions>
          <gpxtpx:TrackPointExtension>
            <gpxtpx:hr>125</gpxtpx:hr>
          </gpxtpx:TrackPointExtension>
        </extensions>
      </trkpt>
      <trkpt lat="34.812195618102194" lon="113.52837697310737">
        <ele>103.5</ele>
        <time>2025-06-20T04:11:51Z</time>
        <extensions>
          <gpxtpx:TrackPointExtension>
            <gpxtpx:hr>121</gpxtpx:hr>
          </gpxtpx:TrackPointExtension>
        </extensions>
      </trkpt>
      <trkpt lat="34.81214794904152" lon="113.5283919702627">
        <ele>103.5</ele>
        <time>2025-06-20T04:11:52Z</time>
        <extensions>
          <gpxtpx:TrackPointExtension>
            <gpxtpx:hr>121</gpxtpx:hr>
          </gpxtpx:TrackPointExtension>
        </extensions>
      </trkpt>
      <trkpt lat="34.81210094712742" lon="113.5284039679824">
        <ele>103.5</ele>
        <time>2025-06-20T04:11:53Z</time>
        <extensions>
          <gpxtpx:TrackPointExtension>
            <gpxtpx:hr>121</gpxtpx:hr>
          </gpxtpx:TrackPointExtension>
        </extensions>
      </trkpt>
      <trkpt lat="34.81205361209352" lon="113.52841463261915">
        <ele>103.5</ele>
        <time>2025-06-20T04:11:54Z</time>
        <extensions>
          <gpxtpx:TrackPointExtension>
            <gpxtpx:hr>121</gpxtpx:hr>
          </gpxtpx:TrackPointExtension>
        </extensions>
      </trkpt>
      <trkpt lat="34.81200527727256" lon="113.52842396417275">
        <ele>103.5</ele>
        <time>2025-06-20T04:11:55Z</time>
        <extensions>
          <gpxtpx:TrackPointExtension>
            <gpxtpx:hr>121</gpxtpx:hr>
          </gpxtpx:TrackPointExtension>
        </extensions>
      </trkpt>
      <trkpt lat="34.811956609278056" lon="113.52843229591441">
        <ele>103.8</ele>
        <time>2025-06-20T04:11:56Z</time>
        <extensions>
          <gpxtpx:TrackPointExtension>
            <gpxtpx:hr>117</gpxtpx:hr>
          </gpxtpx:TrackPointExtension>
        </extensions>
      </trkpt>
      <trkpt lat="34.811907274563445" lon="113.5284409609258">
        <ele>103.8</ele>
        <time>2025-06-20T04:11:57Z</time>
        <extensions>
          <gpxtpx:TrackPointExtension>
            <gpxtpx:hr>117</gpxtpx:hr>
          </gpxtpx:TrackPointExtension>
        </extensions>
      </trkpt>
      <trkpt lat="34.81185693984839" lon="113.52844962593626">
        <ele>103.8</ele>
        <time>2025-06-20T04:11:58Z</time>
        <extensions>
          <gpxtpx:TrackPointExtension>
            <gpxtpx:hr>117</gpxtpx:hr>
          </gpxtpx:TrackPointExtension>
        </extensions>
      </trkpt>
      <trkpt lat="34.81180627201314" lon="113.52845695786354">
        <ele>103.8</ele>
        <time>2025-06-20T04:11:59Z</time>
        <extensions>
          <gpxtpx:TrackPointExtension>
            <gpxtpx:hr>117</gpxtpx:hr>
          </gpxtpx:TrackPointExtension>
        </extensions>
      </trkpt>
      <trkpt lat="34.81175527105761" lon="113.52846295670786">
        <ele>103.8</ele>
        <time>2025-06-20T04:12:00Z</time>
        <extensions>
          <gpxtpx:TrackPointExtension>
            <gpxtpx:hr>117</gpxtpx:hr>
          </gpxtpx:TrackPointExtension>
        </extensions>
      </trkpt>
      <trkpt lat="34.8117039368219" lon="113.52846862228151">
        <ele>103.9</ele>
        <time>2025-06-20T04:12:01Z</time>
        <extensions>
          <gpxtpx:TrackPointExtension>
            <gpxtpx:hr>119</gpxtpx:hr>
          </gpxtpx:TrackPointExtension>
        </extensions>
      </trkpt>
      <trkpt lat="34.811652935865844" lon="113.52847462112624">
        <ele>103.9</ele>
        <time>2025-06-20T04:12:02Z</time>
        <extensions>
          <gpxtpx:TrackPointExtension>
            <gpxtpx:hr>119</gpxtpx:hr>
          </gpxtpx:TrackPointExtension>
        </extensions>
      </trkpt>
      <trkpt lat="34.8116029348562" lon="113.52848095324231">
        <ele>103.9</ele>
        <time>2025-06-20T04:12:03Z</time>
        <extensions>
          <gpxtpx:TrackPointExtension>
            <gpxtpx:hr>119</gpxtpx:hr>
          </gpxtpx:TrackPointExtension>
        </extensions>
      </trkpt>
      <trkpt lat="34.81155326701952" lon="113.52848828516991">
        <ele>103.9</ele>
        <time>2025-06-20T04:12:04Z</time>
        <extensions>
          <gpxtpx:TrackPointExtension>
            <gpxtpx:hr>119</gpxtpx:hr>
          </gpxtpx:TrackPointExtension>
        </extensions>
      </trkpt>
      <trkpt lat="34.81150359907555" lon="113.5284962836375">
        <ele>103.9</ele>
        <time>2025-06-20T04:12:05Z</time>
        <extensions>
          <gpxtpx:TrackPointExtension>
            <gpxtpx:hr>119</gpxtpx:hr>
          </gpxtpx:TrackPointExtension>
        </extensions>
      </trkpt>
      <trkpt lat="34.81145426451793" lon="113.52850394883397">
        <ele>103.9</ele>
        <time>2025-06-20T04:12:06Z</time>
        <extensions>
          <gpxtpx:TrackPointExtension>
            <gpxtpx:hr>117</gpxtpx:hr>
          </gpxtpx:TrackPointExtension>
        </extensions>
      </trkpt>
      <trkpt lat="34.81140459684072" lon="113.52851028094805">
        <ele>103.9</ele>
        <time>2025-06-20T04:12:07Z</time>
        <extensions>
          <gpxtpx:TrackPointExtension>
            <gpxtpx:hr>117</gpxtpx:hr>
          </gpxtpx:TrackPointExtension>
        </extensions>
      </trkpt>
      <trkpt lat="34.81135492959114" lon="113.52851394689796">
        <ele>103.9</ele>
        <time>2025-06-20T04:12:08Z</time>
        <extensions>
          <gpxtpx:TrackPointExtension>
            <gpxtpx:hr>117</gpxtpx:hr>
          </gpxtpx:TrackPointExtension>
        </extensions>
      </trkpt>
      <trkpt lat="34.811305595995634" lon="113.52851561322528">
        <ele>103.9</ele>
        <time>2025-06-20T04:12:09Z</time>
        <extensions>
          <gpxtpx:TrackPointExtension>
            <gpxtpx:hr>117</gpxtpx:hr>
          </gpxtpx:TrackPointExtension>
        </extensions>
      </trkpt>
      <trkpt lat="34.811256929280184" lon="113.52851594647105">
        <ele>103.9</ele>
        <time>2025-06-20T04:12:10Z</time>
        <extensions>
          <gpxtpx:TrackPointExtension>
            <gpxtpx:hr>117</gpxtpx:hr>
          </gpxtpx:TrackPointExtension>
        </extensions>
      </trkpt>
      <trkpt lat="34.811208929391825" lon="113.52851527990572">
        <ele>104.4</ele>
        <time>2025-06-20T04:12:11Z</time>
        <extensions>
          <gpxtpx:TrackPointExtension>
            <gpxtpx:hr>113</gpxtpx:hr>
          </gpxtpx:TrackPointExtension>
        </extensions>
      </trkpt>
      <trkpt lat="34.81116092955655" lon="113.52851428006977">
        <ele>104.4</ele>
        <time>2025-06-20T04:12:12Z</time>
        <extensions>
          <gpxtpx:TrackPointExtension>
            <gpxtpx:hr>113</gpxtpx:hr>
          </gpxtpx:TrackPointExtension>
        </extensions>
      </trkpt>
      <trkpt lat="34.81111259628078" lon="113.52851394677475">
        <ele>104.4</ele>
        <time>2025-06-20T04:12:13Z</time>
        <extensions>
          <gpxtpx:TrackPointExtension>
            <gpxtpx:hr>113</gpxtpx:hr>
          </gpxtpx:TrackPointExtension>
        </extensions>
      </trkpt>
      <trkpt lat="34.811063262898244" lon="113.52851428002027">
        <ele>104.4</ele>
        <time>2025-06-20T04:12:14Z</time>
        <extensions>
          <gpxtpx:TrackPointExtension>
            <gpxtpx:hr>113</gpxtpx:hr>
          </gpxtpx:TrackPointExtension>
        </extensions>
      </trkpt>
      <trkpt lat="34.811013262742385" lon="113.52851527980653">
        <ele>104.4</ele>
        <time>2025-06-20T04:12:15Z</time>
        <extensions>
          <gpxtpx:TrackPointExtension>
            <gpxtpx:hr>113</gpxtpx:hr>
          </gpxtpx:TrackPointExtension>
        </extensions>
      </trkpt>
      <trkpt lat="34.81096259597314" lon="113.52851594632186">
        <ele>103.9</ele>
        <time>2025-06-20T04:12:16Z</time>
        <extensions>
          <gpxtpx:TrackPointExtension>
            <gpxtpx:hr>113</gpxtpx:hr>
          </gpxtpx:TrackPointExtension>
        </extensions>
      </trkpt>
      <trkpt lat="34.81091192931072" lon="113.52851594629621">
        <ele>103.9</ele>
        <time>2025-06-20T04:12:17Z</time>
        <extensions>
          <gpxtpx:TrackPointExtension>
            <gpxtpx:hr>113</gpxtpx:hr>
          </gpxtpx:TrackPointExtension>
        </extensions>
      </trkpt>
      <trkpt lat="34.81086159603567" lon="113.52851561300022">
        <ele>103.9</ele>
        <time>2025-06-20T04:12:18Z</time>
        <extensions>
          <gpxtpx:TrackPointExtension>
            <gpxtpx:hr>113</gpxtpx:hr>
          </gpxtpx:TrackPointExtension>
        </extensions>
      </trkpt>
      <trkpt lat="34.81081159625415" lon="113.52851427989293">
        <ele>103.9</ele>
        <time>2025-06-20T04:12:19Z</time>
        <extensions>
          <gpxtpx:TrackPointExtension>
            <gpxtpx:hr>113</gpxtpx:hr>
          </gpxtpx:TrackPointExtension>
        </extensions>
      </trkpt>
      <trkpt lat="34.810761929966056" lon="113.52851194697425">
        <ele>103.9</ele>
        <time>2025-06-20T04:12:20Z</time>
        <extensions>
          <gpxtpx:TrackPointExtension>
            <gpxtpx:hr>113</gpxtpx:hr>
          </gpxtpx:TrackPointExtension>
        </extensions>
      </trkpt>
      <trkpt lat="34.8107122637846" lon="113.52850894751455">
        <ele>104.4</ele>
        <time>2025-06-20T04:12:21Z</time>
        <extensions>
          <gpxtpx:TrackPointExtension>
            <gpxtpx:hr>117</gpxtpx:hr>
          </gpxtpx:TrackPointExtension>
        </extensions>
      </trkpt>
      <trkpt lat="34.81066259754986" lon="113.52850628132518">
        <ele>104.4</ele>
        <time>2025-06-20T04:12:22Z</time>
        <extensions>
          <gpxtpx:TrackPointExtension>
            <gpxtpx:hr>117</gpxtpx:hr>
          </gpxtpx:TrackPointExtension>
        </extensions>
      </trkpt>
      <trkpt lat="34.810612931261005" lon="113.5285039484062">
        <ele>104.4</ele>
        <time>2025-06-20T04:12:23Z</time>
        <extensions>
          <gpxtpx:TrackPointExtension>
            <gpxtpx:hr>117</gpxtpx:hr>
          </gpxtpx:TrackPointExtension>
        </extensions>
      </trkpt>
      <trkpt lat="34.81056359830562" lon="113.52850161548746">
        <ele>104.4</ele>
        <time>2025-06-20T04:12:24Z</time>
        <extensions>
          <gpxtpx:TrackPointExtension>
            <gpxtpx:hr>117</gpxtpx:hr>
          </gpxtpx:TrackPointExtension>
        </extensions>
      </trkpt>
      <trkpt lat="34.81051459868372" lon="113.52849928256892">
        <ele>104.4</ele>
        <time>2025-06-20T04:12:25Z</time>
        <extensions>
          <gpxtpx:TrackPointExtension>
            <gpxtpx:hr>117</gpxtpx:hr>
          </gpxtpx:TrackPointExtension>
        </extensions>
      </trkpt>
      <trkpt lat="34.81046593228868" lon="113.52849761619161">
        <ele>104.6</ele>
        <time>2025-06-20T04:12:26Z</time>
        <extensions>
          <gpxtpx:TrackPointExtension>
            <gpxtpx:hr>119</gpxtpx:hr>
          </gpxtpx:TrackPointExtension>
        </extensions>
      </trkpt>
      <trkpt lat="34.810417265947294" lon="113.52849561654372">
        <ele>104.6</ele>
        <time>2025-06-20T04:12:27Z</time>
        <extensions>
          <gpxtpx:TrackPointExtension>
            <gpxtpx:hr>119</gpxtpx:hr>
          </gpxtpx:TrackPointExtension>
        </extensions>
      </trkpt>
      <trkpt lat="34.81036859955205" lon="113.52849395016624">
        <ele>104.6</ele>
        <time>2025-06-20T04:12:28Z</time>
        <extensions>
          <gpxtpx:TrackPointExtension>
            <gpxtpx:hr>119</gpxtpx:hr>
          </gpxtpx:TrackPointExtension>
        </extensions>
      </trkpt>
      <trkpt lat="34.8103192664901" lon="113.52849228378844">
        <ele>104.6</ele>
        <time>2025-06-20T04:12:29Z</time>
        <extensions>
          <gpxtpx:TrackPointExtension>
            <gpxtpx:hr>119</gpxtpx:hr>
          </gpxtpx:TrackPointExtension>
        </extensions>
      </trkpt>
      <trkpt lat="34.81026993342801" lon="113.52849061741074">
        <ele>104.6</ele>
        <time>2025-06-20T04:12:30Z</time>
        <extensions>
          <gpxtpx:TrackPointExtension>
            <gpxtpx:hr>119</gpxtpx:hr>
          </gpxtpx:TrackPointExtension>
        </extensions>
      </trkpt>
      <trkpt lat="34.81022026697918" lon="113.52848928430338">
        <ele>104.7</ele>
        <time>2025-06-20T04:12:31Z</time>
        <extensions>
          <gpxtpx:TrackPointExtension>
            <gpxtpx:hr>121</gpxtpx:hr>
          </gpxtpx:TrackPointExtension>
        </extensions>
      </trkpt>
      <trkpt lat="34.81017160047702" lon="113.52848828446709">
        <ele>104.7</ele>
        <time>2025-06-20T04:12:32Z</time>
        <extensions>
          <gpxtpx:TrackPointExtension>
            <gpxtpx:hr>121</gpxtpx:hr>
          </gpxtpx:TrackPointExtension>
        </extensions>
      </trkpt>
      <trkpt lat="34.81012426720178" lon="113.52848795117254">
        <ele>104.7</ele>
        <time>2025-06-20T04:12:33Z</time>
        <extensions>
          <gpxtpx:TrackPointExtension>
            <gpxtpx:hr>121</gpxtpx:hr>
          </gpxtpx:TrackPointExtension>
        </extensions>
      </trkpt>
      <trkpt lat="34.81007993344596" lon="113.52849061731506">
        <ele>104.7</ele>
        <time>2025-06-20T04:12:34Z</time>
        <extensions>
          <gpxtpx:TrackPointExtension>
            <gpxtpx:hr>121</gpxtpx:hr>
          </gpxtpx:TrackPointExtension>
        </extensions>
      </trkpt>
      <trkpt lat="34.81003793217041" lon="113.52849861578936">
        <ele>104.7</ele>
        <time>2025-06-20T04:12:35Z</time>
        <extensions>
          <gpxtpx:TrackPointExtension>
            <gpxtpx:hr>121</gpxtpx:hr>
          </gpxtpx:TrackPointExtension>
        </extensions>
      </trkpt>
      <trkpt lat="34.80999926332165" lon="113.52851227986672">
        <ele>104.3</ele>
        <time>2025-06-20T04:12:36Z</time>
        <extensions>
          <gpxtpx:TrackPointExtension>
            <gpxtpx:hr>121</gpxtpx:hr>
          </gpxtpx:TrackPointExtension>
        </extensions>
      </trkpt>
      <trkpt lat="34.80996326007115" lon="113.52853260935674">
        <ele>104.3</ele>
        <time>2025-06-20T04:12:37Z</time>
        <extensions>
          <gpxtpx:TrackPointExtension>
            <gpxtpx:hr>121</gpxtpx:hr>
          </gpxtpx:TrackPointExtension>
        </extensions>
      </trkpt>
      <trkpt lat="34.80993058902975" lon="113.52855993752775">
        <ele>104.3</ele>
        <time>2025-06-20T04:12:38Z</time>
        <extensions>
          <gpxtpx:TrackPointExtension>
            <gpxtpx:hr>121</gpxtpx:hr>
          </gpxtpx:TrackPointExtension>
        </extensions>
      </trkpt>
      <trkpt lat="34.809902583422115" lon="113.5285949309181">
        <ele>104.3</ele>
        <time>2025-06-20T04:12:39Z</time>
        <extensions>
          <gpxtpx:TrackPointExtension>
            <gpxtpx:hr>121</gpxtpx:hr>
          </gpxtpx:TrackPointExtension>
        </extensions>
      </trkpt>
      <trkpt lat="34.80988057695215" lon="113.52863525663145">
        <ele>104.3</ele>
        <time>2025-06-20T04:12:40Z</time>
        <extensions>
          <gpxtpx:TrackPointExtension>
            <gpxtpx:hr>121</gpxtpx:hr>
          </gpxtpx:TrackPointExtension>
        </extensions>
      </trkpt>
      <trkpt lat="34.80986390305592" lon="113.5286802481214">
        <ele>104.8</ele>
        <time>2025-06-20T04:12:41Z</time>
        <extensions>
          <gpxtpx:TrackPointExtension>
            <gpxtpx:hr>122</gpxtpx:hr>
          </gpxtpx:TrackPointExtension>
        </extensions>
      </trkpt>
      <trkpt lat="34.80985289543459" lon="113.52872757248696">
        <ele>104.8</ele>
        <time>2025-06-20T04:12:42Z</time>
        <extensions>
          <gpxtpx:TrackPointExtension>
            <gpxtpx:hr>122</gpxtpx:hr>
          </gpxtpx:TrackPointExtension>
        </extensions>
      </trkpt>
      <trkpt lat="34.80984688784901" lon="113.52877456356403">
        <ele>104.8</ele>
        <time>2025-06-20T04:12:43Z</time>
        <extensions>
          <gpxtpx:TrackPointExtension>
            <gpxtpx:hr>122</gpxtpx:hr>
          </gpxtpx:TrackPointExtension>
        </extensions>
      </trkpt>
      <trkpt lat="34.80984421417597" lon="113.52881788865776">
        <ele>104.8</ele>
        <time>2025-06-20T04:12:44Z</time>
        <extensions>
          <gpxtpx:TrackPointExtension>
            <gpxtpx:hr>122</gpxtpx:hr>
          </gpxtpx:TrackPointExtension>
        </extensions>
      </trkpt>
      <trkpt lat="34.809844208021985" lon="113.52885588142158">
        <ele>104.8</ele>
        <time>2025-06-20T04:12:45Z</time>
        <extensions>
          <gpxtpx:TrackPointExtension>
            <gpxtpx:hr>122</gpxtpx:hr>
          </gpxtpx:TrackPointExtension>
        </extensions>
      </trkpt>
      <trkpt lat="34.80984620262209" lon="113.52888920840623">
        <ele>104.6</ele>
        <time>2025-06-20T04:12:46Z</time>
        <extensions>
          <gpxtpx:TrackPointExtension>
            <gpxtpx:hr>122</gpxtpx:hr>
          </gpxtpx:TrackPointExtension>
        </extensions>
      </trkpt>
      <trkpt lat="34.80985019770805" lon="113.52891953596368">
        <ele>104.6</ele>
        <time>2025-06-20T04:12:47Z</time>
        <extensions>
          <gpxtpx:TrackPointExtension>
            <gpxtpx:hr>122</gpxtpx:hr>
          </gpxtpx:TrackPointExtension>
        </extensions>
      </trkpt>
      <trkpt lat="34.80985485956953" lon="113.52894919698262">
        <ele>104.6</ele>
        <time>2025-06-20T04:12:48Z</time>
        <extensions>
          <gpxtpx:TrackPointExtension>
            <gpxtpx:hr>122</gpxtpx:hr>
          </gpxtpx:TrackPointExtension>
        </extensions>
      </trkpt>
      <trkpt lat="34.80985918782778" lon="113.52898052435044">
        <ele>104.6</ele>
        <time>2025-06-20T04:12:49Z</time>
        <extensions>
          <gpxtpx:TrackPointExtension>
            <gpxtpx:hr>122</gpxtpx:hr>
          </gpxtpx:TrackPointExtension>
        </extensions>
      </trkpt>
      <trkpt lat="34.80985984882064" lon="113.5290155176789">
        <ele>104.6</ele>
        <time>2025-06-20T04:12:50Z</time>
        <extensions>
          <gpxtpx:TrackPointExtension>
            <gpxtpx:hr>122</gpxtpx:hr>
          </gpxtpx:TrackPointExtension>
        </extensions>
      </trkpt>
      <trkpt lat="34.80985584281545" lon="113.52905251061446">
        <ele>104.6</ele>
        <time>2025-06-20T04:12:51Z</time>
        <extensions>
          <gpxtpx:TrackPointExtension>
            <gpxtpx:hr>122</gpxtpx:hr>
          </gpxtpx:TrackPointExtension>
        </extensions>
      </trkpt>
      <trkpt lat="34.80984550335887" lon="113.52909017007383">
        <ele>104.6</ele>
        <time>2025-06-20T04:12:52Z</time>
        <extensions>
          <gpxtpx:TrackPointExtension>
            <gpxtpx:hr>122</gpxtpx:hr>
          </gpxtpx:TrackPointExtension>
        </extensions>
      </trkpt>
      <trkpt lat="34.80982816427124" lon="113.5291254966292">
        <ele>104.6</ele>
        <time>2025-06-20T04:12:53Z</time>
        <extensions>
          <gpxtpx:TrackPointExtension>
            <gpxtpx:hr>122</gpxtpx:hr>
          </gpxtpx:TrackPointExtension>
        </extensions>
      </trkpt>
      <trkpt lat="34.8098031593786" lon="113.52915549085958">
        <ele>104.6</ele>
        <time>2025-06-20T04:12:54Z</time>
      </trkpt>
      <trkpt lat="34.80977248885038" lon="113.52917915296518">
        <ele>104.6</ele>
        <time>2025-06-20T04:12:55Z</time>
      </trkpt>
      <trkpt lat="34.80973815263524" lon="113.52919681622093">
        <ele>104.6</ele>
        <time>2025-06-20T04:12:56Z</time>
      </trkpt>
      <trkpt lat="34.80970248395849" lon="113.52920914716765">
        <ele>104.6</ele>
        <time>2025-06-20T04:12:57Z</time>
      </trkpt>
      <trkpt lat="34.80966748271006" lon="113.5292168123442">
        <ele>104.6</ele>
        <time>2025-06-20T04:12:58Z</time>
      </trkpt>
      <trkpt lat="34.809634815284284" lon="113.52922147809798">
        <ele>104.6</ele>
        <time>2025-06-20T04:12:59Z</time>
      </trkpt>
      <trkpt lat="34.80960548151787" lon="113.5292241442377">
        <ele>104.6</ele>
        <time>2025-06-20T04:13:00Z</time>
      </trkpt>
      <trkpt lat="34.809578481411435" lon="113.52922481076276">
        <ele>104.6</ele>
        <time>2025-06-20T04:13:01Z</time>
      </trkpt>
      <trkpt lat="34.80955114824376" lon="113.52922381094096">
        <ele>104.6</ele>
        <time>2025-06-20T04:13:02Z</time>
      </trkpt>
      <trkpt lat="34.80952081513122" lon="113.52922247784828">
        <ele>104.6</ele>
        <time>2025-06-20T04:13:03Z</time>
      </trkpt>
      <trkpt lat="34.80948714868537" lon="113.52922114475393">
        <ele>104.6</ele>
        <time>2025-06-20T04:13:04Z</time>
      </trkpt>
      <trkpt lat="34.80944914907028" lon="113.52921881184933">
        <ele>104.6</ele>
        <time>2025-06-20T04:13:05Z</time>
      </trkpt>
      <trkpt lat="34.80940681601339" lon="113.52921714548117">
        <ele>104.6</ele>
        <time>2025-06-20T04:13:06Z</time>
      </trkpt>
      <trkpt lat="34.80936148273928" lon="113.52921681218895">
        <ele>104.6</ele>
        <time>2025-06-20T04:13:07Z</time>
      </trkpt>
      <trkpt lat="34.80931581645672" lon="113.52921447928036">
        <ele>104.6</ele>
        <time>2025-06-20T04:13:08Z</time>
      </trkpt>
      <trkpt lat="34.80926748231265" lon="113.52921947829644">
        <ele>104.6</ele>
        <time>2025-06-20T04:13:09Z</time>
      </trkpt>
    </trkseg>
  </trk>
</gpx>